<?xml version='1.0' encoding='utf-8'?>
<gpx xmlns="http://www.topografix.com/GPX/1/1" xmlns:xsi="http://www.w3.org/2001/XMLSchema-instance" version="1.1" creator="Bob's Motorcycle Trails" xsi:schemaLocation="http://www.topografix.com/GPX/1/1 http://www.topografix.com/GPX/1/1/gpx.xsd"><trk><name>T001 GIADEBE</name><trkseg><trkpt lat="46.665136" lon="-121.889405"></trkpt><trkpt lat="46.666402" lon="-121.890993"></trkpt><trkpt lat="46.670025" lon="-121.893439"></trkpt><trkpt lat="46.672616" lon="-121.894512"></trkpt><trkpt lat="46.677210" lon="-121.895242"></trkpt><trkpt lat="46.677740" lon="-121.894684"></trkpt></trkseg></trk><trk><name>T002 GIADEBE</name><trkseg><trkpt lat="46.677769" lon="-121.894641"></trkpt><trkpt lat="46.677386" lon="-121.892538"></trkpt><trkpt lat="46.674824" lon="-121.890993"></trkpt><trkpt lat="46.671674" lon="-121.890564"></trkpt><trkpt lat="46.670555" lon="-121.888075"></trkpt><trkpt lat="46.669112" lon="-121.885071"></trkpt><trkpt lat="46.668729" lon="-121.882625"></trkpt><trkpt lat="46.669671" lon="-121.879148"></trkpt><trkpt lat="46.670437" lon="-121.878419"></trkpt><trkpt lat="46.671821" lon="-121.875029"></trkpt><trkpt lat="46.672793" lon="-121.871037"></trkpt><trkpt lat="46.674383" lon="-121.867819"></trkpt><trkpt lat="46.672321" lon="-121.869493"></trkpt><trkpt lat="46.670231" lon="-121.872754"></trkpt><trkpt lat="46.669465" lon="-121.872711"></trkpt><trkpt lat="46.668552" lon="-121.871338"></trkpt><trkpt lat="46.666284" lon="-121.869364"></trkpt><trkpt lat="46.665430" lon="-121.867433"></trkpt><trkpt lat="46.665519" lon="-121.862111"></trkpt><trkpt lat="46.665931" lon="-121.860652"></trkpt><trkpt lat="46.665460" lon="-121.859150"></trkpt><trkpt lat="46.665607" lon="-121.856017"></trkpt><trkpt lat="46.665990" lon="-121.855416"></trkpt><trkpt lat="46.666991" lon="-121.855373"></trkpt><trkpt lat="46.669141" lon="-121.853142"></trkpt><trkpt lat="46.669936" lon="-121.850610"></trkpt><trkpt lat="46.669995" lon="-121.846919"></trkpt><trkpt lat="46.674206" lon="-121.843915"></trkpt><trkpt lat="46.674383" lon="-121.843143"></trkpt><trkpt lat="46.673588" lon="-121.840096"></trkpt><trkpt lat="46.672645" lon="-121.839108"></trkpt><trkpt lat="46.672940" lon="-121.837564"></trkpt><trkpt lat="46.672204" lon="-121.835289"></trkpt><trkpt lat="46.672528" lon="-121.831942"></trkpt><trkpt lat="46.672086" lon="-121.830397"></trkpt><trkpt lat="46.671291" lon="-121.830440"></trkpt><trkpt lat="46.669171" lon="-121.831040"></trkpt><trkpt lat="46.668994" lon="-121.832285"></trkpt><trkpt lat="46.668964" lon="-121.832886"></trkpt><trkpt lat="46.668464" lon="-121.833272"></trkpt><trkpt lat="46.669023" lon="-121.835761"></trkpt><trkpt lat="46.668964" lon="-121.836534"></trkpt><trkpt lat="46.669200" lon="-121.839495"></trkpt><trkpt lat="46.668935" lon="-121.840053"></trkpt><trkpt lat="46.668670" lon="-121.839774"></trkpt><trkpt lat="46.668935" lon="-121.838915"></trkpt><trkpt lat="46.667860" lon="-121.837542"></trkpt><trkpt lat="46.667566" lon="-121.837907"></trkpt><trkpt lat="46.667050" lon="-121.840310"></trkpt><trkpt lat="46.666417" lon="-121.840696"></trkpt><trkpt lat="46.662956" lon="-121.839559"></trkpt><trkpt lat="46.661719" lon="-121.838422"></trkpt><trkpt lat="46.660320" lon="-121.839967"></trkpt><trkpt lat="46.659614" lon="-121.840975"></trkpt><trkpt lat="46.658082" lon="-121.842113"></trkpt><trkpt lat="46.657581" lon="-121.842864"></trkpt><trkpt lat="46.656756" lon="-121.843164"></trkpt></trkseg></trk><trk><name>T003 GIADEBE</name><trkseg><trkpt lat="46.607645" lon="-121.068053"></trkpt><trkpt lat="46.607628" lon="-121.068111"></trkpt><trkpt lat="46.607545" lon="-121.068270"></trkpt><trkpt lat="46.607527" lon="-121.068338"></trkpt><trkpt lat="46.607439" lon="-121.068404"></trkpt><trkpt lat="46.607408" lon="-121.068590"></trkpt><trkpt lat="46.607365" lon="-121.068835"></trkpt><trkpt lat="46.607312" lon="-121.068961"></trkpt><trkpt lat="46.607309" lon="-121.069223"></trkpt><trkpt lat="46.607068" lon="-121.069473"></trkpt><trkpt lat="46.606944" lon="-121.069598"></trkpt><trkpt lat="46.606768" lon="-121.069696"></trkpt><trkpt lat="46.606403" lon="-121.069494"></trkpt><trkpt lat="46.606309" lon="-121.069518"></trkpt><trkpt lat="46.606094" lon="-121.069505"></trkpt><trkpt lat="46.605983" lon="-121.069520"></trkpt><trkpt lat="46.605756" lon="-121.069490"></trkpt><trkpt lat="46.605634" lon="-121.069428"></trkpt><trkpt lat="46.605353" lon="-121.069508"></trkpt><trkpt lat="46.605135" lon="-121.069749"></trkpt><trkpt lat="46.605101" lon="-121.069848"></trkpt><trkpt lat="46.605040" lon="-121.069934"></trkpt><trkpt lat="46.604776" lon="-121.070166"></trkpt><trkpt lat="46.604653" lon="-121.070197"></trkpt><trkpt lat="46.604415" lon="-121.070015"></trkpt><trkpt lat="46.604370" lon="-121.069929"></trkpt><trkpt lat="46.604306" lon="-121.069894"></trkpt><trkpt lat="46.604189" lon="-121.069943"></trkpt><trkpt lat="46.604047" lon="-121.070076"></trkpt><trkpt lat="46.603913" lon="-121.070115"></trkpt><trkpt lat="46.603533" lon="-121.070201"></trkpt><trkpt lat="46.603486" lon="-121.070277"></trkpt><trkpt lat="46.603322" lon="-121.070358"></trkpt><trkpt lat="46.603246" lon="-121.070365"></trkpt><trkpt lat="46.603024" lon="-121.070369"></trkpt><trkpt lat="46.602878" lon="-121.070400"></trkpt><trkpt lat="46.602570" lon="-121.070327"></trkpt><trkpt lat="46.602272" lon="-121.070397"></trkpt><trkpt lat="46.602004" lon="-121.070400"></trkpt><trkpt lat="46.601893" lon="-121.070390"></trkpt><trkpt lat="46.601567" lon="-121.070265"></trkpt><trkpt lat="46.601387" lon="-121.070185"></trkpt><trkpt lat="46.601207" lon="-121.070131"></trkpt><trkpt lat="46.600845" lon="-121.070149"></trkpt><trkpt lat="46.600793" lon="-121.070182"></trkpt><trkpt lat="46.600635" lon="-121.070179"></trkpt><trkpt lat="46.600534" lon="-121.070161"></trkpt></trkseg></trk><trk><name>T004 GIADEBE</name><trkseg><trkpt lat="46.625392" lon="-121.066499"></trkpt><trkpt lat="46.625391" lon="-121.066402"></trkpt><trkpt lat="46.625160" lon="-121.066066"></trkpt><trkpt lat="46.624965" lon="-121.065828"></trkpt><trkpt lat="46.624857" lon="-121.065723"></trkpt><trkpt lat="46.624677" lon="-121.065644"></trkpt><trkpt lat="46.624523" lon="-121.065626"></trkpt><trkpt lat="46.624420" lon="-121.065589"></trkpt><trkpt lat="46.624237" lon="-121.065516"></trkpt></trkseg></trk><trk><name>T005 GIADEBE</name><trkseg><trkpt lat="46.616245" lon="-121.078557"></trkpt><trkpt lat="46.616558" lon="-121.079089"></trkpt><trkpt lat="46.616505" lon="-121.079304"></trkpt><trkpt lat="46.616566" lon="-121.079538"></trkpt><trkpt lat="46.616708" lon="-121.079607"></trkpt><trkpt lat="46.616866" lon="-121.079751"></trkpt><trkpt lat="46.616945" lon="-121.079944"></trkpt><trkpt lat="46.617069" lon="-121.080071"></trkpt><trkpt lat="46.617084" lon="-121.080362"></trkpt><trkpt lat="46.617151" lon="-121.080446"></trkpt><trkpt lat="46.617145" lon="-121.080538"></trkpt><trkpt lat="46.617286" lon="-121.080765"></trkpt><trkpt lat="46.617273" lon="-121.080856"></trkpt><trkpt lat="46.617367" lon="-121.080987"></trkpt><trkpt lat="46.617483" lon="-121.081051"></trkpt><trkpt lat="46.617516" lon="-121.081201"></trkpt><trkpt lat="46.617498" lon="-121.081292"></trkpt><trkpt lat="46.617570" lon="-121.081551"></trkpt><trkpt lat="46.617531" lon="-121.082081"></trkpt><trkpt lat="46.617586" lon="-121.082232"></trkpt><trkpt lat="46.617643" lon="-121.082283"></trkpt><trkpt lat="46.617642" lon="-121.082341"></trkpt><trkpt lat="46.617727" lon="-121.082409"></trkpt><trkpt lat="46.617738" lon="-121.082526"></trkpt><trkpt lat="46.617830" lon="-121.082469"></trkpt><trkpt lat="46.618187" lon="-121.082759"></trkpt><trkpt lat="46.618443" lon="-121.082830"></trkpt><trkpt lat="46.618703" lon="-121.083142"></trkpt><trkpt lat="46.618908" lon="-121.083288"></trkpt><trkpt lat="46.619098" lon="-121.083682"></trkpt><trkpt lat="46.619131" lon="-121.083873"></trkpt><trkpt lat="46.619193" lon="-121.083974"></trkpt><trkpt lat="46.619162" lon="-121.084165"></trkpt><trkpt lat="46.619259" lon="-121.084258"></trkpt><trkpt lat="46.619532" lon="-121.084313"></trkpt><trkpt lat="46.619600" lon="-121.084364"></trkpt><trkpt lat="46.619658" lon="-121.084889"></trkpt><trkpt lat="46.619649" lon="-121.085345"></trkpt><trkpt lat="46.619806" lon="-121.085614"></trkpt><trkpt lat="46.619849" lon="-121.085930"></trkpt><trkpt lat="46.619802" lon="-121.086038"></trkpt><trkpt lat="46.619829" lon="-121.086237"></trkpt><trkpt lat="46.619770" lon="-121.086369"></trkpt><trkpt lat="46.619772" lon="-121.086859"></trkpt><trkpt lat="46.619737" lon="-121.086933"></trkpt><trkpt lat="46.619669" lon="-121.086882"></trkpt><trkpt lat="46.619582" lon="-121.086930"></trkpt><trkpt lat="46.619350" lon="-121.086768"></trkpt><trkpt lat="46.619333" lon="-121.086693"></trkpt><trkpt lat="46.619180" lon="-121.086615"></trkpt><trkpt lat="46.619083" lon="-121.086605"></trkpt><trkpt lat="46.618954" lon="-121.086320"></trkpt><trkpt lat="46.618979" lon="-121.086113"></trkpt><trkpt lat="46.618861" lon="-121.085861"></trkpt><trkpt lat="46.618331" lon="-121.085760"></trkpt><trkpt lat="46.618024" lon="-121.085579"></trkpt><trkpt lat="46.617910" lon="-121.085569"></trkpt><trkpt lat="46.617590" lon="-121.085222"></trkpt><trkpt lat="46.617384" lon="-121.085201"></trkpt><trkpt lat="46.617292" lon="-121.085349"></trkpt><trkpt lat="46.617294" lon="-121.085689"></trkpt><trkpt lat="46.617081" lon="-121.085893"></trkpt><trkpt lat="46.617080" lon="-121.086001"></trkpt><trkpt lat="46.617300" lon="-121.086312"></trkpt><trkpt lat="46.617316" lon="-121.086486"></trkpt><trkpt lat="46.617292" lon="-121.086545"></trkpt><trkpt lat="46.617408" lon="-121.086979"></trkpt><trkpt lat="46.617595" lon="-121.087090"></trkpt><trkpt lat="46.617589" lon="-121.087207"></trkpt><trkpt lat="46.617868" lon="-121.087843"></trkpt><trkpt lat="46.617942" lon="-121.087886"></trkpt><trkpt lat="46.617930" lon="-121.087927"></trkpt><trkpt lat="46.618061" lon="-121.088046"></trkpt><trkpt lat="46.618008" lon="-121.088211"></trkpt><trkpt lat="46.617924" lon="-121.088343"></trkpt><trkpt lat="46.617888" lon="-121.088508"></trkpt><trkpt lat="46.617895" lon="-121.089023"></trkpt><trkpt lat="46.617834" lon="-121.089371"></trkpt><trkpt lat="46.617898" lon="-121.089514"></trkpt><trkpt lat="46.617744" lon="-121.089851"></trkpt><trkpt lat="46.617629" lon="-121.089923"></trkpt><trkpt lat="46.617588" lon="-121.090047"></trkpt><trkpt lat="46.617415" lon="-121.090226"></trkpt><trkpt lat="46.617488" lon="-121.090377"></trkpt><trkpt lat="46.617474" lon="-121.090634"></trkpt><trkpt lat="46.617344" lon="-121.091080"></trkpt><trkpt lat="46.617359" lon="-121.091338"></trkpt><trkpt lat="46.617141" lon="-121.091441"></trkpt><trkpt lat="46.616958" lon="-121.091405"></trkpt><trkpt lat="46.616748" lon="-121.091226"></trkpt><trkpt lat="46.616709" lon="-121.091250"></trkpt></trkseg></trk><trk><name>T006 GIADEBE</name><trkseg><trkpt lat="46.558383" lon="-121.145334"></trkpt><trkpt lat="46.558386" lon="-121.145360"></trkpt><trkpt lat="46.558338" lon="-121.145449"></trkpt><trkpt lat="46.558340" lon="-121.145585"></trkpt><trkpt lat="46.558320" lon="-121.145747"></trkpt><trkpt lat="46.558249" lon="-121.145802"></trkpt><trkpt lat="46.558181" lon="-121.146002"></trkpt><trkpt lat="46.558162" lon="-121.146256"></trkpt><trkpt lat="46.558123" lon="-121.146520"></trkpt><trkpt lat="46.558096" lon="-121.146623"></trkpt><trkpt lat="46.558042" lon="-121.146610"></trkpt><trkpt lat="46.557925" lon="-121.146615"></trkpt><trkpt lat="46.557832" lon="-121.146734"></trkpt><trkpt lat="46.557696" lon="-121.146906"></trkpt><trkpt lat="46.557528" lon="-121.146903"></trkpt><trkpt lat="46.557450" lon="-121.147001"></trkpt><trkpt lat="46.557415" lon="-121.147104"></trkpt><trkpt lat="46.557417" lon="-121.147199"></trkpt><trkpt lat="46.557234" lon="-121.147372"></trkpt><trkpt lat="46.557139" lon="-121.147566"></trkpt><trkpt lat="46.557003" lon="-121.147726"></trkpt><trkpt lat="46.556704" lon="-121.147901"></trkpt><trkpt lat="46.556462" lon="-121.148238"></trkpt><trkpt lat="46.556309" lon="-121.148554"></trkpt><trkpt lat="46.556114" lon="-121.148730"></trkpt><trkpt lat="46.555157" lon="-121.149439"></trkpt><trkpt lat="46.555165" lon="-121.149459"></trkpt></trkseg></trk><trk><name>T007 GIADEBE</name><trkseg><trkpt lat="46.615107" lon="-121.052937"></trkpt><trkpt lat="46.615184" lon="-121.052899"></trkpt><trkpt lat="46.615477" lon="-121.052684"></trkpt><trkpt lat="46.615559" lon="-121.052635"></trkpt><trkpt lat="46.615722" lon="-121.052757"></trkpt><trkpt lat="46.615957" lon="-121.052723"></trkpt><trkpt lat="46.616010" lon="-121.052564"></trkpt><trkpt lat="46.616044" lon="-121.052285"></trkpt><trkpt lat="46.616286" lon="-121.052191"></trkpt><trkpt lat="46.616782" lon="-121.052052"></trkpt><trkpt lat="46.616930" lon="-121.051932"></trkpt><trkpt lat="46.617118" lon="-121.051834"></trkpt><trkpt lat="46.617468" lon="-121.051773"></trkpt><trkpt lat="46.617577" lon="-121.051686"></trkpt><trkpt lat="46.617653" lon="-121.051499"></trkpt><trkpt lat="46.617887" lon="-121.051426"></trkpt><trkpt lat="46.618184" lon="-121.051329"></trkpt><trkpt lat="46.618385" lon="-121.051311"></trkpt><trkpt lat="46.618498" lon="-121.051369"></trkpt><trkpt lat="46.618899" lon="-121.051379"></trkpt><trkpt lat="46.619056" lon="-121.051368"></trkpt><trkpt lat="46.619150" lon="-121.051466"></trkpt><trkpt lat="46.619430" lon="-121.051522"></trkpt><trkpt lat="46.619676" lon="-121.051340"></trkpt><trkpt lat="46.620034" lon="-121.051425"></trkpt><trkpt lat="46.620352" lon="-121.051438"></trkpt><trkpt lat="46.620375" lon="-121.051421"></trkpt><trkpt lat="46.620549" lon="-121.051268"></trkpt><trkpt lat="46.620738" lon="-121.051293"></trkpt><trkpt lat="46.621214" lon="-121.051480"></trkpt><trkpt lat="46.621336" lon="-121.051519"></trkpt><trkpt lat="46.621538" lon="-121.051480"></trkpt><trkpt lat="46.621552" lon="-121.051464"></trkpt><trkpt lat="46.621830" lon="-121.051313"></trkpt><trkpt lat="46.622189" lon="-121.051085"></trkpt><trkpt lat="46.622248" lon="-121.050879"></trkpt><trkpt lat="46.622535" lon="-121.050725"></trkpt><trkpt lat="46.622785" lon="-121.050391"></trkpt><trkpt lat="46.623156" lon="-121.049928"></trkpt><trkpt lat="46.623551" lon="-121.048822"></trkpt><trkpt lat="46.623655" lon="-121.048402"></trkpt><trkpt lat="46.624030" lon="-121.047406"></trkpt><trkpt lat="46.624177" lon="-121.046891"></trkpt><trkpt lat="46.624392" lon="-121.046245"></trkpt><trkpt lat="46.624506" lon="-121.045776"></trkpt><trkpt lat="46.624692" lon="-121.045213"></trkpt><trkpt lat="46.624864" lon="-121.044594"></trkpt><trkpt lat="46.625104" lon="-121.044370"></trkpt><trkpt lat="46.625305" lon="-121.044377"></trkpt><trkpt lat="46.625459" lon="-121.044212"></trkpt><trkpt lat="46.625632" lon="-121.043225"></trkpt><trkpt lat="46.625970" lon="-121.042685"></trkpt><trkpt lat="46.626165" lon="-121.042191"></trkpt><trkpt lat="46.626400" lon="-121.041715"></trkpt></trkseg></trk><trk><name>T008 GIADEBE</name><trkseg><trkpt lat="46.695050" lon="-121.886444"></trkpt><trkpt lat="46.694520" lon="-121.885586"></trkpt><trkpt lat="46.695021" lon="-121.884127"></trkpt><trkpt lat="46.694608" lon="-121.882453"></trkpt><trkpt lat="46.696728" lon="-121.881037"></trkpt><trkpt lat="46.697817" lon="-121.878848"></trkpt><trkpt lat="46.702143" lon="-121.874943"></trkpt><trkpt lat="46.703144" lon="-121.870694"></trkpt><trkpt lat="46.702202" lon="-121.864729"></trkpt><trkpt lat="46.702644" lon="-121.863785"></trkpt><trkpt lat="46.702585" lon="-121.862369"></trkpt><trkpt lat="46.703497" lon="-121.862154"></trkpt><trkpt lat="46.705999" lon="-121.867003"></trkpt><trkpt lat="46.707146" lon="-121.867819"></trkpt><trkpt lat="46.709236" lon="-121.871982"></trkpt><trkpt lat="46.709648" lon="-121.875844"></trkpt><trkpt lat="46.716180" lon="-121.886873"></trkpt><trkpt lat="46.717328" lon="-121.893053"></trkpt><trkpt lat="46.716563" lon="-121.894255"></trkpt><trkpt lat="46.717504" lon="-121.897430"></trkpt><trkpt lat="46.717269" lon="-121.898503"></trkpt><trkpt lat="46.718593" lon="-121.902494"></trkpt><trkpt lat="46.720593" lon="-121.907215"></trkpt><trkpt lat="46.722388" lon="-121.909661"></trkpt><trkpt lat="46.723182" lon="-121.909361"></trkpt><trkpt lat="46.722918" lon="-121.907730"></trkpt><trkpt lat="46.722682" lon="-121.906915"></trkpt><trkpt lat="46.722829" lon="-121.905627"></trkpt><trkpt lat="46.722476" lon="-121.904426"></trkpt><trkpt lat="46.722594" lon="-121.902237"></trkpt><trkpt lat="46.723212" lon="-121.901679"></trkpt><trkpt lat="46.725477" lon="-121.904812"></trkpt><trkpt lat="46.725948" lon="-121.904898"></trkpt><trkpt lat="46.728154" lon="-121.908374"></trkpt><trkpt lat="46.729684" lon="-121.911507"></trkpt><trkpt lat="46.730095" lon="-121.913438"></trkpt><trkpt lat="46.734361" lon="-121.913610"></trkpt></trkseg></trk><trk><name>T009 GIADEBE</name><trkseg><trkpt lat="46.705116" lon="-121.931334"></trkpt><trkpt lat="46.705233" lon="-121.930819"></trkpt><trkpt lat="46.705351" lon="-121.928673"></trkpt><trkpt lat="46.705704" lon="-121.928287"></trkpt><trkpt lat="46.707058" lon="-121.928716"></trkpt><trkpt lat="46.707176" lon="-121.925025"></trkpt><trkpt lat="46.706734" lon="-121.924810"></trkpt><trkpt lat="46.705763" lon="-121.926827"></trkpt><trkpt lat="46.704056" lon="-121.925755"></trkpt><trkpt lat="46.703791" lon="-121.923609"></trkpt><trkpt lat="46.706911" lon="-121.920176"></trkpt><trkpt lat="46.707764" lon="-121.919918"></trkpt><trkpt lat="46.709412" lon="-121.920905"></trkpt><trkpt lat="46.710913" lon="-121.919274"></trkpt><trkpt lat="46.715209" lon="-121.917171"></trkpt><trkpt lat="46.718387" lon="-121.917901"></trkpt><trkpt lat="46.718681" lon="-121.909618"></trkpt><trkpt lat="46.717475" lon="-121.905584"></trkpt><trkpt lat="46.717445" lon="-121.904297"></trkpt><trkpt lat="46.716916" lon="-121.903696"></trkpt><trkpt lat="46.716092" lon="-121.900177"></trkpt><trkpt lat="46.716474" lon="-121.899834"></trkpt><trkpt lat="46.716974" lon="-121.900606"></trkpt><trkpt lat="46.717416" lon="-121.902795"></trkpt><trkpt lat="46.718063" lon="-121.903567"></trkpt><trkpt lat="46.718769" lon="-121.906829"></trkpt><trkpt lat="46.720799" lon="-121.911077"></trkpt><trkpt lat="46.721211" lon="-121.913009"></trkpt><trkpt lat="46.721829" lon="-121.912751"></trkpt><trkpt lat="46.722565" lon="-121.909618"></trkpt><trkpt lat="46.723006" lon="-121.909339"></trkpt><trkpt lat="46.723256" lon="-121.908374"></trkpt><trkpt lat="46.722623" lon="-121.907043"></trkpt><trkpt lat="46.722829" lon="-121.905971"></trkpt><trkpt lat="46.722432" lon="-121.904597"></trkpt><trkpt lat="46.722667" lon="-121.903396"></trkpt><trkpt lat="46.722579" lon="-121.902559"></trkpt><trkpt lat="46.723285" lon="-121.901786"></trkpt><trkpt lat="46.725462" lon="-121.904919"></trkpt><trkpt lat="46.726051" lon="-121.905048"></trkpt><trkpt lat="46.727948" lon="-121.907837"></trkpt><trkpt lat="46.729625" lon="-121.911464"></trkpt><trkpt lat="46.730110" lon="-121.913331"></trkpt><trkpt lat="46.734346" lon="-121.913610"></trkpt></trkseg></trk><trk><name>T010 GIADEBE</name><trkseg><trkpt lat="46.622550" lon="-121.069273"></trkpt><trkpt lat="46.622905" lon="-121.068688"></trkpt><trkpt lat="46.623235" lon="-121.068694"></trkpt><trkpt lat="46.623352" lon="-121.068583"></trkpt><trkpt lat="46.623610" lon="-121.067968"></trkpt><trkpt lat="46.623691" lon="-121.067575"></trkpt><trkpt lat="46.623698" lon="-121.066869"></trkpt><trkpt lat="46.623877" lon="-121.066393"></trkpt><trkpt lat="46.623842" lon="-121.065970"></trkpt><trkpt lat="46.623961" lon="-121.065633"></trkpt><trkpt lat="46.624352" lon="-121.065359"></trkpt><trkpt lat="46.624452" lon="-121.065079"></trkpt><trkpt lat="46.624433" lon="-121.064994"></trkpt><trkpt lat="46.624125" lon="-121.064734"></trkpt><trkpt lat="46.624116" lon="-121.063633"></trkpt><trkpt lat="46.624253" lon="-121.063467"></trkpt><trkpt lat="46.624319" lon="-121.062650"></trkpt><trkpt lat="46.624439" lon="-121.062201"></trkpt><trkpt lat="46.624575" lon="-121.062147"></trkpt><trkpt lat="46.624674" lon="-121.061923"></trkpt><trkpt lat="46.624776" lon="-121.061389"></trkpt><trkpt lat="46.625094" lon="-121.060634"></trkpt><trkpt lat="46.625017" lon="-121.060491"></trkpt><trkpt lat="46.624728" lon="-121.060345"></trkpt><trkpt lat="46.624595" lon="-121.060032"></trkpt><trkpt lat="46.624055" lon="-121.059627"></trkpt><trkpt lat="46.623940" lon="-121.059427"></trkpt><trkpt lat="46.623820" lon="-121.057760"></trkpt><trkpt lat="46.623899" lon="-121.057593"></trkpt><trkpt lat="46.623745" lon="-121.057420"></trkpt><trkpt lat="46.623711" lon="-121.056912"></trkpt><trkpt lat="46.623597" lon="-121.056600"></trkpt><trkpt lat="46.623367" lon="-121.056285"></trkpt><trkpt lat="46.622745" lon="-121.056414"></trkpt><trkpt lat="46.622529" lon="-121.056692"></trkpt><trkpt lat="46.622410" lon="-121.056972"></trkpt><trkpt lat="46.622061" lon="-121.056937"></trkpt><trkpt lat="46.621865" lon="-121.057131"></trkpt><trkpt lat="46.621634" lon="-121.056985"></trkpt><trkpt lat="46.621321" lon="-121.057233"></trkpt><trkpt lat="46.621319" lon="-121.057515"></trkpt><trkpt lat="46.621162" lon="-121.057681"></trkpt><trkpt lat="46.620696" lon="-121.057729"></trkpt><trkpt lat="46.620463" lon="-121.057668"></trkpt><trkpt lat="46.620174" lon="-121.057521"></trkpt><trkpt lat="46.619962" lon="-121.057264"></trkpt><trkpt lat="46.620062" lon="-121.056983"></trkpt><trkpt lat="46.619871" lon="-121.056641"></trkpt><trkpt lat="46.619974" lon="-121.056023"></trkpt><trkpt lat="46.619820" lon="-121.055879"></trkpt><trkpt lat="46.619980" lon="-121.055374"></trkpt><trkpt lat="46.620022" lon="-121.054980"></trkpt><trkpt lat="46.620218" lon="-121.054730"></trkpt><trkpt lat="46.620221" lon="-121.054448"></trkpt><trkpt lat="46.620319" lon="-121.054280"></trkpt><trkpt lat="46.620513" lon="-121.054341"></trkpt><trkpt lat="46.620670" lon="-121.054118"></trkpt><trkpt lat="46.620865" lon="-121.054037"></trkpt><trkpt lat="46.621039" lon="-121.054069"></trkpt><trkpt lat="46.621313" lon="-121.053792"></trkpt><trkpt lat="46.621545" lon="-121.053881"></trkpt><trkpt lat="46.621741" lon="-121.053715"></trkpt><trkpt lat="46.621801" lon="-121.053491"></trkpt><trkpt lat="46.621317" lon="-121.053369"></trkpt><trkpt lat="46.621164" lon="-121.053140"></trkpt><trkpt lat="46.621089" lon="-121.052800"></trkpt><trkpt lat="46.621207" lon="-121.052661"></trkpt><trkpt lat="46.621402" lon="-121.052552"></trkpt><trkpt lat="46.621618" lon="-121.052274"></trkpt><trkpt lat="46.621622" lon="-121.051851"></trkpt><trkpt lat="46.621289" lon="-121.050040"></trkpt><trkpt lat="46.621101" lon="-121.049303"></trkpt><trkpt lat="46.620762" lon="-121.048168"></trkpt><trkpt lat="46.620572" lon="-121.047741"></trkpt></trkseg></trk><trk><name>T011 GIADEBE</name><trkseg><trkpt lat="46.701231" lon="-121.814818"></trkpt><trkpt lat="46.699082" lon="-121.812651"></trkpt><trkpt lat="46.695771" lon="-121.811020"></trkpt><trkpt lat="46.696007" lon="-121.810763"></trkpt><trkpt lat="46.697331" lon="-121.810870"></trkpt><trkpt lat="46.701157" lon="-121.812179"></trkpt><trkpt lat="46.701849" lon="-121.811793"></trkpt><trkpt lat="46.702143" lon="-121.811149"></trkpt><trkpt lat="46.705292" lon="-121.813509"></trkpt><trkpt lat="46.709677" lon="-121.813703"></trkpt><trkpt lat="46.710060" lon="-121.814153"></trkpt><trkpt lat="46.711045" lon="-121.816278"></trkpt><trkpt lat="46.718048" lon="-121.823487"></trkpt><trkpt lat="46.720108" lon="-121.824646"></trkpt><trkpt lat="46.721844" lon="-121.828229"></trkpt><trkpt lat="46.724830" lon="-121.830547"></trkpt><trkpt lat="46.726433" lon="-121.830461"></trkpt><trkpt lat="46.727257" lon="-121.831512"></trkpt><trkpt lat="46.727301" lon="-121.832950"></trkpt><trkpt lat="46.726330" lon="-121.835697"></trkpt><trkpt lat="46.726227" lon="-121.836898"></trkpt><trkpt lat="46.726668" lon="-121.839452"></trkpt><trkpt lat="46.726668" lon="-121.840782"></trkpt><trkpt lat="46.725683" lon="-121.843615"></trkpt><trkpt lat="46.725624" lon="-121.844709"></trkpt><trkpt lat="46.726007" lon="-121.846318"></trkpt><trkpt lat="46.726977" lon="-121.848550"></trkpt><trkpt lat="46.728036" lon="-121.851232"></trkpt><trkpt lat="46.729360" lon="-121.852305"></trkpt><trkpt lat="46.729522" lon="-121.852949"></trkpt><trkpt lat="46.729345" lon="-121.853700"></trkpt><trkpt lat="46.728625" lon="-121.854193"></trkpt><trkpt lat="46.728375" lon="-121.854923"></trkpt><trkpt lat="46.728492" lon="-121.855803"></trkpt><trkpt lat="46.728934" lon="-121.857455"></trkpt><trkpt lat="46.728875" lon="-121.857884"></trkpt><trkpt lat="46.728566" lon="-121.858678"></trkpt><trkpt lat="46.728463" lon="-121.859343"></trkpt><trkpt lat="46.728492" lon="-121.860566"></trkpt><trkpt lat="46.728831" lon="-121.862497"></trkpt><trkpt lat="46.728639" lon="-121.872218"></trkpt><trkpt lat="46.728095" lon="-121.873677"></trkpt><trkpt lat="46.726007" lon="-121.876445"></trkpt><trkpt lat="46.725536" lon="-121.877539"></trkpt><trkpt lat="46.725580" lon="-121.879749"></trkpt><trkpt lat="46.725918" lon="-121.880286"></trkpt><trkpt lat="46.726330" lon="-121.880865"></trkpt><trkpt lat="46.726565" lon="-121.881659"></trkpt><trkpt lat="46.726433" lon="-121.882946"></trkpt><trkpt lat="46.726080" lon="-121.884341"></trkpt><trkpt lat="46.727095" lon="-121.886959"></trkpt><trkpt lat="46.728683" lon="-121.887817"></trkpt><trkpt lat="46.729125" lon="-121.890650"></trkpt><trkpt lat="46.730243" lon="-121.891551"></trkpt><trkpt lat="46.733743" lon="-121.897688"></trkpt><trkpt lat="46.734419" lon="-121.899662"></trkpt><trkpt lat="46.735331" lon="-121.901250"></trkpt><trkpt lat="46.734508" lon="-121.905112"></trkpt><trkpt lat="46.734537" lon="-121.912622"></trkpt><trkpt lat="46.732537" lon="-121.928201"></trkpt><trkpt lat="46.732919" lon="-121.930647"></trkpt><trkpt lat="46.732507" lon="-121.934724"></trkpt><trkpt lat="46.733831" lon="-121.939530"></trkpt><trkpt lat="46.734272" lon="-121.950088"></trkpt><trkpt lat="46.736772" lon="-121.954679"></trkpt><trkpt lat="46.736949" lon="-121.956525"></trkpt><trkpt lat="46.735743" lon="-121.959743"></trkpt><trkpt lat="46.735567" lon="-121.962876"></trkpt><trkpt lat="46.736272" lon="-121.970086"></trkpt></trkseg></trk><trk><name>T012 GIADEBE</name><trkseg><trkpt lat="46.573394" lon="-121.147728"></trkpt><trkpt lat="46.573497" lon="-121.147048"></trkpt><trkpt lat="46.573723" lon="-121.146286"></trkpt><trkpt lat="46.573718" lon="-121.145885"></trkpt><trkpt lat="46.573417" lon="-121.145085"></trkpt><trkpt lat="46.573408" lon="-121.144861"></trkpt><trkpt lat="46.573478" lon="-121.144170"></trkpt><trkpt lat="46.573737" lon="-121.143541"></trkpt><trkpt lat="46.573927" lon="-121.143188"></trkpt><trkpt lat="46.574004" lon="-121.142828"></trkpt><trkpt lat="46.574245" lon="-121.142603"></trkpt><trkpt lat="46.574292" lon="-121.142349"></trkpt><trkpt lat="46.574866" lon="-121.142153"></trkpt><trkpt lat="46.575170" lon="-121.141786"></trkpt><trkpt lat="46.575586" lon="-121.141672"></trkpt><trkpt lat="46.575976" lon="-121.141510"></trkpt><trkpt lat="46.576175" lon="-121.141482"></trkpt><trkpt lat="46.576542" lon="-121.141479"></trkpt><trkpt lat="46.576688" lon="-121.141514"></trkpt><trkpt lat="46.576826" lon="-121.141666"></trkpt><trkpt lat="46.577089" lon="-121.141730"></trkpt><trkpt lat="46.577553" lon="-121.141036"></trkpt><trkpt lat="46.577811" lon="-121.141044"></trkpt><trkpt lat="46.578140" lon="-121.141218"></trkpt><trkpt lat="46.578291" lon="-121.141568"></trkpt><trkpt lat="46.578584" lon="-121.141926"></trkpt><trkpt lat="46.578869" lon="-121.142304"></trkpt><trkpt lat="46.579151" lon="-121.142503"></trkpt><trkpt lat="46.579468" lon="-121.142584"></trkpt><trkpt lat="46.579747" lon="-121.142574"></trkpt><trkpt lat="46.580061" lon="-121.142538"></trkpt><trkpt lat="46.580286" lon="-121.142543"></trkpt><trkpt lat="46.580494" lon="-121.142575"></trkpt><trkpt lat="46.580730" lon="-121.142711"></trkpt><trkpt lat="46.581057" lon="-121.142921"></trkpt><trkpt lat="46.581516" lon="-121.143189"></trkpt><trkpt lat="46.581462" lon="-121.143269"></trkpt><trkpt lat="46.581237" lon="-121.143507"></trkpt><trkpt lat="46.580827" lon="-121.143687"></trkpt><trkpt lat="46.580603" lon="-121.143898"></trkpt><trkpt lat="46.580212" lon="-121.144051"></trkpt><trkpt lat="46.579914" lon="-121.144293"></trkpt><trkpt lat="46.579222" lon="-121.144678"></trkpt><trkpt lat="46.578711" lon="-121.144763"></trkpt></trkseg></trk><trk><name>T013 GIADEBE</name><trkseg><trkpt lat="46.665086" lon="-121.889387"></trkpt><trkpt lat="46.663943" lon="-121.888914"></trkpt><trkpt lat="46.662535" lon="-121.888065"></trkpt><trkpt lat="46.661565" lon="-121.887758"></trkpt><trkpt lat="46.660484" lon="-121.887172"></trkpt><trkpt lat="46.660110" lon="-121.887103"></trkpt><trkpt lat="46.659705" lon="-121.887180"></trkpt><trkpt lat="46.658644" lon="-121.887738"></trkpt><trkpt lat="46.658169" lon="-121.887910"></trkpt><trkpt lat="46.657894" lon="-121.887883"></trkpt><trkpt lat="46.656950" lon="-121.887454"></trkpt><trkpt lat="46.656792" lon="-121.887444"></trkpt><trkpt lat="46.655998" lon="-121.888193"></trkpt><trkpt lat="46.655405" lon="-121.888750"></trkpt><trkpt lat="46.655357" lon="-121.888853"></trkpt><trkpt lat="46.655238" lon="-121.890065"></trkpt><trkpt lat="46.655180" lon="-121.890129"></trkpt><trkpt lat="46.654992" lon="-121.890236"></trkpt><trkpt lat="46.654952" lon="-121.890209"></trkpt><trkpt lat="46.654534" lon="-121.888860"></trkpt><trkpt lat="46.654181" lon="-121.887791"></trkpt><trkpt lat="46.654099" lon="-121.887646"></trkpt><trkpt lat="46.653555" lon="-121.887220"></trkpt><trkpt lat="46.653459" lon="-121.887096"></trkpt><trkpt lat="46.653232" lon="-121.886416"></trkpt><trkpt lat="46.653191" lon="-121.887344"></trkpt><trkpt lat="46.653094" lon="-121.889388"></trkpt><trkpt lat="46.653091" lon="-121.889520"></trkpt><trkpt lat="46.653110" lon="-121.889635"></trkpt><trkpt lat="46.653595" lon="-121.891863"></trkpt><trkpt lat="46.653867" lon="-121.893416"></trkpt><trkpt lat="46.653917" lon="-121.894002"></trkpt><trkpt lat="46.653969" lon="-121.895151"></trkpt><trkpt lat="46.654003" lon="-121.895383"></trkpt><trkpt lat="46.654285" lon="-121.896614"></trkpt><trkpt lat="46.654315" lon="-121.896924"></trkpt><trkpt lat="46.654340" lon="-121.898187"></trkpt><trkpt lat="46.654379" lon="-121.898949"></trkpt><trkpt lat="46.654422" lon="-121.899209"></trkpt><trkpt lat="46.654898" lon="-121.900532"></trkpt><trkpt lat="46.655360" lon="-121.901707"></trkpt><trkpt lat="46.656082" lon="-121.903383"></trkpt><trkpt lat="46.657084" lon="-121.905085"></trkpt><trkpt lat="46.657628" lon="-121.905956"></trkpt><trkpt lat="46.658660" lon="-121.907046"></trkpt><trkpt lat="46.659262" lon="-121.907914"></trkpt><trkpt lat="46.659828" lon="-121.908817"></trkpt><trkpt lat="46.660351" lon="-121.909786"></trkpt><trkpt lat="46.660420" lon="-121.909978"></trkpt><trkpt lat="46.660760" lon="-121.911215"></trkpt><trkpt lat="46.660870" lon="-121.911458"></trkpt><trkpt lat="46.661544" lon="-121.912738"></trkpt><trkpt lat="46.662004" lon="-121.913772"></trkpt><trkpt lat="46.662116" lon="-121.914207"></trkpt><trkpt lat="46.662221" lon="-121.914878"></trkpt><trkpt lat="46.662259" lon="-121.915572"></trkpt><trkpt lat="46.662235" lon="-121.917296"></trkpt><trkpt lat="46.662259" lon="-121.915572"></trkpt><trkpt lat="46.662221" lon="-121.914878"></trkpt><trkpt lat="46.662116" lon="-121.914207"></trkpt><trkpt lat="46.662004" lon="-121.913772"></trkpt><trkpt lat="46.661544" lon="-121.912738"></trkpt><trkpt lat="46.660760" lon="-121.911215"></trkpt><trkpt lat="46.660351" lon="-121.909786"></trkpt><trkpt lat="46.659828" lon="-121.908817"></trkpt><trkpt lat="46.658660" lon="-121.907046"></trkpt><trkpt lat="46.657628" lon="-121.905956"></trkpt><trkpt lat="46.656082" lon="-121.903383"></trkpt><trkpt lat="46.655360" lon="-121.901707"></trkpt><trkpt lat="46.654422" lon="-121.899209"></trkpt><trkpt lat="46.654340" lon="-121.898187"></trkpt><trkpt lat="46.654315" lon="-121.896924"></trkpt><trkpt lat="46.654285" lon="-121.896614"></trkpt><trkpt lat="46.653969" lon="-121.895151"></trkpt><trkpt lat="46.653867" lon="-121.893416"></trkpt><trkpt lat="46.653595" lon="-121.891863"></trkpt><trkpt lat="46.653091" lon="-121.889520"></trkpt><trkpt lat="46.653232" lon="-121.886416"></trkpt><trkpt lat="46.653459" lon="-121.887096"></trkpt><trkpt lat="46.653555" lon="-121.887220"></trkpt><trkpt lat="46.654099" lon="-121.887646"></trkpt><trkpt lat="46.654181" lon="-121.887791"></trkpt><trkpt lat="46.654952" lon="-121.890209"></trkpt><trkpt lat="46.654992" lon="-121.890236"></trkpt><trkpt lat="46.655238" lon="-121.890065"></trkpt><trkpt lat="46.655357" lon="-121.888853"></trkpt><trkpt lat="46.655405" lon="-121.888750"></trkpt><trkpt lat="46.656792" lon="-121.887444"></trkpt><trkpt lat="46.656950" lon="-121.887454"></trkpt><trkpt lat="46.657894" lon="-121.887883"></trkpt><trkpt lat="46.658169" lon="-121.887910"></trkpt><trkpt lat="46.658644" lon="-121.887738"></trkpt><trkpt lat="46.659705" lon="-121.887180"></trkpt><trkpt lat="46.660110" lon="-121.887103"></trkpt><trkpt lat="46.660484" lon="-121.887172"></trkpt><trkpt lat="46.661565" lon="-121.887758"></trkpt><trkpt lat="46.662535" lon="-121.888065"></trkpt><trkpt lat="46.663943" lon="-121.888914"></trkpt><trkpt lat="46.665086" lon="-121.889387"></trkpt><trkpt lat="46.663943" lon="-121.888914"></trkpt><trkpt lat="46.662535" lon="-121.888065"></trkpt><trkpt lat="46.661565" lon="-121.887758"></trkpt><trkpt lat="46.660484" lon="-121.887172"></trkpt><trkpt lat="46.660110" lon="-121.887103"></trkpt><trkpt lat="46.659705" lon="-121.887180"></trkpt><trkpt lat="46.658644" lon="-121.887738"></trkpt><trkpt lat="46.658169" lon="-121.887910"></trkpt><trkpt lat="46.657894" lon="-121.887883"></trkpt><trkpt lat="46.656950" lon="-121.887454"></trkpt><trkpt lat="46.656792" lon="-121.887444"></trkpt><trkpt lat="46.655405" lon="-121.888750"></trkpt><trkpt lat="46.655357" lon="-121.888853"></trkpt><trkpt lat="46.655238" lon="-121.890065"></trkpt><trkpt lat="46.654992" lon="-121.890236"></trkpt><trkpt lat="46.654952" lon="-121.890209"></trkpt><trkpt lat="46.654181" lon="-121.887791"></trkpt><trkpt lat="46.654099" lon="-121.887646"></trkpt><trkpt lat="46.653459" lon="-121.887096"></trkpt><trkpt lat="46.653232" lon="-121.886416"></trkpt><trkpt lat="46.653091" lon="-121.889520"></trkpt><trkpt lat="46.653595" lon="-121.891863"></trkpt><trkpt lat="46.653867" lon="-121.893416"></trkpt><trkpt lat="46.653969" lon="-121.895151"></trkpt><trkpt lat="46.654285" lon="-121.896614"></trkpt><trkpt lat="46.654315" lon="-121.896924"></trkpt><trkpt lat="46.654340" lon="-121.898187"></trkpt><trkpt lat="46.654422" lon="-121.899209"></trkpt><trkpt lat="46.655360" lon="-121.901707"></trkpt><trkpt lat="46.656082" lon="-121.903383"></trkpt><trkpt lat="46.657628" lon="-121.905956"></trkpt><trkpt lat="46.658660" lon="-121.907046"></trkpt><trkpt lat="46.659828" lon="-121.908817"></trkpt><trkpt lat="46.660351" lon="-121.909786"></trkpt><trkpt lat="46.660760" lon="-121.911215"></trkpt><trkpt lat="46.661544" lon="-121.912738"></trkpt><trkpt lat="46.662004" lon="-121.913772"></trkpt><trkpt lat="46.662116" lon="-121.914207"></trkpt><trkpt lat="46.662221" lon="-121.914878"></trkpt><trkpt lat="46.662259" lon="-121.915572"></trkpt><trkpt lat="46.662235" lon="-121.917296"></trkpt><trkpt lat="46.662259" lon="-121.915572"></trkpt><trkpt lat="46.662221" lon="-121.914878"></trkpt><trkpt lat="46.662116" lon="-121.914207"></trkpt><trkpt lat="46.662004" lon="-121.913772"></trkpt><trkpt lat="46.661544" lon="-121.912738"></trkpt><trkpt lat="46.660760" lon="-121.911215"></trkpt><trkpt lat="46.660351" lon="-121.909786"></trkpt><trkpt lat="46.659828" lon="-121.908817"></trkpt><trkpt lat="46.659262" lon="-121.907914"></trkpt><trkpt lat="46.658660" lon="-121.907046"></trkpt><trkpt lat="46.657628" lon="-121.905956"></trkpt><trkpt lat="46.656082" lon="-121.903383"></trkpt><trkpt lat="46.655360" lon="-121.901707"></trkpt><trkpt lat="46.654422" lon="-121.899209"></trkpt><trkpt lat="46.654379" lon="-121.898949"></trkpt><trkpt lat="46.654340" lon="-121.898187"></trkpt><trkpt lat="46.654315" lon="-121.896924"></trkpt><trkpt lat="46.654285" lon="-121.896614"></trkpt><trkpt lat="46.653969" lon="-121.895151"></trkpt><trkpt lat="46.653867" lon="-121.893416"></trkpt><trkpt lat="46.653595" lon="-121.891863"></trkpt><trkpt lat="46.653091" lon="-121.889520"></trkpt><trkpt lat="46.653232" lon="-121.886416"></trkpt><trkpt lat="46.653459" lon="-121.887096"></trkpt><trkpt lat="46.653555" lon="-121.887220"></trkpt><trkpt lat="46.654099" lon="-121.887646"></trkpt><trkpt lat="46.654181" lon="-121.887791"></trkpt><trkpt lat="46.654952" lon="-121.890209"></trkpt><trkpt lat="46.654992" lon="-121.890236"></trkpt><trkpt lat="46.655238" lon="-121.890065"></trkpt><trkpt lat="46.655357" lon="-121.888853"></trkpt><trkpt lat="46.655405" lon="-121.888750"></trkpt><trkpt lat="46.656792" lon="-121.887444"></trkpt><trkpt lat="46.656950" lon="-121.887454"></trkpt><trkpt lat="46.657894" lon="-121.887883"></trkpt><trkpt lat="46.658169" lon="-121.887910"></trkpt><trkpt lat="46.658644" lon="-121.887738"></trkpt><trkpt lat="46.659705" lon="-121.887180"></trkpt><trkpt lat="46.660110" lon="-121.887103"></trkpt><trkpt lat="46.660484" lon="-121.887172"></trkpt><trkpt lat="46.661565" lon="-121.887758"></trkpt><trkpt lat="46.662535" lon="-121.888065"></trkpt><trkpt lat="46.663943" lon="-121.888914"></trkpt><trkpt lat="46.665086" lon="-121.889387"></trkpt></trkseg></trk><trk><name>T014 GIADEBE</name><trkseg><trkpt lat="46.622047" lon="-121.068342"></trkpt><trkpt lat="46.622532" lon="-121.069302"></trkpt><trkpt lat="46.622542" lon="-121.069344"></trkpt><trkpt lat="46.622577" lon="-121.069502"></trkpt><trkpt lat="46.622632" lon="-121.069583"></trkpt><trkpt lat="46.622690" lon="-121.069583"></trkpt><trkpt lat="46.622744" lon="-121.069826"></trkpt><trkpt lat="46.622855" lon="-121.069986"></trkpt><trkpt lat="46.622799" lon="-121.070390"></trkpt><trkpt lat="46.622859" lon="-121.071205"></trkpt><trkpt lat="46.622919" lon="-121.072008"></trkpt><trkpt lat="46.622967" lon="-121.072651"></trkpt><trkpt lat="46.623023" lon="-121.072733"></trkpt><trkpt lat="46.623078" lon="-121.073620"></trkpt><trkpt lat="46.622912" lon="-121.077658"></trkpt><trkpt lat="46.623190" lon="-121.079192"></trkpt><trkpt lat="46.623411" lon="-121.079758"></trkpt><trkpt lat="46.623909" lon="-121.080242"></trkpt><trkpt lat="46.623968" lon="-121.080242"></trkpt><trkpt lat="46.624524" lon="-121.081212"></trkpt><trkpt lat="46.624471" lon="-121.082373"></trkpt><trkpt lat="46.624467" lon="-121.083257"></trkpt><trkpt lat="46.624465" lon="-121.084683"></trkpt><trkpt lat="46.624633" lon="-121.085572"></trkpt><trkpt lat="46.624857" lon="-121.085884"></trkpt><trkpt lat="46.624905" lon="-121.085951"></trkpt><trkpt lat="46.624958" lon="-121.086176"></trkpt><trkpt lat="46.625057" lon="-121.086460"></trkpt><trkpt lat="46.625256" lon="-121.086751"></trkpt><trkpt lat="46.625790" lon="-121.087236"></trkpt><trkpt lat="46.626188" lon="-121.087499"></trkpt><trkpt lat="46.626655" lon="-121.087819"></trkpt><trkpt lat="46.626856" lon="-121.088012"></trkpt><trkpt lat="46.626924" lon="-121.088013"></trkpt><trkpt lat="46.627076" lon="-121.088533"></trkpt></trkseg></trk><trk><name>T015 GIADEBE</name><trkseg><trkpt lat="46.624637" lon="-121.083668"></trkpt><trkpt lat="46.624524" lon="-121.081212"></trkpt><trkpt lat="46.623909" lon="-121.080242"></trkpt><trkpt lat="46.623411" lon="-121.079758"></trkpt><trkpt lat="46.623190" lon="-121.079192"></trkpt><trkpt lat="46.622912" lon="-121.077658"></trkpt><trkpt lat="46.623078" lon="-121.073620"></trkpt><trkpt lat="46.622967" lon="-121.072651"></trkpt><trkpt lat="46.623095" lon="-121.071481"></trkpt><trkpt lat="46.623054" lon="-121.070751"></trkpt><trkpt lat="46.622855" lon="-121.069986"></trkpt><trkpt lat="46.622690" lon="-121.069583"></trkpt></trkseg></trk><trk><name>T016 GIADEBE</name><trkseg><trkpt lat="46.580591" lon="-121.164861"></trkpt><trkpt lat="46.580875" lon="-121.164517"></trkpt><trkpt lat="46.580968" lon="-121.164286"></trkpt><trkpt lat="46.580960" lon="-121.164140"></trkpt><trkpt lat="46.580891" lon="-121.163978"></trkpt><trkpt lat="46.580893" lon="-121.163730"></trkpt><trkpt lat="46.581037" lon="-121.163412"></trkpt><trkpt lat="46.581299" lon="-121.163330"></trkpt><trkpt lat="46.581569" lon="-121.163380"></trkpt><trkpt lat="46.581782" lon="-121.163136"></trkpt><trkpt lat="46.581863" lon="-121.163138"></trkpt><trkpt lat="46.582246" lon="-121.162898"></trkpt><trkpt lat="46.582687" lon="-121.162966"></trkpt><trkpt lat="46.583259" lon="-121.162978"></trkpt><trkpt lat="46.583618" lon="-121.163204"></trkpt><trkpt lat="46.583749" lon="-121.163163"></trkpt></trkseg></trk><trk><name>T017 GIADEBE</name><trkseg><trkpt lat="46.503224" lon="-121.284342"></trkpt><trkpt lat="46.501346" lon="-121.282184"></trkpt><trkpt lat="46.501189" lon="-121.281967"></trkpt><trkpt lat="46.500971" lon="-121.281792"></trkpt><trkpt lat="46.499854" lon="-121.281123"></trkpt><trkpt lat="46.498985" lon="-121.280483"></trkpt><trkpt lat="46.497114" lon="-121.280290"></trkpt><trkpt lat="46.496381" lon="-121.280001"></trkpt><trkpt lat="46.495846" lon="-121.279420"></trkpt><trkpt lat="46.495578" lon="-121.277777"></trkpt><trkpt lat="46.494713" lon="-121.276811"></trkpt><trkpt lat="46.494046" lon="-121.276424"></trkpt><trkpt lat="46.492976" lon="-121.276231"></trkpt><trkpt lat="46.492307" lon="-121.276328"></trkpt><trkpt lat="46.488884" lon="-121.275471"></trkpt></trkseg></trk><trk><name>T018 GIADEBE</name><trkseg><trkpt lat="46.636679" lon="-121.029765"></trkpt><trkpt lat="46.636711" lon="-121.029794"></trkpt><trkpt lat="46.636925" lon="-121.029867"></trkpt><trkpt lat="46.637014" lon="-121.030056"></trkpt><trkpt lat="46.637145" lon="-121.030328"></trkpt><trkpt lat="46.637367" lon="-121.030471"></trkpt><trkpt lat="46.637508" lon="-121.030544"></trkpt><trkpt lat="46.637681" lon="-121.030483"></trkpt><trkpt lat="46.637810" lon="-121.030437"></trkpt><trkpt lat="46.637913" lon="-121.030557"></trkpt><trkpt lat="46.638011" lon="-121.030752"></trkpt><trkpt lat="46.638499" lon="-121.031031"></trkpt><trkpt lat="46.638674" lon="-121.031097"></trkpt><trkpt lat="46.638893" lon="-121.031142"></trkpt><trkpt lat="46.639106" lon="-121.031264"></trkpt><trkpt lat="46.639517" lon="-121.031399"></trkpt><trkpt lat="46.639879" lon="-121.031534"></trkpt><trkpt lat="46.639969" lon="-121.031532"></trkpt><trkpt lat="46.640209" lon="-121.031468"></trkpt><trkpt lat="46.640373" lon="-121.031485"></trkpt><trkpt lat="46.640475" lon="-121.031324"></trkpt><trkpt lat="46.640627" lon="-121.031334"></trkpt><trkpt lat="46.640871" lon="-121.031612"></trkpt><trkpt lat="46.641364" lon="-121.031752"></trkpt></trkseg></trk><trk><name>T019 GIADEBE</name><trkseg><trkpt lat="46.578280" lon="-121.088995"></trkpt><trkpt lat="46.578067" lon="-121.089112"></trkpt><trkpt lat="46.577743" lon="-121.089325"></trkpt><trkpt lat="46.577614" lon="-121.089543"></trkpt><trkpt lat="46.577455" lon="-121.089813"></trkpt><trkpt lat="46.577313" lon="-121.090013"></trkpt><trkpt lat="46.577155" lon="-121.090112"></trkpt><trkpt lat="46.577096" lon="-121.090178"></trkpt><trkpt lat="46.576944" lon="-121.090167"></trkpt><trkpt lat="46.576815" lon="-121.090275"></trkpt><trkpt lat="46.576678" lon="-121.090619"></trkpt><trkpt lat="46.576641" lon="-121.090805"></trkpt><trkpt lat="46.576519" lon="-121.090802"></trkpt><trkpt lat="46.576453" lon="-121.090920"></trkpt><trkpt lat="46.576241" lon="-121.091144"></trkpt><trkpt lat="46.576207" lon="-121.091310"></trkpt><trkpt lat="46.576169" lon="-121.091380"></trkpt><trkpt lat="46.575994" lon="-121.091419"></trkpt><trkpt lat="46.575952" lon="-121.091494"></trkpt><trkpt lat="46.576015" lon="-121.091614"></trkpt><trkpt lat="46.576032" lon="-121.091733"></trkpt><trkpt lat="46.576007" lon="-121.091902"></trkpt><trkpt lat="46.576021" lon="-121.092241"></trkpt><trkpt lat="46.576054" lon="-121.092487"></trkpt><trkpt lat="46.576116" lon="-121.092683"></trkpt><trkpt lat="46.576248" lon="-121.092914"></trkpt><trkpt lat="46.576247" lon="-121.093016"></trkpt><trkpt lat="46.576204" lon="-121.093235"></trkpt><trkpt lat="46.576194" lon="-121.093518"></trkpt><trkpt lat="46.576049" lon="-121.094081"></trkpt><trkpt lat="46.576061" lon="-121.094712"></trkpt><trkpt lat="46.576222" lon="-121.095107"></trkpt><trkpt lat="46.576225" lon="-121.095404"></trkpt><trkpt lat="46.576226" lon="-121.095673"></trkpt><trkpt lat="46.576273" lon="-121.095913"></trkpt><trkpt lat="46.576345" lon="-121.096245"></trkpt><trkpt lat="46.576435" lon="-121.096645"></trkpt><trkpt lat="46.576371" lon="-121.097194"></trkpt><trkpt lat="46.576230" lon="-121.097920"></trkpt><trkpt lat="46.575934" lon="-121.098439"></trkpt><trkpt lat="46.575573" lon="-121.098965"></trkpt><trkpt lat="46.575526" lon="-121.099074"></trkpt><trkpt lat="46.575379" lon="-121.099173"></trkpt><trkpt lat="46.575366" lon="-121.099266"></trkpt><trkpt lat="46.575319" lon="-121.099350"></trkpt><trkpt lat="46.575252" lon="-121.099628"></trkpt><trkpt lat="46.575239" lon="-121.099746"></trkpt><trkpt lat="46.575215" lon="-121.099822"></trkpt><trkpt lat="46.575260" lon="-121.099984"></trkpt><trkpt lat="46.575212" lon="-121.100186"></trkpt><trkpt lat="46.575135" lon="-121.100261"></trkpt><trkpt lat="46.575080" lon="-121.100354"></trkpt><trkpt lat="46.575070" lon="-121.100437"></trkpt><trkpt lat="46.575051" lon="-121.100581"></trkpt><trkpt lat="46.575030" lon="-121.100945"></trkpt><trkpt lat="46.574929" lon="-121.101155"></trkpt><trkpt lat="46.574928" lon="-121.101195"></trkpt></trkseg></trk><trk><name>T020 GIADEBE</name><trkseg><trkpt lat="46.554060" lon="-121.211711"></trkpt><trkpt lat="46.554273" lon="-121.211677"></trkpt><trkpt lat="46.554325" lon="-121.211716"></trkpt><trkpt lat="46.554405" lon="-121.211718"></trkpt><trkpt lat="46.554592" lon="-121.211645"></trkpt><trkpt lat="46.554802" lon="-121.211804"></trkpt><trkpt lat="46.554988" lon="-121.211769"></trkpt><trkpt lat="46.555123" lon="-121.211580"></trkpt><trkpt lat="46.555338" lon="-121.211392"></trkpt><trkpt lat="46.555444" lon="-121.211132"></trkpt><trkpt lat="46.555921" lon="-121.210620"></trkpt><trkpt lat="46.555883" lon="-121.210032"></trkpt><trkpt lat="46.555774" lon="-121.209638"></trkpt><trkpt lat="46.556279" lon="-121.208606"></trkpt><trkpt lat="46.556752" lon="-121.208551"></trkpt><trkpt lat="46.557342" lon="-121.207944"></trkpt><trkpt lat="46.557412" lon="-121.207717"></trkpt><trkpt lat="46.557461" lon="-121.207294"></trkpt><trkpt lat="46.557307" lon="-121.206932"></trkpt><trkpt lat="46.557266" lon="-121.206573"></trkpt><trkpt lat="46.557042" lon="-121.206502"></trkpt><trkpt lat="46.556797" lon="-121.206301"></trkpt><trkpt lat="46.556733" lon="-121.206006"></trkpt><trkpt lat="46.556155" lon="-121.205407"></trkpt><trkpt lat="46.556112" lon="-121.205178"></trkpt><trkpt lat="46.555708" lon="-121.205234"></trkpt><trkpt lat="46.555351" lon="-121.204965"></trkpt><trkpt lat="46.555169" lon="-121.205190"></trkpt><trkpt lat="46.554945" lon="-121.205119"></trkpt><trkpt lat="46.554652" lon="-121.205244"></trkpt><trkpt lat="46.553893" lon="-121.204705"></trkpt><trkpt lat="46.553897" lon="-121.204412"></trkpt><trkpt lat="46.554062" lon="-121.203633"></trkpt><trkpt lat="46.554020" lon="-121.203306"></trkpt><trkpt lat="46.553910" lon="-121.203075"></trkpt><trkpt lat="46.553982" lon="-121.202685"></trkpt><trkpt lat="46.553804" lon="-121.202453"></trkpt><trkpt lat="46.553764" lon="-121.202061"></trkpt><trkpt lat="46.553685" lon="-121.201836"></trkpt></trkseg></trk><trk><name>T021 GIADEBE</name><trkseg><trkpt lat="46.600550" lon="-121.138475"></trkpt><trkpt lat="46.600447" lon="-121.138489"></trkpt><trkpt lat="46.600397" lon="-121.138454"></trkpt><trkpt lat="46.600373" lon="-121.138398"></trkpt><trkpt lat="46.600305" lon="-121.138393"></trkpt><trkpt lat="46.600097" lon="-121.138380"></trkpt><trkpt lat="46.599797" lon="-121.138380"></trkpt><trkpt lat="46.599639" lon="-121.138359"></trkpt><trkpt lat="46.599503" lon="-121.138253"></trkpt><trkpt lat="46.599429" lon="-121.138153"></trkpt><trkpt lat="46.599414" lon="-121.138081"></trkpt><trkpt lat="46.599436" lon="-121.138006"></trkpt><trkpt lat="46.599438" lon="-121.137869"></trkpt><trkpt lat="46.599395" lon="-121.137792"></trkpt><trkpt lat="46.599352" lon="-121.137589"></trkpt><trkpt lat="46.599261" lon="-121.137520"></trkpt><trkpt lat="46.599220" lon="-121.137497"></trkpt><trkpt lat="46.599136" lon="-121.137319"></trkpt><trkpt lat="46.599110" lon="-121.137164"></trkpt><trkpt lat="46.599041" lon="-121.136988"></trkpt><trkpt lat="46.599038" lon="-121.136874"></trkpt><trkpt lat="46.599024" lon="-121.136779"></trkpt><trkpt lat="46.599054" lon="-121.136660"></trkpt><trkpt lat="46.598992" lon="-121.136497"></trkpt><trkpt lat="46.598987" lon="-121.136408"></trkpt><trkpt lat="46.598995" lon="-121.136354"></trkpt><trkpt lat="46.598903" lon="-121.135987"></trkpt><trkpt lat="46.598805" lon="-121.135781"></trkpt><trkpt lat="46.598816" lon="-121.135673"></trkpt><trkpt lat="46.598835" lon="-121.135491"></trkpt><trkpt lat="46.598830" lon="-121.135386"></trkpt><trkpt lat="46.598770" lon="-121.135278"></trkpt><trkpt lat="46.598708" lon="-121.135073"></trkpt><trkpt lat="46.598667" lon="-121.135021"></trkpt><trkpt lat="46.598652" lon="-121.134959"></trkpt><trkpt lat="46.598562" lon="-121.134862"></trkpt><trkpt lat="46.598509" lon="-121.134737"></trkpt><trkpt lat="46.598436" lon="-121.134630"></trkpt><trkpt lat="46.598475" lon="-121.134557"></trkpt><trkpt lat="46.598466" lon="-121.134438"></trkpt><trkpt lat="46.598458" lon="-121.134318"></trkpt><trkpt lat="46.598487" lon="-121.134178"></trkpt><trkpt lat="46.598454" lon="-121.133946"></trkpt><trkpt lat="46.598477" lon="-121.133871"></trkpt><trkpt lat="46.598476" lon="-121.133797"></trkpt><trkpt lat="46.598441" lon="-121.133565"></trkpt><trkpt lat="46.598429" lon="-121.133425"></trkpt><trkpt lat="46.598341" lon="-121.133225"></trkpt><trkpt lat="46.598261" lon="-121.133014"></trkpt><trkpt lat="46.598179" lon="-121.132997"></trkpt><trkpt lat="46.598141" lon="-121.132958"></trkpt><trkpt lat="46.598070" lon="-121.132887"></trkpt><trkpt lat="46.598000" lon="-121.132816"></trkpt><trkpt lat="46.597909" lon="-121.132725"></trkpt><trkpt lat="46.597822" lon="-121.132607"></trkpt><trkpt lat="46.597726" lon="-121.132489"></trkpt><trkpt lat="46.597702" lon="-121.132440"></trkpt><trkpt lat="46.597706" lon="-121.132381"></trkpt><trkpt lat="46.597647" lon="-121.132335"></trkpt><trkpt lat="46.597608" lon="-121.132255"></trkpt><trkpt lat="46.597504" lon="-121.132154"></trkpt><trkpt lat="46.597445" lon="-121.132115"></trkpt><trkpt lat="46.597410" lon="-121.132024"></trkpt><trkpt lat="46.597402" lon="-121.131964"></trkpt><trkpt lat="46.597348" lon="-121.131929"></trkpt><trkpt lat="46.597320" lon="-121.131879"></trkpt><trkpt lat="46.597279" lon="-121.131849"></trkpt><trkpt lat="46.597199" lon="-121.131666"></trkpt><trkpt lat="46.597179" lon="-121.131586"></trkpt><trkpt lat="46.597114" lon="-121.131379"></trkpt><trkpt lat="46.597035" lon="-121.131265"></trkpt><trkpt lat="46.597003" lon="-121.131195"></trkpt><trkpt lat="46.596967" lon="-121.131152"></trkpt><trkpt lat="46.596910" lon="-121.131047"></trkpt><trkpt lat="46.596743" lon="-121.130869"></trkpt><trkpt lat="46.596572" lon="-121.130686"></trkpt><trkpt lat="46.596511" lon="-121.130601"></trkpt><trkpt lat="46.596508" lon="-121.130445"></trkpt><trkpt lat="46.596531" lon="-121.130347"></trkpt><trkpt lat="46.596523" lon="-121.130190"></trkpt><trkpt lat="46.596526" lon="-121.130129"></trkpt><trkpt lat="46.596529" lon="-121.130091"></trkpt><trkpt lat="46.596569" lon="-121.130013"></trkpt><trkpt lat="46.596645" lon="-121.129690"></trkpt><trkpt lat="46.596795" lon="-121.129500"></trkpt><trkpt lat="46.596813" lon="-121.129231"></trkpt><trkpt lat="46.596958" lon="-121.129038"></trkpt><trkpt lat="46.596953" lon="-121.128961"></trkpt><trkpt lat="46.596975" lon="-121.128881"></trkpt><trkpt lat="46.597018" lon="-121.128726"></trkpt><trkpt lat="46.597082" lon="-121.128635"></trkpt><trkpt lat="46.597121" lon="-121.128556"></trkpt><trkpt lat="46.597111" lon="-121.128493"></trkpt><trkpt lat="46.597130" lon="-121.128261"></trkpt><trkpt lat="46.597072" lon="-121.128027"></trkpt><trkpt lat="46.597047" lon="-121.127865"></trkpt><trkpt lat="46.597002" lon="-121.127805"></trkpt><trkpt lat="46.596972" lon="-121.127687"></trkpt><trkpt lat="46.596914" lon="-121.127638"></trkpt><trkpt lat="46.596839" lon="-121.127495"></trkpt><trkpt lat="46.596830" lon="-121.127407"></trkpt><trkpt lat="46.596800" lon="-121.127312"></trkpt><trkpt lat="46.596787" lon="-121.127229"></trkpt><trkpt lat="46.596732" lon="-121.127035"></trkpt><trkpt lat="46.596663" lon="-121.126923"></trkpt><trkpt lat="46.596686" lon="-121.126696"></trkpt><trkpt lat="46.596661" lon="-121.126492"></trkpt><trkpt lat="46.596644" lon="-121.126353"></trkpt><trkpt lat="46.596680" lon="-121.126038"></trkpt><trkpt lat="46.596654" lon="-121.126012"></trkpt><trkpt lat="46.596499" lon="-121.126010"></trkpt><trkpt lat="46.596418" lon="-121.125899"></trkpt><trkpt lat="46.596332" lon="-121.125686"></trkpt><trkpt lat="46.596177" lon="-121.125522"></trkpt><trkpt lat="46.596094" lon="-121.125420"></trkpt><trkpt lat="46.596055" lon="-121.125275"></trkpt><trkpt lat="46.595960" lon="-121.125218"></trkpt><trkpt lat="46.595959" lon="-121.125143"></trkpt><trkpt lat="46.595896" lon="-121.125068"></trkpt><trkpt lat="46.595813" lon="-121.125020"></trkpt><trkpt lat="46.595714" lon="-121.124837"></trkpt><trkpt lat="46.595691" lon="-121.124730"></trkpt><trkpt lat="46.595603" lon="-121.124666"></trkpt><trkpt lat="46.595554" lon="-121.124589"></trkpt><trkpt lat="46.595481" lon="-121.124544"></trkpt><trkpt lat="46.595429" lon="-121.124399"></trkpt><trkpt lat="46.595379" lon="-121.124367"></trkpt><trkpt lat="46.595309" lon="-121.124373"></trkpt><trkpt lat="46.595243" lon="-121.124307"></trkpt><trkpt lat="46.595238" lon="-121.124254"></trkpt><trkpt lat="46.595215" lon="-121.124222"></trkpt><trkpt lat="46.595132" lon="-121.124206"></trkpt><trkpt lat="46.594981" lon="-121.124271"></trkpt><trkpt lat="46.594908" lon="-121.124218"></trkpt><trkpt lat="46.594907" lon="-121.124105"></trkpt><trkpt lat="46.594865" lon="-121.124021"></trkpt><trkpt lat="46.594859" lon="-121.123933"></trkpt><trkpt lat="46.594825" lon="-121.123876"></trkpt><trkpt lat="46.594777" lon="-121.123796"></trkpt><trkpt lat="46.594702" lon="-121.123701"></trkpt><trkpt lat="46.594647" lon="-121.123610"></trkpt><trkpt lat="46.594602" lon="-121.123595"></trkpt><trkpt lat="46.594547" lon="-121.123605"></trkpt><trkpt lat="46.594416" lon="-121.123575"></trkpt><trkpt lat="46.594311" lon="-121.123467"></trkpt><trkpt lat="46.594275" lon="-121.123448"></trkpt><trkpt lat="46.594259" lon="-121.123276"></trkpt><trkpt lat="46.594180" lon="-121.123121"></trkpt><trkpt lat="46.594093" lon="-121.123041"></trkpt><trkpt lat="46.593998" lon="-121.122991"></trkpt><trkpt lat="46.593921" lon="-121.122951"></trkpt><trkpt lat="46.593825" lon="-121.122927"></trkpt><trkpt lat="46.593670" lon="-121.122805"></trkpt><trkpt lat="46.593637" lon="-121.122696"></trkpt><trkpt lat="46.593578" lon="-121.122656"></trkpt><trkpt lat="46.593497" lon="-121.122663"></trkpt><trkpt lat="46.593451" lon="-121.122607"></trkpt><trkpt lat="46.593393" lon="-121.122617"></trkpt><trkpt lat="46.593326" lon="-121.122557"></trkpt><trkpt lat="46.593199" lon="-121.122444"></trkpt><trkpt lat="46.593156" lon="-121.122443"></trkpt><trkpt lat="46.593049" lon="-121.122512"></trkpt><trkpt lat="46.592929" lon="-121.122352"></trkpt><trkpt lat="46.592798" lon="-121.122296"></trkpt><trkpt lat="46.592626" lon="-121.122280"></trkpt><trkpt lat="46.592536" lon="-121.122230"></trkpt><trkpt lat="46.592490" lon="-121.122150"></trkpt><trkpt lat="46.592300" lon="-121.122186"></trkpt><trkpt lat="46.592150" lon="-121.122298"></trkpt><trkpt lat="46.592055" lon="-121.122289"></trkpt><trkpt lat="46.592000" lon="-121.122231"></trkpt><trkpt lat="46.591839" lon="-121.122273"></trkpt><trkpt lat="46.591669" lon="-121.122265"></trkpt><trkpt lat="46.591563" lon="-121.122192"></trkpt><trkpt lat="46.591454" lon="-121.122159"></trkpt><trkpt lat="46.591325" lon="-121.122189"></trkpt><trkpt lat="46.591208" lon="-121.122188"></trkpt><trkpt lat="46.590975" lon="-121.122013"></trkpt><trkpt lat="46.590938" lon="-121.121909"></trkpt><trkpt lat="46.590885" lon="-121.121854"></trkpt><trkpt lat="46.590826" lon="-121.121792"></trkpt><trkpt lat="46.590697" lon="-121.121657"></trkpt><trkpt lat="46.590526" lon="-121.121509"></trkpt><trkpt lat="46.590407" lon="-121.121380"></trkpt><trkpt lat="46.590294" lon="-121.121338"></trkpt><trkpt lat="46.590161" lon="-121.121162"></trkpt><trkpt lat="46.590085" lon="-121.121220"></trkpt><trkpt lat="46.590064" lon="-121.121318"></trkpt><trkpt lat="46.589880" lon="-121.121419"></trkpt><trkpt lat="46.589845" lon="-121.121410"></trkpt><trkpt lat="46.589627" lon="-121.121540"></trkpt><trkpt lat="46.589578" lon="-121.121598"></trkpt><trkpt lat="46.589544" lon="-121.121602"></trkpt><trkpt lat="46.589391" lon="-121.121703"></trkpt><trkpt lat="46.589114" lon="-121.121848"></trkpt><trkpt lat="46.588993" lon="-121.121875"></trkpt><trkpt lat="46.588911" lon="-121.121794"></trkpt><trkpt lat="46.588757" lon="-121.121729"></trkpt><trkpt lat="46.588202" lon="-121.121837"></trkpt><trkpt lat="46.588133" lon="-121.121814"></trkpt><trkpt lat="46.588035" lon="-121.121864"></trkpt><trkpt lat="46.587841" lon="-121.121867"></trkpt><trkpt lat="46.587711" lon="-121.121891"></trkpt><trkpt lat="46.587598" lon="-121.121877"></trkpt><trkpt lat="46.587417" lon="-121.122042"></trkpt><trkpt lat="46.587352" lon="-121.122218"></trkpt><trkpt lat="46.587298" lon="-121.122232"></trkpt><trkpt lat="46.587229" lon="-121.122212"></trkpt><trkpt lat="46.586814" lon="-121.122326"></trkpt><trkpt lat="46.586701" lon="-121.122300"></trkpt><trkpt lat="46.586529" lon="-121.122367"></trkpt><trkpt lat="46.586451" lon="-121.122422"></trkpt><trkpt lat="46.586395" lon="-121.122606"></trkpt><trkpt lat="46.586437" lon="-121.122667"></trkpt><trkpt lat="46.586227" lon="-121.122901"></trkpt><trkpt lat="46.585754" lon="-121.123315"></trkpt><trkpt lat="46.585633" lon="-121.123429"></trkpt><trkpt lat="46.585325" lon="-121.123720"></trkpt><trkpt lat="46.585429" lon="-121.124053"></trkpt><trkpt lat="46.585451" lon="-121.124314"></trkpt><trkpt lat="46.585481" lon="-121.124447"></trkpt><trkpt lat="46.585576" lon="-121.124522"></trkpt><trkpt lat="46.585564" lon="-121.124591"></trkpt><trkpt lat="46.585581" lon="-121.124822"></trkpt><trkpt lat="46.585498" lon="-121.124979"></trkpt><trkpt lat="46.585397" lon="-121.125097"></trkpt><trkpt lat="46.585394" lon="-121.125190"></trkpt><trkpt lat="46.585317" lon="-121.125422"></trkpt><trkpt lat="46.585225" lon="-121.125504"></trkpt><trkpt lat="46.585067" lon="-121.125643"></trkpt><trkpt lat="46.584886" lon="-121.125802"></trkpt><trkpt lat="46.584853" lon="-121.125897"></trkpt><trkpt lat="46.584822" lon="-121.125986"></trkpt><trkpt lat="46.584746" lon="-121.126003"></trkpt><trkpt lat="46.584624" lon="-121.126014"></trkpt><trkpt lat="46.584496" lon="-121.126123"></trkpt><trkpt lat="46.584417" lon="-121.126282"></trkpt><trkpt lat="46.584532" lon="-121.126408"></trkpt><trkpt lat="46.584463" lon="-121.126629"></trkpt><trkpt lat="46.584412" lon="-121.126793"></trkpt><trkpt lat="46.584445" lon="-121.126909"></trkpt><trkpt lat="46.584459" lon="-121.127158"></trkpt><trkpt lat="46.584466" lon="-121.127331"></trkpt><trkpt lat="46.584440" lon="-121.127406"></trkpt><trkpt lat="46.584451" lon="-121.127504"></trkpt><trkpt lat="46.584323" lon="-121.127670"></trkpt><trkpt lat="46.584188" lon="-121.127699"></trkpt><trkpt lat="46.584131" lon="-121.127749"></trkpt><trkpt lat="46.584055" lon="-121.127796"></trkpt><trkpt lat="46.584039" lon="-121.127888"></trkpt><trkpt lat="46.584089" lon="-121.127968"></trkpt><trkpt lat="46.584154" lon="-121.128041"></trkpt><trkpt lat="46.584210" lon="-121.128205"></trkpt><trkpt lat="46.584227" lon="-121.128377"></trkpt><trkpt lat="46.584295" lon="-121.128429"></trkpt><trkpt lat="46.584443" lon="-121.128408"></trkpt><trkpt lat="46.584552" lon="-121.128475"></trkpt><trkpt lat="46.584660" lon="-121.128475"></trkpt><trkpt lat="46.584781" lon="-121.128441"></trkpt><trkpt lat="46.584801" lon="-121.128555"></trkpt><trkpt lat="46.584787" lon="-121.128621"></trkpt><trkpt lat="46.584710" lon="-121.128752"></trkpt><trkpt lat="46.584653" lon="-121.128847"></trkpt><trkpt lat="46.584611" lon="-121.129041"></trkpt><trkpt lat="46.584586" lon="-121.129147"></trkpt><trkpt lat="46.584613" lon="-121.129208"></trkpt><trkpt lat="46.584676" lon="-121.129347"></trkpt><trkpt lat="46.584738" lon="-121.129375"></trkpt><trkpt lat="46.584794" lon="-121.129522"></trkpt><trkpt lat="46.584854" lon="-121.129581"></trkpt><trkpt lat="46.584894" lon="-121.129576"></trkpt><trkpt lat="46.584977" lon="-121.129703"></trkpt><trkpt lat="46.584961" lon="-121.129811"></trkpt><trkpt lat="46.585012" lon="-121.129922"></trkpt><trkpt lat="46.585011" lon="-121.130093"></trkpt><trkpt lat="46.585076" lon="-121.130214"></trkpt><trkpt lat="46.585231" lon="-121.130377"></trkpt><trkpt lat="46.585185" lon="-121.130588"></trkpt><trkpt lat="46.585205" lon="-121.130675"></trkpt><trkpt lat="46.585255" lon="-121.130707"></trkpt><trkpt lat="46.585327" lon="-121.130655"></trkpt><trkpt lat="46.585353" lon="-121.130668"></trkpt><trkpt lat="46.585367" lon="-121.130727"></trkpt><trkpt lat="46.585435" lon="-121.130820"></trkpt><trkpt lat="46.585464" lon="-121.130847"></trkpt><trkpt lat="46.585538" lon="-121.130969"></trkpt><trkpt lat="46.585526" lon="-121.131069"></trkpt><trkpt lat="46.585550" lon="-121.131132"></trkpt><trkpt lat="46.585613" lon="-121.131183"></trkpt><trkpt lat="46.585672" lon="-121.131187"></trkpt><trkpt lat="46.585716" lon="-121.131141"></trkpt><trkpt lat="46.585822" lon="-121.131192"></trkpt><trkpt lat="46.585898" lon="-121.131264"></trkpt><trkpt lat="46.585969" lon="-121.131200"></trkpt><trkpt lat="46.586008" lon="-121.131119"></trkpt><trkpt lat="46.586092" lon="-121.131087"></trkpt><trkpt lat="46.586120" lon="-121.131043"></trkpt><trkpt lat="46.586209" lon="-121.131029"></trkpt><trkpt lat="46.586201" lon="-121.131082"></trkpt><trkpt lat="46.586256" lon="-121.131144"></trkpt><trkpt lat="46.586297" lon="-121.131177"></trkpt><trkpt lat="46.586317" lon="-121.131259"></trkpt><trkpt lat="46.586384" lon="-121.131253"></trkpt><trkpt lat="46.586455" lon="-121.131185"></trkpt><trkpt lat="46.586543" lon="-121.131049"></trkpt><trkpt lat="46.586594" lon="-121.131030"></trkpt><trkpt lat="46.586637" lon="-121.131017"></trkpt><trkpt lat="46.586768" lon="-121.131080"></trkpt><trkpt lat="46.586860" lon="-121.131209"></trkpt><trkpt lat="46.586928" lon="-121.131386"></trkpt><trkpt lat="46.586994" lon="-121.131485"></trkpt><trkpt lat="46.587072" lon="-121.131501"></trkpt><trkpt lat="46.587140" lon="-121.131558"></trkpt><trkpt lat="46.587282" lon="-121.131644"></trkpt><trkpt lat="46.587429" lon="-121.131685"></trkpt><trkpt lat="46.587457" lon="-121.131658"></trkpt><trkpt lat="46.587530" lon="-121.131712"></trkpt><trkpt lat="46.587626" lon="-121.131831"></trkpt><trkpt lat="46.587737" lon="-121.131965"></trkpt><trkpt lat="46.587798" lon="-121.132134"></trkpt><trkpt lat="46.587804" lon="-121.132218"></trkpt><trkpt lat="46.587832" lon="-121.132284"></trkpt><trkpt lat="46.587923" lon="-121.132364"></trkpt><trkpt lat="46.587983" lon="-121.132464"></trkpt><trkpt lat="46.587963" lon="-121.132578"></trkpt><trkpt lat="46.587982" lon="-121.132651"></trkpt><trkpt lat="46.588004" lon="-121.132686"></trkpt><trkpt lat="46.588010" lon="-121.132747"></trkpt><trkpt lat="46.588120" lon="-121.132853"></trkpt><trkpt lat="46.588187" lon="-121.132809"></trkpt><trkpt lat="46.588236" lon="-121.132787"></trkpt><trkpt lat="46.588288" lon="-121.132641"></trkpt><trkpt lat="46.588353" lon="-121.132535"></trkpt><trkpt lat="46.588463" lon="-121.132622"></trkpt><trkpt lat="46.588507" lon="-121.132725"></trkpt><trkpt lat="46.588568" lon="-121.132756"></trkpt><trkpt lat="46.588475" lon="-121.133075"></trkpt><trkpt lat="46.587796" lon="-121.133121"></trkpt><trkpt lat="46.587653" lon="-121.133300"></trkpt><trkpt lat="46.587596" lon="-121.133718"></trkpt><trkpt lat="46.587671" lon="-121.133989"></trkpt><trkpt lat="46.587664" lon="-121.134166"></trkpt><trkpt lat="46.587213" lon="-121.134487"></trkpt><trkpt lat="46.587173" lon="-121.134685"></trkpt><trkpt lat="46.587277" lon="-121.134974"></trkpt><trkpt lat="46.587241" lon="-121.135155"></trkpt><trkpt lat="46.586973" lon="-121.135342"></trkpt><trkpt lat="46.586631" lon="-121.135434"></trkpt><trkpt lat="46.586357" lon="-121.135528"></trkpt><trkpt lat="46.586276" lon="-121.136044"></trkpt><trkpt lat="46.586316" lon="-121.136585"></trkpt><trkpt lat="46.586384" lon="-121.136884"></trkpt></trkseg></trk><trk><name>T022 GIADEBE</name><trkseg><trkpt lat="46.558122" lon="-121.168989"></trkpt><trkpt lat="46.558124" lon="-121.169027"></trkpt><trkpt lat="46.558168" lon="-121.169548"></trkpt><trkpt lat="46.558271" lon="-121.169813"></trkpt><trkpt lat="46.558351" lon="-121.170272"></trkpt><trkpt lat="46.558554" lon="-121.170605"></trkpt><trkpt lat="46.558628" lon="-121.170704"></trkpt><trkpt lat="46.558644" lon="-121.170895"></trkpt><trkpt lat="46.558601" lon="-121.171031"></trkpt><trkpt lat="46.558482" lon="-121.171164"></trkpt><trkpt lat="46.558319" lon="-121.171110"></trkpt><trkpt lat="46.558195" lon="-121.170920"></trkpt><trkpt lat="46.558068" lon="-121.170569"></trkpt><trkpt lat="46.557985" lon="-121.170470"></trkpt><trkpt lat="46.557865" lon="-121.170450"></trkpt><trkpt lat="46.557733" lon="-121.170603"></trkpt><trkpt lat="46.557763" lon="-121.171053"></trkpt><trkpt lat="46.557916" lon="-121.171787"></trkpt><trkpt lat="46.557922" lon="-121.172152"></trkpt><trkpt lat="46.557893" lon="-121.172597"></trkpt><trkpt lat="46.557846" lon="-121.173191"></trkpt><trkpt lat="46.557610" lon="-121.173903"></trkpt><trkpt lat="46.557404" lon="-121.174594"></trkpt><trkpt lat="46.557343" lon="-121.175067"></trkpt><trkpt lat="46.557291" lon="-121.175446"></trkpt><trkpt lat="46.557184" lon="-121.175815"></trkpt><trkpt lat="46.557050" lon="-121.176174"></trkpt><trkpt lat="46.556832" lon="-121.176792"></trkpt><trkpt lat="46.556700" lon="-121.177177"></trkpt><trkpt lat="46.556700" lon="-121.177523"></trkpt><trkpt lat="46.556772" lon="-121.178034"></trkpt><trkpt lat="46.556637" lon="-121.178450"></trkpt><trkpt lat="46.556394" lon="-121.178865"></trkpt><trkpt lat="46.556252" lon="-121.179171"></trkpt><trkpt lat="46.556250" lon="-121.179605"></trkpt><trkpt lat="46.556126" lon="-121.180334"></trkpt><trkpt lat="46.556001" lon="-121.180924"></trkpt><trkpt lat="46.556140" lon="-121.181745"></trkpt><trkpt lat="46.556165" lon="-121.182177"></trkpt><trkpt lat="46.556131" lon="-121.182553"></trkpt><trkpt lat="46.556120" lon="-121.182777"></trkpt><trkpt lat="46.556118" lon="-121.182857"></trkpt></trkseg></trk><trk><name>T023 GIADEBE</name><trkseg><trkpt lat="46.564350" lon="-121.125154"></trkpt><trkpt lat="46.564283" lon="-121.125342"></trkpt><trkpt lat="46.564248" lon="-121.125554"></trkpt><trkpt lat="46.564182" lon="-121.125793"></trkpt><trkpt lat="46.564073" lon="-121.125989"></trkpt><trkpt lat="46.563937" lon="-121.126217"></trkpt><trkpt lat="46.563926" lon="-121.126345"></trkpt><trkpt lat="46.563915" lon="-121.126620"></trkpt><trkpt lat="46.563930" lon="-121.126749"></trkpt><trkpt lat="46.563944" lon="-121.126874"></trkpt><trkpt lat="46.563874" lon="-121.126950"></trkpt><trkpt lat="46.563872" lon="-121.127163"></trkpt><trkpt lat="46.563900" lon="-121.127409"></trkpt><trkpt lat="46.563870" lon="-121.127661"></trkpt><trkpt lat="46.563855" lon="-121.127786"></trkpt><trkpt lat="46.563740" lon="-121.127882"></trkpt><trkpt lat="46.563688" lon="-121.128014"></trkpt><trkpt lat="46.563576" lon="-121.128351"></trkpt><trkpt lat="46.563439" lon="-121.128746"></trkpt><trkpt lat="46.563399" lon="-121.128803"></trkpt><trkpt lat="46.563403" lon="-121.128927"></trkpt><trkpt lat="46.563458" lon="-121.129109"></trkpt><trkpt lat="46.563499" lon="-121.129149"></trkpt><trkpt lat="46.563497" lon="-121.129273"></trkpt><trkpt lat="46.563419" lon="-121.129472"></trkpt><trkpt lat="46.563467" lon="-121.129559"></trkpt><trkpt lat="46.563462" lon="-121.129602"></trkpt><trkpt lat="46.563424" lon="-121.129640"></trkpt></trkseg></trk><trk><name>T024 GIADEBE</name><trkseg><trkpt lat="46.560761" lon="-121.203148"></trkpt><trkpt lat="46.560759" lon="-121.203322"></trkpt><trkpt lat="46.560890" lon="-121.203748"></trkpt><trkpt lat="46.560973" lon="-121.204370"></trkpt><trkpt lat="46.561081" lon="-121.204829"></trkpt><trkpt lat="46.560987" lon="-121.205218"></trkpt><trkpt lat="46.561138" lon="-121.205776"></trkpt><trkpt lat="46.561115" lon="-121.205841"></trkpt></trkseg></trk></gpx>