<?xml version='1.0' encoding='utf-8'?>
<gpx xmlns="http://www.topografix.com/GPX/1/1" xmlns:xsi="http://www.w3.org/2001/XMLSchema-instance" version="1.1" creator="Bob's Motorcycle Trails" xsi:schemaLocation="http://www.topografix.com/GPX/1/1 http://www.topografix.com/GPX/1/1/gpx.xsd"><trk><name>T001 LO3D276</name><trkseg><trkpt lat="45.396000" lon="-88.275448"></trkpt><trkpt lat="45.396059" lon="-88.274116"></trkpt><trkpt lat="45.403072" lon="-88.273942"></trkpt><trkpt lat="45.403390" lon="-88.276942"></trkpt><trkpt lat="45.403390" lon="-88.276907"></trkpt><trkpt lat="45.406628" lon="-88.280154"></trkpt><trkpt lat="45.407958" lon="-88.280331"></trkpt><trkpt lat="45.412469" lon="-88.285449"></trkpt><trkpt lat="45.414001" lon="-88.285449"></trkpt><trkpt lat="45.414088" lon="-88.285449"></trkpt><trkpt lat="45.417355" lon="-88.284178"></trkpt><trkpt lat="45.421085" lon="-88.284143"></trkpt><trkpt lat="45.425943" lon="-88.289543"></trkpt><trkpt lat="45.429123" lon="-88.299003"></trkpt><trkpt lat="45.430627" lon="-88.301050"></trkpt><trkpt lat="45.431639" lon="-88.304121"></trkpt><trkpt lat="45.431668" lon="-88.304086"></trkpt><trkpt lat="45.432217" lon="-88.308286"></trkpt><trkpt lat="45.433576" lon="-88.310475"></trkpt><trkpt lat="45.436323" lon="-88.311922"></trkpt><trkpt lat="45.436323" lon="-88.311851"></trkpt><trkpt lat="45.437653" lon="-88.311181"></trkpt><trkpt lat="45.438405" lon="-88.312240"></trkpt><trkpt lat="45.438260" lon="-88.314110"></trkpt><trkpt lat="45.442453" lon="-88.319511"></trkpt><trkpt lat="45.443031" lon="-88.322864"></trkpt><trkpt lat="45.446529" lon="-88.326676"></trkpt><trkpt lat="45.448784" lon="-88.331124"></trkpt><trkpt lat="45.448813" lon="-88.331053"></trkpt><trkpt lat="45.451126" lon="-88.329677"></trkpt><trkpt lat="45.451242" lon="-88.329606"></trkpt><trkpt lat="45.452977" lon="-88.331477"></trkpt><trkpt lat="45.453006" lon="-88.331406"></trkpt><trkpt lat="45.455608" lon="-88.330912"></trkpt><trkpt lat="45.455666" lon="-88.330912"></trkpt><trkpt lat="45.459801" lon="-88.332430"></trkpt><trkpt lat="45.461738" lon="-88.331477"></trkpt><trkpt lat="45.463415" lon="-88.329712"></trkpt><trkpt lat="45.463443" lon="-88.329712"></trkpt><trkpt lat="45.464571" lon="-88.329818"></trkpt><trkpt lat="45.465814" lon="-88.328971"></trkpt><trkpt lat="45.465901" lon="-88.328900"></trkpt><trkpt lat="45.470470" lon="-88.329147"></trkpt><trkpt lat="45.471453" lon="-88.328124"></trkpt><trkpt lat="45.475067" lon="-88.327806"></trkpt><trkpt lat="45.478247" lon="-88.325265"></trkpt><trkpt lat="45.479230" lon="-88.323782"></trkpt><trkpt lat="45.479288" lon="-88.323782"></trkpt><trkpt lat="45.481572" lon="-88.322688"></trkpt><trkpt lat="45.481630" lon="-88.322582"></trkpt><trkpt lat="45.487326" lon="-88.321664"></trkpt><trkpt lat="45.500279" lon="-88.316828"></trkpt><trkpt lat="45.500308" lon="-88.316864"></trkpt><trkpt lat="45.502650" lon="-88.317640"></trkpt><trkpt lat="45.507132" lon="-88.314181"></trkpt><trkpt lat="45.519728" lon="-88.313726"></trkpt><trkpt lat="45.519679" lon="-88.316215"></trkpt><trkpt lat="45.519555" lon="-88.317411"></trkpt><trkpt lat="45.519740" lon="-88.318124"></trkpt><trkpt lat="45.520654" lon="-88.318613"></trkpt><trkpt lat="45.521882" lon="-88.318536"></trkpt><trkpt lat="45.521942" lon="-88.318515"></trkpt><trkpt lat="45.522391" lon="-88.318101"></trkpt><trkpt lat="45.523212" lon="-88.316757"></trkpt><trkpt lat="45.524619" lon="-88.316795"></trkpt><trkpt lat="45.525038" lon="-88.317050"></trkpt><trkpt lat="45.525337" lon="-88.316811"></trkpt></trkseg></trk><trk><name>T002 LO3D276</name><trkseg><trkpt lat="45.396356" lon="-88.275763"></trkpt><trkpt lat="45.395893" lon="-88.259385"></trkpt><trkpt lat="45.396674" lon="-88.257726"></trkpt><trkpt lat="45.402138" lon="-88.252184"></trkpt><trkpt lat="45.402167" lon="-88.252184"></trkpt><trkpt lat="45.402919" lon="-88.250631"></trkpt><trkpt lat="45.402774" lon="-88.242972"></trkpt><trkpt lat="45.409569" lon="-88.242725"></trkpt><trkpt lat="45.409829" lon="-88.249678"></trkpt><trkpt lat="45.408702" lon="-88.250455"></trkpt><trkpt lat="45.408702" lon="-88.250420"></trkpt><trkpt lat="45.407025" lon="-88.251302"></trkpt><trkpt lat="45.406533" lon="-88.252255"></trkpt><trkpt lat="45.406475" lon="-88.253420"></trkpt><trkpt lat="45.403815" lon="-88.253384"></trkpt><trkpt lat="45.404509" lon="-88.254161"></trkpt><trkpt lat="45.405377" lon="-88.254232"></trkpt><trkpt lat="45.405435" lon="-88.254232"></trkpt><trkpt lat="45.406128" lon="-88.255396"></trkpt><trkpt lat="45.406042" lon="-88.257514"></trkpt><trkpt lat="45.408442" lon="-88.261609"></trkpt><trkpt lat="45.408528" lon="-88.261609"></trkpt><trkpt lat="45.409974" lon="-88.262562"></trkpt><trkpt lat="45.410379" lon="-88.264221"></trkpt><trkpt lat="45.412403" lon="-88.264327"></trkpt><trkpt lat="45.413588" lon="-88.264927"></trkpt><trkpt lat="45.414253" lon="-88.265809"></trkpt><trkpt lat="45.414311" lon="-88.265880"></trkpt><trkpt lat="45.416624" lon="-88.267044"></trkpt><trkpt lat="45.417983" lon="-88.266727"></trkpt><trkpt lat="45.419602" lon="-88.267786"></trkpt><trkpt lat="45.419689" lon="-88.269056"></trkpt><trkpt lat="45.420441" lon="-88.271810"></trkpt><trkpt lat="45.422696" lon="-88.274139"></trkpt><trkpt lat="45.423274" lon="-88.275869"></trkpt><trkpt lat="45.423274" lon="-88.275904"></trkpt><trkpt lat="45.423939" lon="-88.277139"></trkpt><trkpt lat="45.424980" lon="-88.279363"></trkpt><trkpt lat="45.425009" lon="-88.279363"></trkpt><trkpt lat="45.426426" lon="-88.280987"></trkpt><trkpt lat="45.426281" lon="-88.277351"></trkpt><trkpt lat="45.425732" lon="-88.274810"></trkpt><trkpt lat="45.426368" lon="-88.270821"></trkpt><trkpt lat="45.429433" lon="-88.270398"></trkpt><trkpt lat="45.430445" lon="-88.268703"></trkpt><trkpt lat="45.430416" lon="-88.268703"></trkpt><trkpt lat="45.432035" lon="-88.265138"></trkpt><trkpt lat="45.432035" lon="-88.265103"></trkpt><trkpt lat="45.431775" lon="-88.254796"></trkpt><trkpt lat="45.433972" lon="-88.254020"></trkpt><trkpt lat="45.434233" lon="-88.253631"></trkpt><trkpt lat="45.434290" lon="-88.253561"></trkpt><trkpt lat="45.435649" lon="-88.253279"></trkpt><trkpt lat="45.435707" lon="-88.253208"></trkpt><trkpt lat="45.436343" lon="-88.251761"></trkpt><trkpt lat="45.436343" lon="-88.251725"></trkpt><trkpt lat="45.438396" lon="-88.249325"></trkpt><trkpt lat="45.438801" lon="-88.247843"></trkpt><trkpt lat="45.440160" lon="-88.248443"></trkpt><trkpt lat="45.441201" lon="-88.248266"></trkpt><trkpt lat="45.441172" lon="-88.248266"></trkpt><trkpt lat="45.443167" lon="-88.245901"></trkpt><trkpt lat="45.443601" lon="-88.246643"></trkpt><trkpt lat="45.443803" lon="-88.248196"></trkpt><trkpt lat="45.445249" lon="-88.248054"></trkpt><trkpt lat="45.447099" lon="-88.246713"></trkpt><trkpt lat="45.447128" lon="-88.246678"></trkpt><trkpt lat="45.449904" lon="-88.245584"></trkpt><trkpt lat="45.449904" lon="-88.245513"></trkpt><trkpt lat="45.450540" lon="-88.244136"></trkpt><trkpt lat="45.449788" lon="-88.241913"></trkpt><trkpt lat="45.448950" lon="-88.240713"></trkpt><trkpt lat="45.448921" lon="-88.240713"></trkpt><trkpt lat="45.448921" lon="-88.238454"></trkpt><trkpt lat="45.449673" lon="-88.237254"></trkpt><trkpt lat="45.449673" lon="-88.237218"></trkpt><trkpt lat="45.450309" lon="-88.234889"></trkpt><trkpt lat="45.450338" lon="-88.234818"></trkpt><trkpt lat="45.450222" lon="-88.232383"></trkpt><trkpt lat="45.450222" lon="-88.232277"></trkpt><trkpt lat="45.450453" lon="-88.231818"></trkpt><trkpt lat="45.450424" lon="-88.230583"></trkpt><trkpt lat="45.450424" lon="-88.230512"></trkpt><trkpt lat="45.451581" lon="-88.230018"></trkpt><trkpt lat="45.451610" lon="-88.229982"></trkpt><trkpt lat="45.452506" lon="-88.229135"></trkpt><trkpt lat="45.452969" lon="-88.228218"></trkpt><trkpt lat="45.452535" lon="-88.227017"></trkpt><trkpt lat="45.452506" lon="-88.226982"></trkpt><trkpt lat="45.452622" lon="-88.226064"></trkpt><trkpt lat="45.450048" lon="-88.221087"></trkpt><trkpt lat="45.433770" lon="-88.221476"></trkpt><trkpt lat="45.432932" lon="-88.217875"></trkpt><trkpt lat="45.433076" lon="-88.216605"></trkpt><trkpt lat="45.433076" lon="-88.216569"></trkpt><trkpt lat="45.432556" lon="-88.215969"></trkpt><trkpt lat="45.431428" lon="-88.215969"></trkpt><trkpt lat="45.431168" lon="-88.215546"></trkpt><trkpt lat="45.430561" lon="-88.215405"></trkpt><trkpt lat="45.431746" lon="-88.214769"></trkpt><trkpt lat="45.432295" lon="-88.213534"></trkpt><trkpt lat="45.432295" lon="-88.213499"></trkpt><trkpt lat="45.432411" lon="-88.211522"></trkpt><trkpt lat="45.432411" lon="-88.211416"></trkpt><trkpt lat="45.432903" lon="-88.210745"></trkpt><trkpt lat="45.432903" lon="-88.210710"></trkpt><trkpt lat="45.432700" lon="-88.210040"></trkpt><trkpt lat="45.432671" lon="-88.210004"></trkpt><trkpt lat="45.433018" lon="-88.208663"></trkpt><trkpt lat="45.431862" lon="-88.208557"></trkpt><trkpt lat="45.431833" lon="-88.208522"></trkpt><trkpt lat="45.431081" lon="-88.207427"></trkpt><trkpt lat="45.430214" lon="-88.207145"></trkpt><trkpt lat="45.430243" lon="-88.200897"></trkpt><trkpt lat="45.431775" lon="-88.201250"></trkpt><trkpt lat="45.431746" lon="-88.201250"></trkpt><trkpt lat="45.434088" lon="-88.200792"></trkpt><trkpt lat="45.441519" lon="-88.201003"></trkpt><trkpt lat="45.441577" lon="-88.201003"></trkpt><trkpt lat="45.443283" lon="-88.200015"></trkpt><trkpt lat="45.443283" lon="-88.199980"></trkpt><trkpt lat="45.445798" lon="-88.201321"></trkpt><trkpt lat="45.445856" lon="-88.201321"></trkpt><trkpt lat="45.447735" lon="-88.201709"></trkpt><trkpt lat="45.449094" lon="-88.204215"></trkpt><trkpt lat="45.449123" lon="-88.204215"></trkpt><trkpt lat="45.448979" lon="-88.207639"></trkpt><trkpt lat="45.449759" lon="-88.210181"></trkpt><trkpt lat="45.449759" lon="-88.210216"></trkpt><trkpt lat="45.450482" lon="-88.211098"></trkpt><trkpt lat="45.456409" lon="-88.215334"></trkpt><trkpt lat="45.456988" lon="-88.216428"></trkpt><trkpt lat="45.457161" lon="-88.218793"></trkpt><trkpt lat="45.459272" lon="-88.221405"></trkpt><trkpt lat="45.459937" lon="-88.222852"></trkpt><trkpt lat="45.461932" lon="-88.224582"></trkpt><trkpt lat="45.462221" lon="-88.225994"></trkpt><trkpt lat="45.460920" lon="-88.231041"></trkpt><trkpt lat="45.461238" lon="-88.232312"></trkpt><trkpt lat="45.461238" lon="-88.232277"></trkpt><trkpt lat="45.461643" lon="-88.232912"></trkpt><trkpt lat="45.461643" lon="-88.232877"></trkpt><trkpt lat="45.462163" lon="-88.231924"></trkpt><trkpt lat="45.462192" lon="-88.231888"></trkpt><trkpt lat="45.463088" lon="-88.231465"></trkpt><trkpt lat="45.463522" lon="-88.230547"></trkpt><trkpt lat="45.465055" lon="-88.228394"></trkpt><trkpt lat="45.465575" lon="-88.227476"></trkpt><trkpt lat="45.466616" lon="-88.227794"></trkpt><trkpt lat="45.468090" lon="-88.229524"></trkpt><trkpt lat="45.468322" lon="-88.230512"></trkpt><trkpt lat="45.467946" lon="-88.231571"></trkpt><trkpt lat="45.468004" lon="-88.232241"></trkpt><trkpt lat="45.468062" lon="-88.232206"></trkpt><trkpt lat="45.468987" lon="-88.231465"></trkpt><trkpt lat="45.471994" lon="-88.232983"></trkpt><trkpt lat="45.472023" lon="-88.232947"></trkpt><trkpt lat="45.473122" lon="-88.233230"></trkpt><trkpt lat="45.473179" lon="-88.233300"></trkpt><trkpt lat="45.474191" lon="-88.233830"></trkpt><trkpt lat="45.475290" lon="-88.232383"></trkpt><trkpt lat="45.475926" lon="-88.232594"></trkpt><trkpt lat="45.476649" lon="-88.234818"></trkpt><trkpt lat="45.478846" lon="-88.235842"></trkpt><trkpt lat="45.478673" lon="-88.237289"></trkpt><trkpt lat="45.477372" lon="-88.241066"></trkpt><trkpt lat="45.477719" lon="-88.241842"></trkpt><trkpt lat="45.479193" lon="-88.242301"></trkpt><trkpt lat="45.480148" lon="-88.241595"></trkpt><trkpt lat="45.480523" lon="-88.240960"></trkpt><trkpt lat="45.481853" lon="-88.241030"></trkpt><trkpt lat="45.482837" lon="-88.240360"></trkpt><trkpt lat="45.482837" lon="-88.240325"></trkpt><trkpt lat="45.484051" lon="-88.240748"></trkpt><trkpt lat="45.483935" lon="-88.241913"></trkpt><trkpt lat="45.484167" lon="-88.242760"></trkpt><trkpt lat="45.484022" lon="-88.244278"></trkpt><trkpt lat="45.485641" lon="-88.245619"></trkpt><trkpt lat="45.486133" lon="-88.247102"></trkpt><trkpt lat="45.486971" lon="-88.247207"></trkpt><trkpt lat="45.487925" lon="-88.245937"></trkpt><trkpt lat="45.487925" lon="-88.245901"></trkpt><trkpt lat="45.489140" lon="-88.245654"></trkpt><trkpt lat="45.489169" lon="-88.245584"></trkpt><trkpt lat="45.489516" lon="-88.244595"></trkpt><trkpt lat="45.489516" lon="-88.244560"></trkpt><trkpt lat="45.491048" lon="-88.243219"></trkpt><trkpt lat="45.491048" lon="-88.243184"></trkpt><trkpt lat="45.491279" lon="-88.241807"></trkpt><trkpt lat="45.491279" lon="-88.241772"></trkpt><trkpt lat="45.492089" lon="-88.241383"></trkpt><trkpt lat="45.493303" lon="-88.242478"></trkpt><trkpt lat="45.493853" lon="-88.243501"></trkpt><trkpt lat="45.495038" lon="-88.244172"></trkpt><trkpt lat="45.498161" lon="-88.243431"></trkpt><trkpt lat="45.500127" lon="-88.245195"></trkpt><trkpt lat="45.501486" lon="-88.245407"></trkpt><trkpt lat="45.502209" lon="-88.245160"></trkpt><trkpt lat="45.502614" lon="-88.245690"></trkpt><trkpt lat="45.503654" lon="-88.248196"></trkpt><trkpt lat="45.504175" lon="-88.248125"></trkpt><trkpt lat="45.504695" lon="-88.247878"></trkpt><trkpt lat="45.504724" lon="-88.247843"></trkpt><trkpt lat="45.506517" lon="-88.248972"></trkpt><trkpt lat="45.506893" lon="-88.248196"></trkpt><trkpt lat="45.507471" lon="-88.247807"></trkpt><trkpt lat="45.509177" lon="-88.248937"></trkpt><trkpt lat="45.509958" lon="-88.248866"></trkpt><trkpt lat="45.509987" lon="-88.248866"></trkpt><trkpt lat="45.511230" lon="-88.249678"></trkpt><trkpt lat="45.511432" lon="-88.250878"></trkpt><trkpt lat="45.511663" lon="-88.251867"></trkpt><trkpt lat="45.512126" lon="-88.252255"></trkpt><trkpt lat="45.511317" lon="-88.252714"></trkpt><trkpt lat="45.511548" lon="-88.261785"></trkpt><trkpt lat="45.506112" lon="-88.261714"></trkpt><trkpt lat="45.506314" lon="-88.264891"></trkpt><trkpt lat="45.505649" lon="-88.267256"></trkpt><trkpt lat="45.505013" lon="-88.267997"></trkpt><trkpt lat="45.504464" lon="-88.271245"></trkpt><trkpt lat="45.503886" lon="-88.272092"></trkpt><trkpt lat="45.503568" lon="-88.274563"></trkpt><trkpt lat="45.503018" lon="-88.275622"></trkpt><trkpt lat="45.503018" lon="-88.280352"></trkpt><trkpt lat="45.503539" lon="-88.281022"></trkpt><trkpt lat="45.504493" lon="-88.281340"></trkpt><trkpt lat="45.504522" lon="-88.281304"></trkpt><trkpt lat="45.504869" lon="-88.282963"></trkpt><trkpt lat="45.504435" lon="-88.284763"></trkpt><trkpt lat="45.503481" lon="-88.285928"></trkpt><trkpt lat="45.503770" lon="-88.287058"></trkpt><trkpt lat="45.504609" lon="-88.288187"></trkpt><trkpt lat="45.505447" lon="-88.289599"></trkpt><trkpt lat="45.505505" lon="-88.291223"></trkpt><trkpt lat="45.505476" lon="-88.291258"></trkpt><trkpt lat="45.505968" lon="-88.292882"></trkpt><trkpt lat="45.506235" lon="-88.294938"></trkpt><trkpt lat="45.505743" lon="-88.294902"></trkpt><trkpt lat="45.505020" lon="-88.295397"></trkpt><trkpt lat="45.504963" lon="-88.295397"></trkpt><trkpt lat="45.503372" lon="-88.295467"></trkpt><trkpt lat="45.500828" lon="-88.294832"></trkpt><trkpt lat="45.500250" lon="-88.293773"></trkpt><trkpt lat="45.496924" lon="-88.294020"></trkpt><trkpt lat="45.493918" lon="-88.295891"></trkpt><trkpt lat="45.493137" lon="-88.297867"></trkpt><trkpt lat="45.493253" lon="-88.299385"></trkpt><trkpt lat="45.494814" lon="-88.300585"></trkpt><trkpt lat="45.495768" lon="-88.299703"></trkpt><trkpt lat="45.496491" lon="-88.301291"></trkpt><trkpt lat="45.496404" lon="-88.302315"></trkpt><trkpt lat="45.497734" lon="-88.304397"></trkpt><trkpt lat="45.497705" lon="-88.305421"></trkpt><trkpt lat="45.495103" lon="-88.307115"></trkpt><trkpt lat="45.494496" lon="-88.310080"></trkpt><trkpt lat="45.495045" lon="-88.310222"></trkpt><trkpt lat="45.496317" lon="-88.311845"></trkpt><trkpt lat="45.496838" lon="-88.311386"></trkpt><trkpt lat="45.497821" lon="-88.311351"></trkpt><trkpt lat="45.498399" lon="-88.310786"></trkpt><trkpt lat="45.498399" lon="-88.310751"></trkpt><trkpt lat="45.499238" lon="-88.310716"></trkpt><trkpt lat="45.499758" lon="-88.309445"></trkpt><trkpt lat="45.502332" lon="-88.309021"></trkpt><trkpt lat="45.502216" lon="-88.311139"></trkpt><trkpt lat="45.502187" lon="-88.311139"></trkpt><trkpt lat="45.502997" lon="-88.312657"></trkpt><trkpt lat="45.502997" lon="-88.312692"></trkpt><trkpt lat="45.503170" lon="-88.314281"></trkpt><trkpt lat="45.505107" lon="-88.315128"></trkpt><trkpt lat="45.505078" lon="-88.312728"></trkpt><trkpt lat="45.505801" lon="-88.312939"></trkpt><trkpt lat="45.506698" lon="-88.313928"></trkpt><trkpt lat="45.508432" lon="-88.312339"></trkpt><trkpt lat="45.508374" lon="-88.308880"></trkpt><trkpt lat="45.509820" lon="-88.308986"></trkpt><trkpt lat="45.510022" lon="-88.308633"></trkpt><trkpt lat="45.510051" lon="-88.308598"></trkpt><trkpt lat="45.510630" lon="-88.308915"></trkpt><trkpt lat="45.511063" lon="-88.308704"></trkpt><trkpt lat="45.511931" lon="-88.309163"></trkpt><trkpt lat="45.513319" lon="-88.309127"></trkpt><trkpt lat="45.513347" lon="-88.309127"></trkpt><trkpt lat="45.515256" lon="-88.310292"></trkpt><trkpt lat="45.516094" lon="-88.309551"></trkpt><trkpt lat="45.517974" lon="-88.309798"></trkpt><trkpt lat="45.519362" lon="-88.309374"></trkpt><trkpt lat="45.519362" lon="-88.309410"></trkpt><trkpt lat="45.519969" lon="-88.310363"></trkpt><trkpt lat="45.519651" lon="-88.311951"></trkpt><trkpt lat="45.519768" lon="-88.313774"></trkpt><trkpt lat="45.519726" lon="-88.316216"></trkpt><trkpt lat="45.519606" lon="-88.317411"></trkpt><trkpt lat="45.519786" lon="-88.318067"></trkpt><trkpt lat="45.520667" lon="-88.318533"></trkpt><trkpt lat="45.521871" lon="-88.318471"></trkpt><trkpt lat="45.522366" lon="-88.318044"></trkpt><trkpt lat="45.523197" lon="-88.316637"></trkpt><trkpt lat="45.524627" lon="-88.316734"></trkpt><trkpt lat="45.525047" lon="-88.316960"></trkpt><trkpt lat="45.525365" lon="-88.316721"></trkpt><trkpt lat="45.525368" lon="-88.318954"></trkpt><trkpt lat="45.524028" lon="-88.331521"></trkpt><trkpt lat="45.522600" lon="-88.336094"></trkpt><trkpt lat="45.521993" lon="-88.339730"></trkpt><trkpt lat="45.522340" lon="-88.345872"></trkpt><trkpt lat="45.523294" lon="-88.355543"></trkpt><trkpt lat="45.535177" lon="-88.355331"></trkpt><trkpt lat="45.536392" lon="-88.353461"></trkpt><trkpt lat="45.536392" lon="-88.353425"></trkpt><trkpt lat="45.535698" lon="-88.350672"></trkpt><trkpt lat="45.535726" lon="-88.350672"></trkpt><trkpt lat="45.537230" lon="-88.348554"></trkpt><trkpt lat="45.536536" lon="-88.346436"></trkpt><trkpt lat="45.537375" lon="-88.343789"></trkpt><trkpt lat="45.538213" lon="-88.343083"></trkpt><trkpt lat="45.538502" lon="-88.340118"></trkpt><trkpt lat="45.540092" lon="-88.338706"></trkpt><trkpt lat="45.540092" lon="-88.338636"></trkpt><trkpt lat="45.542232" lon="-88.338036"></trkpt><trkpt lat="45.542984" lon="-88.335247"></trkpt><trkpt lat="45.543880" lon="-88.334929"></trkpt><trkpt lat="45.545557" lon="-88.335247"></trkpt><trkpt lat="45.547610" lon="-88.334365"></trkpt><trkpt lat="45.549750" lon="-88.334753"></trkpt><trkpt lat="45.551484" lon="-88.333765"></trkpt><trkpt lat="45.553277" lon="-88.331682"></trkpt><trkpt lat="45.554723" lon="-88.328293"></trkpt><trkpt lat="45.556573" lon="-88.326740"></trkpt><trkpt lat="45.558308" lon="-88.326882"></trkpt><trkpt lat="45.560332" lon="-88.325117"></trkpt><trkpt lat="45.562616" lon="-88.327093"></trkpt><trkpt lat="45.563483" lon="-88.326952"></trkpt><trkpt lat="45.563917" lon="-88.325752"></trkpt><trkpt lat="45.564762" lon="-88.325257"></trkpt><trkpt lat="45.565041" lon="-88.325282"></trkpt><trkpt lat="45.565364" lon="-88.325463"></trkpt><trkpt lat="45.565683" lon="-88.325226"></trkpt><trkpt lat="45.566091" lon="-88.325583"></trkpt><trkpt lat="45.565556" lon="-88.324891"></trkpt><trkpt lat="45.566364" lon="-88.325571"></trkpt><trkpt lat="45.568616" lon="-88.325943"></trkpt><trkpt lat="45.570650" lon="-88.325591"></trkpt><trkpt lat="45.572348" lon="-88.326776"></trkpt><trkpt lat="45.574284" lon="-88.327022"></trkpt><trkpt lat="45.576638" lon="-88.328291"></trkpt><trkpt lat="45.581295" lon="-88.328738"></trkpt><trkpt lat="45.588415" lon="-88.328977"></trkpt><trkpt lat="45.591129" lon="-88.329678"></trkpt><trkpt lat="45.593970" lon="-88.329677"></trkpt><trkpt lat="45.594010" lon="-88.329450"></trkpt><trkpt lat="45.595600" lon="-88.328461"></trkpt><trkpt lat="45.598058" lon="-88.327720"></trkpt><trkpt lat="45.599330" lon="-88.325285"></trkpt><trkpt lat="45.600891" lon="-88.324684"></trkpt><trkpt lat="45.601961" lon="-88.323167"></trkpt><trkpt lat="45.605749" lon="-88.320237"></trkpt><trkpt lat="45.608467" lon="-88.320096"></trkpt><trkpt lat="45.610895" lon="-88.316602"></trkpt><trkpt lat="45.614828" lon="-88.314343"></trkpt><trkpt lat="45.621131" lon="-88.317872"></trkpt><trkpt lat="45.624890" lon="-88.312472"></trkpt><trkpt lat="45.628938" lon="-88.309330"></trkpt><trkpt lat="45.634316" lon="-88.308201"></trkpt><trkpt lat="45.634665" lon="-88.332282"></trkpt><trkpt lat="45.634346" lon="-88.333030"></trkpt><trkpt lat="45.634354" lon="-88.333669"></trkpt><trkpt lat="45.634038" lon="-88.334495"></trkpt><trkpt lat="45.633060" lon="-88.336609"></trkpt><trkpt lat="45.631368" lon="-88.340223"></trkpt><trkpt lat="45.630915" lon="-88.341244"></trkpt><trkpt lat="45.630256" lon="-88.343366"></trkpt><trkpt lat="45.630103" lon="-88.345450"></trkpt><trkpt lat="45.630468" lon="-88.347859"></trkpt><trkpt lat="45.631187" lon="-88.350813"></trkpt><trkpt lat="45.631260" lon="-88.352721"></trkpt><trkpt lat="45.631442" lon="-88.356477"></trkpt><trkpt lat="45.631487" lon="-88.357587"></trkpt><trkpt lat="45.631532" lon="-88.358653"></trkpt><trkpt lat="45.631365" lon="-88.358854"></trkpt><trkpt lat="45.630586" lon="-88.358888"></trkpt><trkpt lat="45.628569" lon="-88.359052"></trkpt><trkpt lat="45.628434" lon="-88.359087"></trkpt><trkpt lat="45.628384" lon="-88.359328"></trkpt><trkpt lat="45.628439" lon="-88.360526"></trkpt><trkpt lat="45.628093" lon="-88.360680"></trkpt><trkpt lat="45.625745" lon="-88.360712"></trkpt><trkpt lat="45.621868" lon="-88.360907"></trkpt><trkpt lat="45.619488" lon="-88.360980"></trkpt><trkpt lat="45.615551" lon="-88.361039"></trkpt><trkpt lat="45.613386" lon="-88.361072"></trkpt><trkpt lat="45.612691" lon="-88.361090"></trkpt><trkpt lat="45.609852" lon="-88.361139"></trkpt><trkpt lat="45.609846" lon="-88.364152"></trkpt><trkpt lat="45.609873" lon="-88.365061"></trkpt><trkpt lat="45.609813" lon="-88.365909"></trkpt><trkpt lat="45.608798" lon="-88.365907"></trkpt><trkpt lat="45.606706" lon="-88.365824"></trkpt><trkpt lat="45.605903" lon="-88.365777"></trkpt><trkpt lat="45.602859" lon="-88.365673"></trkpt><trkpt lat="45.602814" lon="-88.365288"></trkpt><trkpt lat="45.602711" lon="-88.364995"></trkpt><trkpt lat="45.602263" lon="-88.364361"></trkpt><trkpt lat="45.601600" lon="-88.363535"></trkpt><trkpt lat="45.600708" lon="-88.362043"></trkpt><trkpt lat="45.599952" lon="-88.360572"></trkpt><trkpt lat="45.599683" lon="-88.359862"></trkpt><trkpt lat="45.599529" lon="-88.359304"></trkpt><trkpt lat="45.599461" lon="-88.358873"></trkpt><trkpt lat="45.599376" lon="-88.357937"></trkpt><trkpt lat="45.599556" lon="-88.357506"></trkpt><trkpt lat="45.599569" lon="-88.356696"></trkpt><trkpt lat="45.599618" lon="-88.356247"></trkpt><trkpt lat="45.599835" lon="-88.355506"></trkpt><trkpt lat="45.599804" lon="-88.355040"></trkpt><trkpt lat="45.599497" lon="-88.354284"></trkpt><trkpt lat="45.599425" lon="-88.353872"></trkpt><trkpt lat="45.599084" lon="-88.354084"></trkpt><trkpt lat="45.598514" lon="-88.354855"></trkpt><trkpt lat="45.597580" lon="-88.356206"></trkpt><trkpt lat="45.596552" lon="-88.357645"></trkpt><trkpt lat="45.596173" lon="-88.358127"></trkpt><trkpt lat="45.595799" lon="-88.358706"></trkpt><trkpt lat="45.595571" lon="-88.359314"></trkpt><trkpt lat="45.595473" lon="-88.359961"></trkpt><trkpt lat="45.595457" lon="-88.360446"></trkpt><trkpt lat="45.595482" lon="-88.361028"></trkpt><trkpt lat="45.595599" lon="-88.361620"></trkpt><trkpt lat="45.596280" lon="-88.363069"></trkpt><trkpt lat="45.596917" lon="-88.363704"></trkpt><trkpt lat="45.597666" lon="-88.364175"></trkpt><trkpt lat="45.597900" lon="-88.364373"></trkpt><trkpt lat="45.598542" lon="-88.365044"></trkpt><trkpt lat="45.599245" lon="-88.366534"></trkpt><trkpt lat="45.600062" lon="-88.368635"></trkpt><trkpt lat="45.600870" lon="-88.370671"></trkpt><trkpt lat="45.601805" lon="-88.373015"></trkpt><trkpt lat="45.602031" lon="-88.373824"></trkpt><trkpt lat="45.601765" lon="-88.374057"></trkpt><trkpt lat="45.600287" lon="-88.373319"></trkpt><trkpt lat="45.598418" lon="-88.372593"></trkpt><trkpt lat="45.595399" lon="-88.371408"></trkpt><trkpt lat="45.593047" lon="-88.370479"></trkpt><trkpt lat="45.591082" lon="-88.369717"></trkpt><trkpt lat="45.589175" lon="-88.368960"></trkpt><trkpt lat="45.586938" lon="-88.368094"></trkpt><trkpt lat="45.585780" lon="-88.367641"></trkpt><trkpt lat="45.584058" lon="-88.367356"></trkpt><trkpt lat="45.582791" lon="-88.367224"></trkpt><trkpt lat="45.581653" lon="-88.367307"></trkpt><trkpt lat="45.581248" lon="-88.366557"></trkpt><trkpt lat="45.581131" lon="-88.365048"></trkpt><trkpt lat="45.580929" lon="-88.364180"></trkpt><trkpt lat="45.580664" lon="-88.363558"></trkpt><trkpt lat="45.580442" lon="-88.363220"></trkpt><trkpt lat="45.580117" lon="-88.363221"></trkpt><trkpt lat="45.579870" lon="-88.362571"></trkpt><trkpt lat="45.579604" lon="-88.361226"></trkpt><trkpt lat="45.579449" lon="-88.359688"></trkpt><trkpt lat="45.579421" lon="-88.357916"></trkpt><trkpt lat="45.579540" lon="-88.356681"></trkpt><trkpt lat="45.579743" lon="-88.355160"></trkpt><trkpt lat="45.579925" lon="-88.353517"></trkpt><trkpt lat="45.579896" lon="-88.352380"></trkpt><trkpt lat="45.580058" lon="-88.351539"></trkpt><trkpt lat="45.580050" lon="-88.350350"></trkpt><trkpt lat="45.579880" lon="-88.349419"></trkpt><trkpt lat="45.579635" lon="-88.348302"></trkpt><trkpt lat="45.579252" lon="-88.347414"></trkpt><trkpt lat="45.578875" lon="-88.346992"></trkpt><trkpt lat="45.577940" lon="-88.346346"></trkpt><trkpt lat="45.577249" lon="-88.346093"></trkpt><trkpt lat="45.576609" lon="-88.346705"></trkpt><trkpt lat="45.576465" lon="-88.347158"></trkpt><trkpt lat="45.576267" lon="-88.348643"></trkpt><trkpt lat="45.576223" lon="-88.349559"></trkpt><trkpt lat="45.575707" lon="-88.349781"></trkpt><trkpt lat="45.575334" lon="-88.349515"></trkpt><trkpt lat="45.574968" lon="-88.349093"></trkpt><trkpt lat="45.574453" lon="-88.348756"></trkpt><trkpt lat="45.573907" lon="-88.348581"></trkpt><trkpt lat="45.573342" lon="-88.348125"></trkpt><trkpt lat="45.573001" lon="-88.347221"></trkpt><trkpt lat="45.572947" lon="-88.346632"></trkpt><trkpt lat="45.573205" lon="-88.344980"></trkpt><trkpt lat="45.572991" lon="-88.344252"></trkpt><trkpt lat="45.573199" lon="-88.342893"></trkpt><trkpt lat="45.573246" lon="-88.342083"></trkpt><trkpt lat="45.573487" lon="-88.341437"></trkpt><trkpt lat="45.573402" lon="-88.340625"></trkpt><trkpt lat="45.573339" lon="-88.339503"></trkpt><trkpt lat="45.573378" lon="-88.338642"></trkpt><trkpt lat="45.573327" lon="-88.337648"></trkpt><trkpt lat="45.573350" lon="-88.336883"></trkpt><trkpt lat="45.572951" lon="-88.336203"></trkpt><trkpt lat="45.572595" lon="-88.334513"></trkpt><trkpt lat="45.572508" lon="-88.333929"></trkpt><trkpt lat="45.571784" lon="-88.332691"></trkpt><trkpt lat="45.571483" lon="-88.332328"></trkpt><trkpt lat="45.571016" lon="-88.331454"></trkpt><trkpt lat="45.570665" lon="-88.330621"></trkpt><trkpt lat="45.570520" lon="-88.329911"></trkpt><trkpt lat="45.570314" lon="-88.329388"></trkpt><trkpt lat="45.569974" lon="-88.329053"></trkpt><trkpt lat="45.569567" lon="-88.328786"></trkpt><trkpt lat="45.568812" lon="-88.328637"></trkpt><trkpt lat="45.567708" lon="-88.328651"></trkpt><trkpt lat="45.566701" lon="-88.329189"></trkpt><trkpt lat="45.566292" lon="-88.329395"></trkpt><trkpt lat="45.565399" lon="-88.329192"></trkpt><trkpt lat="45.564992" lon="-88.329247"></trkpt><trkpt lat="45.564736" lon="-88.329708"></trkpt><trkpt lat="45.564665" lon="-88.330906"></trkpt><trkpt lat="45.564463" lon="-88.332059"></trkpt><trkpt lat="45.564154" lon="-88.332623"></trkpt><trkpt lat="45.563612" lon="-88.333230"></trkpt><trkpt lat="45.563308" lon="-88.333881"></trkpt><trkpt lat="45.563301" lon="-88.334406"></trkpt><trkpt lat="45.563482" lon="-88.335453"></trkpt><trkpt lat="45.563498" lon="-88.336787"></trkpt><trkpt lat="45.563535" lon="-88.337701"></trkpt><trkpt lat="45.563695" lon="-88.338838"></trkpt><trkpt lat="45.563760" lon="-88.339197"></trkpt><trkpt lat="45.563755" lon="-88.339905"></trkpt><trkpt lat="45.563298" lon="-88.340797"></trkpt><trkpt lat="45.562712" lon="-88.340980"></trkpt><trkpt lat="45.560928" lon="-88.340212"></trkpt><trkpt lat="45.560542" lon="-88.340192"></trkpt><trkpt lat="45.559051" lon="-88.340729"></trkpt><trkpt lat="45.558431" lon="-88.341012"></trkpt><trkpt lat="45.557302" lon="-88.342070"></trkpt><trkpt lat="45.555663" lon="-88.344115"></trkpt><trkpt lat="45.555120" lon="-88.345112"></trkpt><trkpt lat="45.554816" lon="-88.346629"></trkpt><trkpt lat="45.554631" lon="-88.349143"></trkpt><trkpt lat="45.554724" lon="-88.350242"></trkpt><trkpt lat="45.554965" lon="-88.351192"></trkpt><trkpt lat="45.555432" lon="-88.352680"></trkpt><trkpt lat="45.555567" lon="-88.354173"></trkpt><trkpt lat="45.555741" lon="-88.354558"></trkpt><trkpt lat="45.555980" lon="-88.354868"></trkpt><trkpt lat="45.556656" lon="-88.355558"></trkpt><trkpt lat="45.556975" lon="-88.355800"></trkpt><trkpt lat="45.557461" lon="-88.356047"></trkpt><trkpt lat="45.558432" lon="-88.356270"></trkpt><trkpt lat="45.559534" lon="-88.356499"></trkpt><trkpt lat="45.560114" lon="-88.356895"></trkpt><trkpt lat="45.560498" lon="-88.357357"></trkpt><trkpt lat="45.561414" lon="-88.358416"></trkpt><trkpt lat="45.561857" lon="-88.357756"></trkpt><trkpt lat="45.562146" lon="-88.356829"></trkpt><trkpt lat="45.562264" lon="-88.356125"></trkpt><trkpt lat="45.562201" lon="-88.355398"></trkpt><trkpt lat="45.562306" lon="-88.354761"></trkpt><trkpt lat="45.562723" lon="-88.353649"></trkpt><trkpt lat="45.563112" lon="-88.352944"></trkpt><trkpt lat="45.563520" lon="-88.352463"></trkpt><trkpt lat="45.563991" lon="-88.351644"></trkpt><trkpt lat="45.564324" lon="-88.351441"></trkpt><trkpt lat="45.564961" lon="-88.351507"></trkpt><trkpt lat="45.565302" lon="-88.351419"></trkpt><trkpt lat="45.565642" lon="-88.350617"></trkpt><trkpt lat="45.565852" lon="-88.350273"></trkpt><trkpt lat="45.566097" lon="-88.350188"></trkpt><trkpt lat="45.566543" lon="-88.350369"></trkpt><trkpt lat="45.566743" lon="-88.350343"></trkpt><trkpt lat="45.566861" lon="-88.350175"></trkpt><trkpt lat="45.567030" lon="-88.350540"></trkpt><trkpt lat="45.567384" lon="-88.351292"></trkpt><trkpt lat="45.567560" lon="-88.351614"></trkpt><trkpt lat="45.567941" lon="-88.352506"></trkpt><trkpt lat="45.568301" lon="-88.352811"></trkpt><trkpt lat="45.568666" lon="-88.353394"></trkpt><trkpt lat="45.568787" lon="-88.353749"></trkpt><trkpt lat="45.568727" lon="-88.354356"></trkpt><trkpt lat="45.568668" lon="-88.355678"></trkpt><trkpt lat="45.568577" lon="-88.355897"></trkpt><trkpt lat="45.568462" lon="-88.356464"></trkpt><trkpt lat="45.568455" lon="-88.357106"></trkpt><trkpt lat="45.568337" lon="-88.357612"></trkpt><trkpt lat="45.568285" lon="-88.358085"></trkpt><trkpt lat="45.568097" lon="-88.358448"></trkpt><trkpt lat="45.567398" lon="-88.359062"></trkpt><trkpt lat="45.567253" lon="-88.359551"></trkpt><trkpt lat="45.568053" lon="-88.361002"></trkpt><trkpt lat="45.568573" lon="-88.361764"></trkpt><trkpt lat="45.569264" lon="-88.362860"></trkpt><trkpt lat="45.570050" lon="-88.363558"></trkpt><trkpt lat="45.571292" lon="-88.364152"></trkpt><trkpt lat="45.572530" lon="-88.364702"></trkpt><trkpt lat="45.572893" lon="-88.364701"></trkpt><trkpt lat="45.574980" lon="-88.364002"></trkpt><trkpt lat="45.575689" lon="-88.363973"></trkpt><trkpt lat="45.576389" lon="-88.364288"></trkpt><trkpt lat="45.577187" lon="-88.365182"></trkpt><trkpt lat="45.578383" lon="-88.366784"></trkpt><trkpt lat="45.578574" lon="-88.366995"></trkpt><trkpt lat="45.578963" lon="-88.367312"></trkpt><trkpt lat="45.578905" lon="-88.367560"></trkpt><trkpt lat="45.578645" lon="-88.367775"></trkpt><trkpt lat="45.577570" lon="-88.367952"></trkpt><trkpt lat="45.576433" lon="-88.368429"></trkpt><trkpt lat="45.574718" lon="-88.369371"></trkpt><trkpt lat="45.572410" lon="-88.372182"></trkpt><trkpt lat="45.571759" lon="-88.372634"></trkpt><trkpt lat="45.571086" lon="-88.372909"></trkpt><trkpt lat="45.568648" lon="-88.373868"></trkpt><trkpt lat="45.567169" lon="-88.374450"></trkpt><trkpt lat="45.565407" lon="-88.375139"></trkpt><trkpt lat="45.563801" lon="-88.375806"></trkpt><trkpt lat="45.563222" lon="-88.376374"></trkpt><trkpt lat="45.562865" lon="-88.377038"></trkpt><trkpt lat="45.562188" lon="-88.379483"></trkpt><trkpt lat="45.561722" lon="-88.380280"></trkpt><trkpt lat="45.561443" lon="-88.380546"></trkpt><trkpt lat="45.561026" lon="-88.380773"></trkpt><trkpt lat="45.559561" lon="-88.381179"></trkpt><trkpt lat="45.558559" lon="-88.381463"></trkpt><trkpt lat="45.556456" lon="-88.382049"></trkpt><trkpt lat="45.554606" lon="-88.382031"></trkpt><trkpt lat="45.553787" lon="-88.381513"></trkpt><trkpt lat="45.553340" lon="-88.380319"></trkpt><trkpt lat="45.553083" lon="-88.379207"></trkpt><trkpt lat="45.552439" lon="-88.377754"></trkpt><trkpt lat="45.552193" lon="-88.376477"></trkpt><trkpt lat="45.551789" lon="-88.375733"></trkpt><trkpt lat="45.550797" lon="-88.375482"></trkpt><trkpt lat="45.549915" lon="-88.375184"></trkpt><trkpt lat="45.549218" lon="-88.374982"></trkpt><trkpt lat="45.548272" lon="-88.375022"></trkpt><trkpt lat="45.546654" lon="-88.375365"></trkpt><trkpt lat="45.545020" lon="-88.375630"></trkpt><trkpt lat="45.544002" lon="-88.375315"></trkpt><trkpt lat="45.543043" lon="-88.374810"></trkpt><trkpt lat="45.541981" lon="-88.374632"></trkpt><trkpt lat="45.540534" lon="-88.374578"></trkpt><trkpt lat="45.539312" lon="-88.374573"></trkpt><trkpt lat="45.537825" lon="-88.375200"></trkpt><trkpt lat="45.536633" lon="-88.375816"></trkpt><trkpt lat="45.536208" lon="-88.376076"></trkpt><trkpt lat="45.535886" lon="-88.376355"></trkpt><trkpt lat="45.533608" lon="-88.379328"></trkpt><trkpt lat="45.532516" lon="-88.380420"></trkpt><trkpt lat="45.531386" lon="-88.380908"></trkpt><trkpt lat="45.530304" lon="-88.381238"></trkpt><trkpt lat="45.529232" lon="-88.381172"></trkpt><trkpt lat="45.528698" lon="-88.380937"></trkpt><trkpt lat="45.527949" lon="-88.380368"></trkpt><trkpt lat="45.527163" lon="-88.379207"></trkpt><trkpt lat="45.526819" lon="-88.378311"></trkpt><trkpt lat="45.526847" lon="-88.380923"></trkpt><trkpt lat="45.523493" lon="-88.386571"></trkpt><trkpt lat="45.524101" lon="-88.391124"></trkpt><trkpt lat="45.520053" lon="-88.397054"></trkpt><trkpt lat="45.519590" lon="-88.398431"></trkpt><trkpt lat="45.519069" lon="-88.401572"></trkpt><trkpt lat="45.518462" lon="-88.402455"></trkpt><trkpt lat="45.519995" lon="-88.402808"></trkpt><trkpt lat="45.521151" lon="-88.402384"></trkpt><trkpt lat="45.521238" lon="-88.402384"></trkpt><trkpt lat="45.527512" lon="-88.402349"></trkpt><trkpt lat="45.528756" lon="-88.402843"></trkpt><trkpt lat="45.529392" lon="-88.405455"></trkpt><trkpt lat="45.531329" lon="-88.406161"></trkpt><trkpt lat="45.532196" lon="-88.407820"></trkpt><trkpt lat="45.531156" lon="-88.408137"></trkpt><trkpt lat="45.530404" lon="-88.409867"></trkpt><trkpt lat="45.528842" lon="-88.411244"></trkpt><trkpt lat="45.526992" lon="-88.410608"></trkpt><trkpt lat="45.526356" lon="-88.411879"></trkpt><trkpt lat="45.521296" lon="-88.411420"></trkpt><trkpt lat="45.516496" lon="-88.411808"></trkpt><trkpt lat="45.515484" lon="-88.412691"></trkpt><trkpt lat="45.514935" lon="-88.414067"></trkpt><trkpt lat="45.514415" lon="-88.418727"></trkpt><trkpt lat="45.513403" lon="-88.420104"></trkpt><trkpt lat="45.510771" lon="-88.420951"></trkpt><trkpt lat="45.510222" lon="-88.424586"></trkpt><trkpt lat="45.510511" lon="-88.433022"></trkpt><trkpt lat="45.512680" lon="-88.436729"></trkpt><trkpt lat="45.514183" lon="-88.443647"></trkpt><trkpt lat="45.514299" lon="-88.446860"></trkpt><trkpt lat="45.513432" lon="-88.450001"></trkpt><trkpt lat="45.510396" lon="-88.454837"></trkpt><trkpt lat="45.510135" lon="-88.457837"></trkpt><trkpt lat="45.510829" lon="-88.460696"></trkpt><trkpt lat="45.512738" lon="-88.462602"></trkpt><trkpt lat="45.512824" lon="-88.462602"></trkpt><trkpt lat="45.516872" lon="-88.462390"></trkpt><trkpt lat="45.518578" lon="-88.463061"></trkpt><trkpt lat="45.521036" lon="-88.467614"></trkpt><trkpt lat="45.521383" lon="-88.499312"></trkpt><trkpt lat="45.520602" lon="-88.528259"></trkpt><trkpt lat="45.521441" lon="-88.540613"></trkpt><trkpt lat="45.521036" lon="-88.564969"></trkpt><trkpt lat="45.521296" lon="-88.575276"></trkpt><trkpt lat="45.521701" lon="-88.603090"></trkpt><trkpt lat="45.521505" lon="-88.613483"></trkpt><trkpt lat="45.521477" lon="-88.612836"></trkpt><trkpt lat="45.521130" lon="-88.613044"></trkpt><trkpt lat="45.520888" lon="-88.613039"></trkpt><trkpt lat="45.520624" lon="-88.613043"></trkpt><trkpt lat="45.520350" lon="-88.613050"></trkpt><trkpt lat="45.519339" lon="-88.613056"></trkpt><trkpt lat="45.518897" lon="-88.613057"></trkpt><trkpt lat="45.518031" lon="-88.613066"></trkpt><trkpt lat="45.516295" lon="-88.613084"></trkpt><trkpt lat="45.516173" lon="-88.613085"></trkpt><trkpt lat="45.515857" lon="-88.613089"></trkpt><trkpt lat="45.515659" lon="-88.613088"></trkpt><trkpt lat="45.515598" lon="-88.613193"></trkpt><trkpt lat="45.515645" lon="-88.613483"></trkpt><trkpt lat="45.515831" lon="-88.613914"></trkpt><trkpt lat="45.516163" lon="-88.614303"></trkpt><trkpt lat="45.516266" lon="-88.614453"></trkpt><trkpt lat="45.516533" lon="-88.614901"></trkpt><trkpt lat="45.516633" lon="-88.615614"></trkpt><trkpt lat="45.516483" lon="-88.615803"></trkpt><trkpt lat="45.516221" lon="-88.616074"></trkpt><trkpt lat="45.516121" lon="-88.616147"></trkpt><trkpt lat="45.515839" lon="-88.616495"></trkpt><trkpt lat="45.515699" lon="-88.616873"></trkpt><trkpt lat="45.515619" lon="-88.617151"></trkpt><trkpt lat="45.515528" lon="-88.617933"></trkpt><trkpt lat="45.515448" lon="-88.618477"></trkpt><trkpt lat="45.515431" lon="-88.618748"></trkpt><trkpt lat="45.515471" lon="-88.618978"></trkpt><trkpt lat="45.515504" lon="-88.619349"></trkpt><trkpt lat="45.515487" lon="-88.619615"></trkpt><trkpt lat="45.515648" lon="-88.620113"></trkpt><trkpt lat="45.515730" lon="-88.620267"></trkpt><trkpt lat="45.515895" lon="-88.620559"></trkpt><trkpt lat="45.516046" lon="-88.620842"></trkpt><trkpt lat="45.516276" lon="-88.621239"></trkpt><trkpt lat="45.516724" lon="-88.622030"></trkpt><trkpt lat="45.517469" lon="-88.623272"></trkpt><trkpt lat="45.517527" lon="-88.623383"></trkpt><trkpt lat="45.517728" lon="-88.623912"></trkpt><trkpt lat="45.517893" lon="-88.624556"></trkpt><trkpt lat="45.517880" lon="-88.624791"></trkpt><trkpt lat="45.517830" lon="-88.625208"></trkpt><trkpt lat="45.517775" lon="-88.625598"></trkpt><trkpt lat="45.517634" lon="-88.625714"></trkpt><trkpt lat="45.517243" lon="-88.626139"></trkpt><trkpt lat="45.516795" lon="-88.626529"></trkpt><trkpt lat="45.516579" lon="-88.626724"></trkpt><trkpt lat="45.516258" lon="-88.626987"></trkpt><trkpt lat="45.515319" lon="-88.627418"></trkpt><trkpt lat="45.515212" lon="-88.627421"></trkpt><trkpt lat="45.514904" lon="-88.627514"></trkpt><trkpt lat="45.514780" lon="-88.627563"></trkpt><trkpt lat="45.514598" lon="-88.626950"></trkpt><trkpt lat="45.514587" lon="-88.626724"></trkpt><trkpt lat="45.514623" lon="-88.626015"></trkpt><trkpt lat="45.514542" lon="-88.626041"></trkpt><trkpt lat="45.514394" lon="-88.626229"></trkpt><trkpt lat="45.514185" lon="-88.626445"></trkpt><trkpt lat="45.514103" lon="-88.626779"></trkpt><trkpt lat="45.514005" lon="-88.627397"></trkpt><trkpt lat="45.514065" lon="-88.627769"></trkpt><trkpt lat="45.513890" lon="-88.628290"></trkpt><trkpt lat="45.512862" lon="-88.629203"></trkpt><trkpt lat="45.512310" lon="-88.629877"></trkpt><trkpt lat="45.512153" lon="-88.630065"></trkpt><trkpt lat="45.511986" lon="-88.630273"></trkpt><trkpt lat="45.511934" lon="-88.630338"></trkpt><trkpt lat="45.511197" lon="-88.631619"></trkpt><trkpt lat="45.510925" lon="-88.632038"></trkpt><trkpt lat="45.510844" lon="-88.632179"></trkpt><trkpt lat="45.510609" lon="-88.632633"></trkpt><trkpt lat="45.509680" lon="-88.634082"></trkpt><trkpt lat="45.509474" lon="-88.634375"></trkpt><trkpt lat="45.508922" lon="-88.635191"></trkpt><trkpt lat="45.508642" lon="-88.635765"></trkpt><trkpt lat="45.508570" lon="-88.636106"></trkpt><trkpt lat="45.508618" lon="-88.637004"></trkpt><trkpt lat="45.508557" lon="-88.637589"></trkpt><trkpt lat="45.507945" lon="-88.638176"></trkpt><trkpt lat="45.507776" lon="-88.638354"></trkpt><trkpt lat="45.507519" lon="-88.638761"></trkpt><trkpt lat="45.507318" lon="-88.639294"></trkpt><trkpt lat="45.507197" lon="-88.639815"></trkpt><trkpt lat="45.507199" lon="-88.640108"></trkpt><trkpt lat="45.507249" lon="-88.640383"></trkpt><trkpt lat="45.507448" lon="-88.640733"></trkpt><trkpt lat="45.508239" lon="-88.641675"></trkpt><trkpt lat="45.508438" lon="-88.642146"></trkpt><trkpt lat="45.508485" lon="-88.642471"></trkpt><trkpt lat="45.508485" lon="-88.642962"></trkpt><trkpt lat="45.508397" lon="-88.643173"></trkpt><trkpt lat="45.508292" lon="-88.643399"></trkpt><trkpt lat="45.507835" lon="-88.643827"></trkpt><trkpt lat="45.507663" lon="-88.643983"></trkpt><trkpt lat="45.507626" lon="-88.644184"></trkpt><trkpt lat="45.507384" lon="-88.644625"></trkpt><trkpt lat="45.507094" lon="-88.644965"></trkpt><trkpt lat="45.506904" lon="-88.644846"></trkpt><trkpt lat="45.506517" lon="-88.644736"></trkpt><trkpt lat="45.506302" lon="-88.644782"></trkpt><trkpt lat="45.505908" lon="-88.645092"></trkpt><trkpt lat="45.505448" lon="-88.645805"></trkpt><trkpt lat="45.504703" lon="-88.646509"></trkpt><trkpt lat="45.503747" lon="-88.646938"></trkpt><trkpt lat="45.503502" lon="-88.647028"></trkpt><trkpt lat="45.503011" lon="-88.647289"></trkpt><trkpt lat="45.502572" lon="-88.648045"></trkpt><trkpt lat="45.502617" lon="-88.648883"></trkpt><trkpt lat="45.502715" lon="-88.649121"></trkpt><trkpt lat="45.502736" lon="-88.649851"></trkpt><trkpt lat="45.502681" lon="-88.650478"></trkpt><trkpt lat="45.502980" lon="-88.651772"></trkpt><trkpt lat="45.503238" lon="-88.652166"></trkpt><trkpt lat="45.503446" lon="-88.652295"></trkpt><trkpt lat="45.503749" lon="-88.652421"></trkpt><trkpt lat="45.503967" lon="-88.652486"></trkpt><trkpt lat="45.504274" lon="-88.652551"></trkpt><trkpt lat="45.504478" lon="-88.652588"></trkpt><trkpt lat="45.505060" lon="-88.652995"></trkpt><trkpt lat="45.505476" lon="-88.653464"></trkpt><trkpt lat="45.505781" lon="-88.653544"></trkpt><trkpt lat="45.506025" lon="-88.653679"></trkpt><trkpt lat="45.506163" lon="-88.653720"></trkpt><trkpt lat="45.506373" lon="-88.653842"></trkpt><trkpt lat="45.506328" lon="-88.654007"></trkpt><trkpt lat="45.506217" lon="-88.654114"></trkpt><trkpt lat="45.506041" lon="-88.654242"></trkpt><trkpt lat="45.505705" lon="-88.654698"></trkpt><trkpt lat="45.505466" lon="-88.655266"></trkpt><trkpt lat="45.505361" lon="-88.655884"></trkpt><trkpt lat="45.505376" lon="-88.656193"></trkpt><trkpt lat="45.505214" lon="-88.656690"></trkpt><trkpt lat="45.504938" lon="-88.657008"></trkpt><trkpt lat="45.504828" lon="-88.657209"></trkpt><trkpt lat="45.505034" lon="-88.657775"></trkpt><trkpt lat="45.505086" lon="-88.658424"></trkpt><trkpt lat="45.505090" lon="-88.658904"></trkpt><trkpt lat="45.505006" lon="-88.659535"></trkpt><trkpt lat="45.504973" lon="-88.660150"></trkpt><trkpt lat="45.505310" lon="-88.660743"></trkpt><trkpt lat="45.505696" lon="-88.660971"></trkpt><trkpt lat="45.506008" lon="-88.661283"></trkpt><trkpt lat="45.506299" lon="-88.661654"></trkpt><trkpt lat="45.506587" lon="-88.661739"></trkpt><trkpt lat="45.506896" lon="-88.661837"></trkpt><trkpt lat="45.507228" lon="-88.661864"></trkpt><trkpt lat="45.507819" lon="-88.662055"></trkpt><trkpt lat="45.507954" lon="-88.662218"></trkpt><trkpt lat="45.508191" lon="-88.662363"></trkpt><trkpt lat="45.508312" lon="-88.662692"></trkpt><trkpt lat="45.508260" lon="-88.663188"></trkpt><trkpt lat="45.508194" lon="-88.663788"></trkpt><trkpt lat="45.507936" lon="-88.663812"></trkpt><trkpt lat="45.501600" lon="-88.661723"></trkpt><trkpt lat="45.500627" lon="-88.661395"></trkpt><trkpt lat="45.498548" lon="-88.660870"></trkpt><trkpt lat="45.498207" lon="-88.660845"></trkpt><trkpt lat="45.497391" lon="-88.660964"></trkpt><trkpt lat="45.496078" lon="-88.661569"></trkpt><trkpt lat="45.495707" lon="-88.661838"></trkpt><trkpt lat="45.493945" lon="-88.663193"></trkpt><trkpt lat="45.493579" lon="-88.663471"></trkpt><trkpt lat="45.493173" lon="-88.663789"></trkpt><trkpt lat="45.492752" lon="-88.664106"></trkpt><trkpt lat="45.491491" lon="-88.665046"></trkpt><trkpt lat="45.490486" lon="-88.665807"></trkpt><trkpt lat="45.488923" lon="-88.666956"></trkpt><trkpt lat="45.487633" lon="-88.667914"></trkpt><trkpt lat="45.486557" lon="-88.668775"></trkpt><trkpt lat="45.486007" lon="-88.669218"></trkpt><trkpt lat="45.484853" lon="-88.670147"></trkpt><trkpt lat="45.483243" lon="-88.671311"></trkpt><trkpt lat="45.481404" lon="-88.672646"></trkpt><trkpt lat="45.480888" lon="-88.672953"></trkpt><trkpt lat="45.480234" lon="-88.673238"></trkpt><trkpt lat="45.478914" lon="-88.673491"></trkpt><trkpt lat="45.478136" lon="-88.673602"></trkpt><trkpt lat="45.476337" lon="-88.673708"></trkpt><trkpt lat="45.475449" lon="-88.673761"></trkpt><trkpt lat="45.473704" lon="-88.673918"></trkpt><trkpt lat="45.472980" lon="-88.673959"></trkpt><trkpt lat="45.470751" lon="-88.674151"></trkpt><trkpt lat="45.469320" lon="-88.674266"></trkpt><trkpt lat="45.466640" lon="-88.674480"></trkpt><trkpt lat="45.464555" lon="-88.674567"></trkpt><trkpt lat="45.464571" lon="-88.667265"></trkpt><trkpt lat="45.464334" lon="-88.667265"></trkpt><trkpt lat="45.464318" lon="-88.674510"></trkpt><trkpt lat="45.460801" lon="-88.674739"></trkpt><trkpt lat="45.453132" lon="-88.675298"></trkpt><trkpt lat="45.450788" lon="-88.674930"></trkpt><trkpt lat="45.449650" lon="-88.673378"></trkpt><trkpt lat="45.449467" lon="-88.671563"></trkpt><trkpt lat="45.450290" lon="-88.668936"></trkpt><trkpt lat="45.450926" lon="-88.665264"></trkpt><trkpt lat="45.449899" lon="-88.663200"></trkpt><trkpt lat="45.448273" lon="-88.662744"></trkpt><trkpt lat="45.446514" lon="-88.663397"></trkpt><trkpt lat="45.445490" lon="-88.666602"></trkpt><trkpt lat="45.444080" lon="-88.668574"></trkpt><trkpt lat="45.442129" lon="-88.668790"></trkpt><trkpt lat="45.440872" lon="-88.667377"></trkpt><trkpt lat="45.440023" lon="-88.664662"></trkpt><trkpt lat="45.439775" lon="-88.660297"></trkpt><trkpt lat="45.439888" lon="-88.655086"></trkpt></trkseg></trk><trk><name>T003 LO3D276</name><trkseg><trkpt lat="45.440103" lon="-88.655086"></trkpt><trkpt lat="45.440159" lon="-88.655097"></trkpt><trkpt lat="45.440228" lon="-88.655097"></trkpt><trkpt lat="45.441088" lon="-88.655085"></trkpt><trkpt lat="45.442208" lon="-88.655078"></trkpt><trkpt lat="45.442282" lon="-88.655221"></trkpt><trkpt lat="45.442283" lon="-88.655430"></trkpt><trkpt lat="45.442195" lon="-88.657022"></trkpt><trkpt lat="45.442114" lon="-88.658768"></trkpt><trkpt lat="45.442151" lon="-88.658932"></trkpt><trkpt lat="45.442248" lon="-88.659035"></trkpt><trkpt lat="45.442388" lon="-88.659062"></trkpt><trkpt lat="45.443264" lon="-88.659151"></trkpt><trkpt lat="45.443389" lon="-88.659221"></trkpt><trkpt lat="45.443461" lon="-88.659374"></trkpt><trkpt lat="45.443463" lon="-88.659581"></trkpt><trkpt lat="45.443454" lon="-88.659678"></trkpt><trkpt lat="45.443452" lon="-88.659918"></trkpt><trkpt lat="45.443476" lon="-88.660050"></trkpt><trkpt lat="45.443507" lon="-88.660209"></trkpt><trkpt lat="45.443500" lon="-88.660284"></trkpt><trkpt lat="45.443527" lon="-88.660330"></trkpt><trkpt lat="45.443537" lon="-88.660388"></trkpt><trkpt lat="45.443505" lon="-88.660435"></trkpt><trkpt lat="45.443390" lon="-88.660933"></trkpt><trkpt lat="45.443398" lon="-88.661036"></trkpt><trkpt lat="45.443352" lon="-88.661498"></trkpt><trkpt lat="45.443419" lon="-88.661781"></trkpt><trkpt lat="45.443443" lon="-88.661811"></trkpt><trkpt lat="45.443364" lon="-88.662019"></trkpt><trkpt lat="45.443364" lon="-88.662190"></trkpt><trkpt lat="45.443413" lon="-88.662477"></trkpt><trkpt lat="45.443456" lon="-88.662590"></trkpt><trkpt lat="45.443474" lon="-88.662794"></trkpt><trkpt lat="45.443515" lon="-88.662869"></trkpt><trkpt lat="45.443516" lon="-88.662862"></trkpt><trkpt lat="45.443292" lon="-88.663181"></trkpt><trkpt lat="45.443195" lon="-88.663777"></trkpt><trkpt lat="45.443157" lon="-88.664684"></trkpt><trkpt lat="45.443204" lon="-88.665082"></trkpt><trkpt lat="45.443378" lon="-88.665143"></trkpt><trkpt lat="45.443480" lon="-88.665059"></trkpt><trkpt lat="45.443867" lon="-88.664997"></trkpt><trkpt lat="45.444006" lon="-88.664975"></trkpt><trkpt lat="45.444128" lon="-88.664830"></trkpt><trkpt lat="45.444229" lon="-88.664607"></trkpt><trkpt lat="45.444671" lon="-88.664319"></trkpt><trkpt lat="45.444746" lon="-88.664112"></trkpt><trkpt lat="45.444714" lon="-88.663647"></trkpt><trkpt lat="45.444717" lon="-88.662645"></trkpt><trkpt lat="45.444987" lon="-88.662119"></trkpt><trkpt lat="45.445048" lon="-88.662069"></trkpt><trkpt lat="45.445157" lon="-88.661736"></trkpt><trkpt lat="45.445168" lon="-88.661307"></trkpt><trkpt lat="45.445301" lon="-88.661209"></trkpt><trkpt lat="45.445577" lon="-88.661222"></trkpt><trkpt lat="45.445736" lon="-88.661054"></trkpt><trkpt lat="45.445710" lon="-88.660719"></trkpt><trkpt lat="45.445944" lon="-88.660385"></trkpt><trkpt lat="45.446092" lon="-88.660398"></trkpt><trkpt lat="45.446174" lon="-88.660389"></trkpt><trkpt lat="45.446927" lon="-88.660359"></trkpt><trkpt lat="45.447093" lon="-88.660666"></trkpt><trkpt lat="45.446982" lon="-88.661621"></trkpt><trkpt lat="45.446774" lon="-88.661861"></trkpt><trkpt lat="45.445901" lon="-88.661869"></trkpt><trkpt lat="45.445896" lon="-88.661885"></trkpt><trkpt lat="45.445866" lon="-88.662193"></trkpt><trkpt lat="45.445648" lon="-88.662801"></trkpt><trkpt lat="45.445557" lon="-88.662869"></trkpt><trkpt lat="45.445542" lon="-88.662876"></trkpt><trkpt lat="45.445165" lon="-88.664003"></trkpt><trkpt lat="45.444917" lon="-88.664221"></trkpt><trkpt lat="45.444906" lon="-88.664226"></trkpt><trkpt lat="45.444891" lon="-88.664736"></trkpt><trkpt lat="45.444997" lon="-88.664956"></trkpt><trkpt lat="45.445184" lon="-88.665014"></trkpt><trkpt lat="45.445345" lon="-88.665047"></trkpt><trkpt lat="45.445514" lon="-88.664785"></trkpt><trkpt lat="45.445678" lon="-88.664539"></trkpt><trkpt lat="45.445790" lon="-88.664349"></trkpt><trkpt lat="45.445851" lon="-88.664192"></trkpt><trkpt lat="45.446095" lon="-88.663976"></trkpt><trkpt lat="45.446101" lon="-88.663979"></trkpt><trkpt lat="45.446160" lon="-88.664074"></trkpt><trkpt lat="45.446158" lon="-88.664081"></trkpt><trkpt lat="45.446055" lon="-88.664276"></trkpt><trkpt lat="45.445630" lon="-88.665383"></trkpt><trkpt lat="45.445082" lon="-88.666932"></trkpt><trkpt lat="45.444823" lon="-88.667491"></trkpt><trkpt lat="45.444150" lon="-88.668342"></trkpt><trkpt lat="45.443195" lon="-88.668846"></trkpt><trkpt lat="45.442185" lon="-88.668799"></trkpt><trkpt lat="45.441392" lon="-88.668331"></trkpt><trkpt lat="45.440453" lon="-88.666832"></trkpt><trkpt lat="45.440235" lon="-88.665903"></trkpt><trkpt lat="45.439885" lon="-88.663698"></trkpt><trkpt lat="45.439652" lon="-88.661178"></trkpt><trkpt lat="45.439597" lon="-88.660398"></trkpt><trkpt lat="45.439586" lon="-88.659986"></trkpt><trkpt lat="45.439616" lon="-88.658533"></trkpt><trkpt lat="45.439701" lon="-88.656254"></trkpt><trkpt lat="45.439756" lon="-88.655126"></trkpt><trkpt lat="45.439105" lon="-88.655095"></trkpt><trkpt lat="45.439325" lon="-88.650942"></trkpt><trkpt lat="45.441460" lon="-88.650627"></trkpt><trkpt lat="45.442037" lon="-88.650437"></trkpt><trkpt lat="45.442783" lon="-88.649842"></trkpt><trkpt lat="45.446244" lon="-88.644684"></trkpt><trkpt lat="45.463472" lon="-88.644441"></trkpt><trkpt lat="45.463957" lon="-88.643906"></trkpt><trkpt lat="45.464069" lon="-88.643054"></trkpt><trkpt lat="45.463994" lon="-88.635494"></trkpt><trkpt lat="45.465034" lon="-88.634083"></trkpt><trkpt lat="45.480422" lon="-88.633615"></trkpt><trkpt lat="45.484753" lon="-88.633447"></trkpt><trkpt lat="45.485563" lon="-88.632600"></trkpt><trkpt lat="45.485689" lon="-88.613240"></trkpt><trkpt lat="45.492670" lon="-88.613134"></trkpt><trkpt lat="45.492545" lon="-88.588791"></trkpt><trkpt lat="45.492520" lon="-88.583732"></trkpt><trkpt lat="45.492848" lon="-88.582683"></trkpt><trkpt lat="45.493794" lon="-88.581751"></trkpt><trkpt lat="45.494335" lon="-88.580629"></trkpt><trkpt lat="45.494336" lon="-88.578116"></trkpt><trkpt lat="45.494533" lon="-88.577083"></trkpt><trkpt lat="45.495509" lon="-88.574954"></trkpt><trkpt lat="45.495724" lon="-88.572960"></trkpt><trkpt lat="45.495663" lon="-88.571722"></trkpt><trkpt lat="45.495198" lon="-88.570429"></trkpt><trkpt lat="45.494671" lon="-88.569877"></trkpt><trkpt lat="45.493167" lon="-88.568736"></trkpt><trkpt lat="45.492546" lon="-88.567905"></trkpt><trkpt lat="45.492303" lon="-88.567086"></trkpt><trkpt lat="45.492211" lon="-88.564967"></trkpt><trkpt lat="45.492248" lon="-88.563681"></trkpt><trkpt lat="45.493179" lon="-88.561788"></trkpt><trkpt lat="45.495741" lon="-88.561794"></trkpt><trkpt lat="45.495885" lon="-88.554275"></trkpt><trkpt lat="45.494700" lon="-88.551840"></trkpt><trkpt lat="45.494191" lon="-88.551640"></trkpt><trkpt lat="45.492286" lon="-88.549641"></trkpt><trkpt lat="45.492612" lon="-88.546906"></trkpt><trkpt lat="45.492387" lon="-88.545663"></trkpt><trkpt lat="45.492416" lon="-88.543263"></trkpt><trkpt lat="45.488078" lon="-88.538074"></trkpt><trkpt lat="45.481226" lon="-88.534615"></trkpt><trkpt lat="45.470759" lon="-88.536309"></trkpt><trkpt lat="45.467001" lon="-88.538850"></trkpt><trkpt lat="45.464427" lon="-88.539839"></trkpt><trkpt lat="45.464427" lon="-88.539874"></trkpt><trkpt lat="45.462790" lon="-88.541959"></trkpt><trkpt lat="45.462607" lon="-88.544366"></trkpt><trkpt lat="45.462428" lon="-88.545499"></trkpt><trkpt lat="45.461586" lon="-88.547311"></trkpt><trkpt lat="45.460285" lon="-88.549181"></trkpt><trkpt lat="45.456782" lon="-88.553641"></trkpt><trkpt lat="45.456129" lon="-88.555370"></trkpt><trkpt lat="45.456193" lon="-88.553256"></trkpt><trkpt lat="45.456512" lon="-88.552141"></trkpt><trkpt lat="45.434757" lon="-88.552774"></trkpt><trkpt lat="45.435155" lon="-88.539115"></trkpt><trkpt lat="45.434842" lon="-88.537024"></trkpt><trkpt lat="45.434287" lon="-88.535734"></trkpt><trkpt lat="45.433656" lon="-88.534826"></trkpt><trkpt lat="45.431557" lon="-88.533045"></trkpt><trkpt lat="45.430952" lon="-88.532181"></trkpt><trkpt lat="45.430285" lon="-88.530067"></trkpt><trkpt lat="45.430485" lon="-88.527682"></trkpt><trkpt lat="45.431172" lon="-88.524401"></trkpt><trkpt lat="45.431061" lon="-88.522606"></trkpt><trkpt lat="45.429423" lon="-88.515752"></trkpt><trkpt lat="45.428270" lon="-88.513039"></trkpt><trkpt lat="45.428011" lon="-88.511717"></trkpt><trkpt lat="45.427898" lon="-88.509811"></trkpt><trkpt lat="45.427581" lon="-88.508480"></trkpt><trkpt lat="45.428052" lon="-88.508142"></trkpt><trkpt lat="45.430827" lon="-88.507970"></trkpt><trkpt lat="45.431242" lon="-88.507746"></trkpt><trkpt lat="45.431271" lon="-88.506712"></trkpt><trkpt lat="45.431901" lon="-88.506079"></trkpt><trkpt lat="45.432669" lon="-88.506324"></trkpt><trkpt lat="45.433483" lon="-88.507099"></trkpt><trkpt lat="45.434252" lon="-88.508461"></trkpt><trkpt lat="45.435176" lon="-88.511488"></trkpt><trkpt lat="45.435671" lon="-88.511652"></trkpt><trkpt lat="45.435977" lon="-88.509666"></trkpt><trkpt lat="45.435892" lon="-88.504375"></trkpt><trkpt lat="45.436252" lon="-88.502253"></trkpt><trkpt lat="45.437389" lon="-88.499349"></trkpt><trkpt lat="45.441260" lon="-88.494800"></trkpt><trkpt lat="45.442168" lon="-88.496091"></trkpt><trkpt lat="45.444400" lon="-88.497980"></trkpt><trkpt lat="45.445384" lon="-88.499592"></trkpt><trkpt lat="45.447553" lon="-88.499804"></trkpt><trkpt lat="45.448854" lon="-88.498216"></trkpt><trkpt lat="45.452034" lon="-88.497474"></trkpt><trkpt lat="45.459350" lon="-88.492144"></trkpt><trkpt lat="45.465277" lon="-88.492850"></trkpt><trkpt lat="45.466867" lon="-88.486497"></trkpt><trkpt lat="45.466867" lon="-88.486462"></trkpt><trkpt lat="45.466057" lon="-88.483885"></trkpt><trkpt lat="45.463282" lon="-88.480532"></trkpt><trkpt lat="45.462848" lon="-88.478378"></trkpt><trkpt lat="45.462848" lon="-88.475202"></trkpt><trkpt lat="45.462848" lon="-88.475096"></trkpt><trkpt lat="45.463455" lon="-88.471919"></trkpt><trkpt lat="45.463455" lon="-88.471884"></trkpt><trkpt lat="45.464843" lon="-88.469836"></trkpt><trkpt lat="45.464901" lon="-88.469766"></trkpt><trkpt lat="45.466954" lon="-88.468425"></trkpt><trkpt lat="45.467966" lon="-88.465036"></trkpt><trkpt lat="45.467705" lon="-88.457411"></trkpt><trkpt lat="45.468565" lon="-88.454455"></trkpt><trkpt lat="45.469285" lon="-88.450995"></trkpt><trkpt lat="45.469747" lon="-88.448913"></trkpt><trkpt lat="45.470991" lon="-88.447218"></trkpt><trkpt lat="45.476889" lon="-88.445665"></trkpt><trkpt lat="45.481573" lon="-88.445348"></trkpt><trkpt lat="45.481544" lon="-88.445348"></trkpt><trkpt lat="45.485794" lon="-88.443547"></trkpt><trkpt lat="45.487133" lon="-88.441530"></trkpt><trkpt lat="45.489003" lon="-88.435900"></trkpt><trkpt lat="45.489006" lon="-88.435834"></trkpt><trkpt lat="45.490682" lon="-88.430815"></trkpt><trkpt lat="45.494873" lon="-88.421204"></trkpt><trkpt lat="45.496955" lon="-88.419616"></trkpt><trkpt lat="45.500338" lon="-88.420251"></trkpt><trkpt lat="45.502304" lon="-88.419333"></trkpt><trkpt lat="45.503027" lon="-88.418663"></trkpt><trkpt lat="45.502998" lon="-88.418663"></trkpt><trkpt lat="45.502131" lon="-88.418310"></trkpt><trkpt lat="45.502449" lon="-88.418169"></trkpt><trkpt lat="45.499817" lon="-88.416792"></trkpt><trkpt lat="45.499817" lon="-88.415274"></trkpt><trkpt lat="45.502767" lon="-88.414286"></trkpt><trkpt lat="45.506497" lon="-88.410580"></trkpt><trkpt lat="45.506381" lon="-88.408850"></trkpt><trkpt lat="45.506381" lon="-88.408956"></trkpt><trkpt lat="45.506554" lon="-88.408003"></trkpt><trkpt lat="45.506034" lon="-88.408321"></trkpt><trkpt lat="45.504068" lon="-88.406732"></trkpt><trkpt lat="45.503836" lon="-88.406026"></trkpt><trkpt lat="45.502506" lon="-88.405638"></trkpt><trkpt lat="45.501321" lon="-88.406591"></trkpt><trkpt lat="45.500598" lon="-88.406944"></trkpt><trkpt lat="45.500309" lon="-88.406520"></trkpt><trkpt lat="45.499297" lon="-88.406097"></trkpt><trkpt lat="45.499499" lon="-88.404014"></trkpt><trkpt lat="45.499049" lon="-88.402824"></trkpt><trkpt lat="45.496365" lon="-88.403965"></trkpt><trkpt lat="45.495596" lon="-88.393496"></trkpt><trkpt lat="45.496377" lon="-88.391449"></trkpt><trkpt lat="45.495394" lon="-88.389931"></trkpt><trkpt lat="45.494353" lon="-88.390037"></trkpt><trkpt lat="45.494179" lon="-88.388201"></trkpt><trkpt lat="45.493341" lon="-88.387213"></trkpt><trkpt lat="45.492762" lon="-88.387566"></trkpt><trkpt lat="45.492649" lon="-88.387523"></trkpt><trkpt lat="45.492035" lon="-88.388809"></trkpt><trkpt lat="45.492097" lon="-88.388942"></trkpt><trkpt lat="45.491548" lon="-88.389119"></trkpt><trkpt lat="45.491143" lon="-88.388590"></trkpt><trkpt lat="45.490594" lon="-88.389507"></trkpt><trkpt lat="45.489611" lon="-88.389931"></trkpt><trkpt lat="45.489206" lon="-88.390037"></trkpt><trkpt lat="45.486922" lon="-88.391343"></trkpt><trkpt lat="45.486922" lon="-88.391378"></trkpt><trkpt lat="45.486402" lon="-88.391237"></trkpt><trkpt lat="45.485129" lon="-88.391731"></trkpt><trkpt lat="45.485071" lon="-88.391731"></trkpt><trkpt lat="45.483308" lon="-88.391237"></trkpt><trkpt lat="45.482845" lon="-88.391978"></trkpt><trkpt lat="45.482874" lon="-88.391978"></trkpt><trkpt lat="45.483539" lon="-88.394414"></trkpt><trkpt lat="45.483337" lon="-88.395402"></trkpt><trkpt lat="45.483337" lon="-88.395437"></trkpt><trkpt lat="45.482701" lon="-88.395931"></trkpt><trkpt lat="45.479569" lon="-88.395493"></trkpt><trkpt lat="45.478196" lon="-88.394964"></trkpt><trkpt lat="45.475087" lon="-88.394964"></trkpt><trkpt lat="45.472919" lon="-88.395493"></trkpt><trkpt lat="45.471473" lon="-88.395493"></trkpt><trkpt lat="45.469738" lon="-88.397081"></trkpt><trkpt lat="45.469200" lon="-88.398430"></trkpt><trkpt lat="45.463995" lon="-88.403795"></trkpt><trkpt lat="45.462752" lon="-88.402525"></trkpt><trkpt lat="45.460959" lon="-88.397336"></trkpt><trkpt lat="45.459658" lon="-88.395959"></trkpt><trkpt lat="45.458617" lon="-88.396312"></trkpt><trkpt lat="45.457663" lon="-88.392465"></trkpt><trkpt lat="45.458155" lon="-88.385759"></trkpt><trkpt lat="45.457085" lon="-88.382582"></trkpt><trkpt lat="45.457663" lon="-88.382123"></trkpt><trkpt lat="45.458560" lon="-88.383041"></trkpt><trkpt lat="45.459861" lon="-88.383005"></trkpt><trkpt lat="45.459918" lon="-88.382829"></trkpt><trkpt lat="45.462318" lon="-88.380888"></trkpt><trkpt lat="45.462492" lon="-88.378593"></trkpt><trkpt lat="45.464140" lon="-88.377887"></trkpt><trkpt lat="45.465846" lon="-88.375487"></trkpt><trkpt lat="45.465672" lon="-88.374499"></trkpt><trkpt lat="45.465615" lon="-88.374499"></trkpt><trkpt lat="45.461220" lon="-88.372134"></trkpt><trkpt lat="45.460844" lon="-88.371075"></trkpt><trkpt lat="45.459716" lon="-88.370440"></trkpt><trkpt lat="45.458213" lon="-88.370722"></trkpt><trkpt lat="45.456940" lon="-88.370369"></trkpt><trkpt lat="45.456622" lon="-88.367545"></trkpt><trkpt lat="45.455466" lon="-88.364121"></trkpt><trkpt lat="45.455292" lon="-88.361968"></trkpt><trkpt lat="45.456246" lon="-88.361015"></trkpt><trkpt lat="45.455234" lon="-88.358368"></trkpt><trkpt lat="45.456564" lon="-88.354732"></trkpt><trkpt lat="45.455668" lon="-88.351908"></trkpt><trkpt lat="45.455119" lon="-88.351908"></trkpt><trkpt lat="45.455119" lon="-88.351944"></trkpt><trkpt lat="45.448151" lon="-88.362921"></trkpt><trkpt lat="45.446763" lon="-88.363486"></trkpt><trkpt lat="45.443582" lon="-88.363168"></trkpt><trkpt lat="45.443149" lon="-88.358862"></trkpt><trkpt lat="45.441182" lon="-88.357097"></trkpt><trkpt lat="45.441211" lon="-88.357062"></trkpt><trkpt lat="45.441009" lon="-88.354909"></trkpt><trkpt lat="45.425743" lon="-88.355191"></trkpt><trkpt lat="45.425743" lon="-88.355226"></trkpt><trkpt lat="45.425078" lon="-88.355685"></trkpt><trkpt lat="45.424268" lon="-88.355473"></trkpt><trkpt lat="45.422880" lon="-88.356179"></trkpt><trkpt lat="45.421695" lon="-88.356179"></trkpt><trkpt lat="45.419931" lon="-88.359109"></trkpt><trkpt lat="45.417763" lon="-88.359286"></trkpt><trkpt lat="45.417763" lon="-88.359321"></trkpt><trkpt lat="45.416433" lon="-88.358897"></trkpt><trkpt lat="45.415421" lon="-88.359356"></trkpt><trkpt lat="45.414669" lon="-88.358615"></trkpt><trkpt lat="45.414293" lon="-88.357238"></trkpt><trkpt lat="45.413339" lon="-88.356356"></trkpt><trkpt lat="45.411575" lon="-88.357415"></trkpt><trkpt lat="45.410505" lon="-88.356638"></trkpt><trkpt lat="45.410534" lon="-88.353885"></trkpt><trkpt lat="45.408250" lon="-88.351379"></trkpt><trkpt lat="45.407614" lon="-88.349791"></trkpt><trkpt lat="45.406893" lon="-88.348923"></trkpt><trkpt lat="45.406411" lon="-88.348387"></trkpt><trkpt lat="45.405420" lon="-88.347437"></trkpt><trkpt lat="45.405132" lon="-88.347214"></trkpt><trkpt lat="45.404426" lon="-88.346890"></trkpt><trkpt lat="45.402594" lon="-88.344143"></trkpt><trkpt lat="45.402274" lon="-88.342882"></trkpt><trkpt lat="45.401625" lon="-88.342033"></trkpt><trkpt lat="45.400927" lon="-88.341475"></trkpt><trkpt lat="45.400458" lon="-88.341274"></trkpt><trkpt lat="45.399900" lon="-88.341184"></trkpt><trkpt lat="45.397243" lon="-88.341871"></trkpt><trkpt lat="45.396822" lon="-88.341864"></trkpt><trkpt lat="45.396324" lon="-88.341630"></trkpt><trkpt lat="45.395689" lon="-88.342654"></trkpt><trkpt lat="45.393809" lon="-88.345010"></trkpt><trkpt lat="45.393398" lon="-88.345663"></trkpt><trkpt lat="45.392995" lon="-88.346563"></trkpt><trkpt lat="45.392726" lon="-88.347620"></trkpt><trkpt lat="45.392072" lon="-88.351808"></trkpt><trkpt lat="45.391990" lon="-88.352801"></trkpt><trkpt lat="45.391556" lon="-88.354437"></trkpt><trkpt lat="45.391255" lon="-88.355130"></trkpt><trkpt lat="45.390801" lon="-88.355881"></trkpt><trkpt lat="45.390318" lon="-88.356476"></trkpt><trkpt lat="45.389886" lon="-88.356898"></trkpt><trkpt lat="45.389366" lon="-88.357264"></trkpt><trkpt lat="45.386267" lon="-88.358501"></trkpt><trkpt lat="45.386246" lon="-88.358384"></trkpt><trkpt lat="45.389315" lon="-88.357139"></trkpt><trkpt lat="45.389852" lon="-88.356788"></trkpt><trkpt lat="45.390234" lon="-88.356397"></trkpt><trkpt lat="45.390734" lon="-88.355816"></trkpt><trkpt lat="45.391183" lon="-88.355103"></trkpt><trkpt lat="45.391479" lon="-88.354409"></trkpt><trkpt lat="45.391907" lon="-88.352781"></trkpt><trkpt lat="45.391996" lon="-88.351803"></trkpt><trkpt lat="45.392644" lon="-88.347582"></trkpt><trkpt lat="45.392892" lon="-88.346542"></trkpt><trkpt lat="45.393326" lon="-88.345605"></trkpt><trkpt lat="45.393742" lon="-88.344916"></trkpt><trkpt lat="45.395611" lon="-88.342582"></trkpt><trkpt lat="45.396297" lon="-88.341573"></trkpt><trkpt lat="45.396626" lon="-88.340710"></trkpt><trkpt lat="45.397031" lon="-88.338960"></trkpt><trkpt lat="45.397146" lon="-88.337881"></trkpt><trkpt lat="45.397118" lon="-88.337211"></trkpt><trkpt lat="45.397025" lon="-88.336571"></trkpt><trkpt lat="45.396850" lon="-88.335827"></trkpt><trkpt lat="45.396593" lon="-88.335246"></trkpt><trkpt lat="45.390246" lon="-88.327131"></trkpt><trkpt lat="45.389884" lon="-88.326216"></trkpt><trkpt lat="45.389682" lon="-88.325181"></trkpt><trkpt lat="45.389283" lon="-88.310363"></trkpt><trkpt lat="45.387779" lon="-88.306516"></trkpt><trkpt lat="45.387631" lon="-88.303435"></trkpt><trkpt lat="45.390555" lon="-88.295744"></trkpt><trkpt lat="45.391325" lon="-88.294908"></trkpt><trkpt lat="45.394661" lon="-88.294515"></trkpt><trkpt lat="45.395710" lon="-88.293592"></trkpt><trkpt lat="45.396151" lon="-88.292212"></trkpt><trkpt lat="45.395707" lon="-88.275815"></trkpt><trkpt lat="45.395392" lon="-88.264650"></trkpt><trkpt lat="45.395499" lon="-88.264653"></trkpt><trkpt lat="45.395788" lon="-88.275807"></trkpt></trkseg></trk></gpx>