<?xml version='1.0' encoding='utf-8'?>
<gpx xmlns="http://www.topografix.com/GPX/1/1" xmlns:xsi="http://www.w3.org/2001/XMLSchema-instance" version="1.1" creator="Bob's Motorcycle Trails" xsi:schemaLocation="http://www.topografix.com/GPX/1/1 http://www.topografix.com/GPX/1/1/gpx.xsd"><trk><name>T001 LO3F3F3</name><trkseg><trkpt lat="43.733227" lon="-124.185888"></trkpt><trkpt lat="43.733041" lon="-124.185567"></trkpt><trkpt lat="43.732898" lon="-124.185489"></trkpt><trkpt lat="43.732530" lon="-124.185437"></trkpt><trkpt lat="43.732454" lon="-124.185372"></trkpt><trkpt lat="43.732397" lon="-124.185239"></trkpt><trkpt lat="43.732204" lon="-124.185129"></trkpt><trkpt lat="43.731975" lon="-124.185062"></trkpt><trkpt lat="43.731796" lon="-124.184498"></trkpt><trkpt lat="43.731663" lon="-124.184354"></trkpt><trkpt lat="43.731422" lon="-124.184173"></trkpt><trkpt lat="43.731140" lon="-124.184012"></trkpt><trkpt lat="43.730943" lon="-124.183840"></trkpt><trkpt lat="43.730828" lon="-124.183667"></trkpt><trkpt lat="43.730863" lon="-124.183366"></trkpt><trkpt lat="43.731128" lon="-124.182989"></trkpt><trkpt lat="43.731106" lon="-124.182889"></trkpt><trkpt lat="43.730968" lon="-124.182755"></trkpt><trkpt lat="43.730825" lon="-124.182686"></trkpt><trkpt lat="43.730739" lon="-124.182272"></trkpt><trkpt lat="43.730438" lon="-124.182212"></trkpt><trkpt lat="43.730345" lon="-124.182062"></trkpt><trkpt lat="43.730177" lon="-124.181719"></trkpt><trkpt lat="43.730122" lon="-124.180981"></trkpt><trkpt lat="43.729960" lon="-124.180543"></trkpt><trkpt lat="43.729610" lon="-124.179984"></trkpt><trkpt lat="43.729157" lon="-124.179373"></trkpt><trkpt lat="43.728827" lon="-124.179035"></trkpt><trkpt lat="43.728621" lon="-124.178974"></trkpt><trkpt lat="43.728404" lon="-124.179029"></trkpt><trkpt lat="43.728051" lon="-124.179197"></trkpt><trkpt lat="43.727576" lon="-124.179008"></trkpt><trkpt lat="43.726959" lon="-124.179040"></trkpt><trkpt lat="43.726645" lon="-124.178930"></trkpt><trkpt lat="43.726426" lon="-124.178787"></trkpt><trkpt lat="43.726132" lon="-124.178504"></trkpt><trkpt lat="43.725678" lon="-124.177955"></trkpt><trkpt lat="43.725241" lon="-124.177095"></trkpt><trkpt lat="43.725104" lon="-124.176920"></trkpt><trkpt lat="43.724853" lon="-124.176754"></trkpt><trkpt lat="43.724503" lon="-124.176619"></trkpt><trkpt lat="43.724343" lon="-124.176503"></trkpt><trkpt lat="43.724191" lon="-124.176319"></trkpt><trkpt lat="43.724046" lon="-124.175955"></trkpt><trkpt lat="43.723755" lon="-124.175006"></trkpt><trkpt lat="43.723708" lon="-124.174715"></trkpt><trkpt lat="43.723734" lon="-124.174384"></trkpt><trkpt lat="43.723579" lon="-124.173299"></trkpt><trkpt lat="43.723604" lon="-124.173050"></trkpt><trkpt lat="43.723775" lon="-124.172565"></trkpt></trkseg></trk><trk><name>T002 LO3F3F3</name><trkseg><trkpt lat="43.947404" lon="-124.124559"></trkpt><trkpt lat="43.947206" lon="-124.124626"></trkpt><trkpt lat="43.947010" lon="-124.124650"></trkpt><trkpt lat="43.946300" lon="-124.124585"></trkpt><trkpt lat="43.945422" lon="-124.124731"></trkpt><trkpt lat="43.944974" lon="-124.124885"></trkpt><trkpt lat="43.944696" lon="-124.125092"></trkpt><trkpt lat="43.944551" lon="-124.125310"></trkpt><trkpt lat="43.944277" lon="-124.125490"></trkpt><trkpt lat="43.943547" lon="-124.126079"></trkpt><trkpt lat="43.943473" lon="-124.126216"></trkpt><trkpt lat="43.943295" lon="-124.126378"></trkpt><trkpt lat="43.942980" lon="-124.126477"></trkpt><trkpt lat="43.942867" lon="-124.126476"></trkpt><trkpt lat="43.942382" lon="-124.126959"></trkpt></trkseg></trk><trk><name>T003 LO3F3F3</name><trkseg><trkpt lat="43.955799" lon="-124.142089"></trkpt><trkpt lat="43.954055" lon="-124.142342"></trkpt><trkpt lat="43.953869" lon="-124.142490"></trkpt><trkpt lat="43.953468" lon="-124.142516"></trkpt><trkpt lat="43.952904" lon="-124.142623"></trkpt><trkpt lat="43.952756" lon="-124.142546"></trkpt><trkpt lat="43.952542" lon="-124.142330"></trkpt><trkpt lat="43.952255" lon="-124.142274"></trkpt><trkpt lat="43.951269" lon="-124.142272"></trkpt><trkpt lat="43.951134" lon="-124.142185"></trkpt><trkpt lat="43.950805" lon="-124.142263"></trkpt><trkpt lat="43.950717" lon="-124.142514"></trkpt><trkpt lat="43.950751" lon="-124.142751"></trkpt><trkpt lat="43.950682" lon="-124.142842"></trkpt><trkpt lat="43.950642" lon="-124.142848"></trkpt><trkpt lat="43.950223" lon="-124.142822"></trkpt><trkpt lat="43.949685" lon="-124.142593"></trkpt><trkpt lat="43.948821" lon="-124.142559"></trkpt><trkpt lat="43.947981" lon="-124.142361"></trkpt><trkpt lat="43.947611" lon="-124.142499"></trkpt><trkpt lat="43.947463" lon="-124.142896"></trkpt><trkpt lat="43.947434" lon="-124.143113"></trkpt><trkpt lat="43.947262" lon="-124.143129"></trkpt><trkpt lat="43.947042" lon="-124.143070"></trkpt><trkpt lat="43.946870" lon="-124.143212"></trkpt><trkpt lat="43.946683" lon="-124.143426"></trkpt><trkpt lat="43.946423" lon="-124.143330"></trkpt><trkpt lat="43.945662" lon="-124.143389"></trkpt><trkpt lat="43.945408" lon="-124.143493"></trkpt><trkpt lat="43.945316" lon="-124.143763"></trkpt><trkpt lat="43.945314" lon="-124.143963"></trkpt><trkpt lat="43.945023" lon="-124.144267"></trkpt><trkpt lat="43.944796" lon="-124.144390"></trkpt><trkpt lat="43.944323" lon="-124.144435"></trkpt><trkpt lat="43.943917" lon="-124.144518"></trkpt><trkpt lat="43.943235" lon="-124.144305"></trkpt><trkpt lat="43.942907" lon="-124.144281"></trkpt><trkpt lat="43.942198" lon="-124.143958"></trkpt><trkpt lat="43.941742" lon="-124.143641"></trkpt><trkpt lat="43.941557" lon="-124.143710"></trkpt><trkpt lat="43.941424" lon="-124.143962"></trkpt><trkpt lat="43.941293" lon="-124.144050"></trkpt><trkpt lat="43.941033" lon="-124.143881"></trkpt><trkpt lat="43.940519" lon="-124.144017"></trkpt><trkpt lat="43.940190" lon="-124.144065"></trkpt><trkpt lat="43.939858" lon="-124.144404"></trkpt><trkpt lat="43.939328" lon="-124.144707"></trkpt><trkpt lat="43.939003" lon="-124.144758"></trkpt><trkpt lat="43.938333" lon="-124.144722"></trkpt><trkpt lat="43.937791" lon="-124.144843"></trkpt><trkpt lat="43.936971" lon="-124.144959"></trkpt><trkpt lat="43.936686" lon="-124.145124"></trkpt><trkpt lat="43.936609" lon="-124.145136"></trkpt><trkpt lat="43.936164" lon="-124.145053"></trkpt><trkpt lat="43.935956" lon="-124.145136"></trkpt><trkpt lat="43.935718" lon="-124.145131"></trkpt><trkpt lat="43.935359" lon="-124.144971"></trkpt><trkpt lat="43.935215" lon="-124.144990"></trkpt><trkpt lat="43.934973" lon="-124.145314"></trkpt><trkpt lat="43.934325" lon="-124.145302"></trkpt><trkpt lat="43.934152" lon="-124.145451"></trkpt><trkpt lat="43.933958" lon="-124.145553"></trkpt><trkpt lat="43.932560" lon="-124.145774"></trkpt><trkpt lat="43.932205" lon="-124.145676"></trkpt><trkpt lat="43.931921" lon="-124.145693"></trkpt><trkpt lat="43.931505" lon="-124.145940"></trkpt><trkpt lat="43.931378" lon="-124.145960"></trkpt><trkpt lat="43.931125" lon="-124.146071"></trkpt><trkpt lat="43.930899" lon="-124.146614"></trkpt><trkpt lat="43.930015" lon="-124.146750"></trkpt><trkpt lat="43.929527" lon="-124.146543"></trkpt><trkpt lat="43.929133" lon="-124.146314"></trkpt><trkpt lat="43.928187" lon="-124.145905"></trkpt><trkpt lat="43.927556" lon="-124.145981"></trkpt><trkpt lat="43.926511" lon="-124.146048"></trkpt><trkpt lat="43.925692" lon="-124.146032"></trkpt><trkpt lat="43.925051" lon="-124.146632"></trkpt><trkpt lat="43.924673" lon="-124.146581"></trkpt><trkpt lat="43.924297" lon="-124.146356"></trkpt><trkpt lat="43.923343" lon="-124.146818"></trkpt><trkpt lat="43.923123" lon="-124.146727"></trkpt><trkpt lat="43.922329" lon="-124.146886"></trkpt><trkpt lat="43.921674" lon="-124.147139"></trkpt><trkpt lat="43.921097" lon="-124.147168"></trkpt><trkpt lat="43.920460" lon="-124.147418"></trkpt><trkpt lat="43.920124" lon="-124.147733"></trkpt><trkpt lat="43.919700" lon="-124.147798"></trkpt><trkpt lat="43.919100" lon="-124.147523"></trkpt><trkpt lat="43.917423" lon="-124.147666"></trkpt><trkpt lat="43.916726" lon="-124.148090"></trkpt><trkpt lat="43.915146" lon="-124.148016"></trkpt><trkpt lat="43.914288" lon="-124.148306"></trkpt><trkpt lat="43.913680" lon="-124.148754"></trkpt><trkpt lat="43.913052" lon="-124.148544"></trkpt><trkpt lat="43.912327" lon="-124.148618"></trkpt><trkpt lat="43.911689" lon="-124.148911"></trkpt><trkpt lat="43.911152" lon="-124.149076"></trkpt><trkpt lat="43.910076" lon="-124.149055"></trkpt><trkpt lat="43.909063" lon="-124.149080"></trkpt><trkpt lat="43.908271" lon="-124.149414"></trkpt><trkpt lat="43.907604" lon="-124.149532"></trkpt><trkpt lat="43.906754" lon="-124.149429"></trkpt><trkpt lat="43.905740" lon="-124.149584"></trkpt><trkpt lat="43.905328" lon="-124.149795"></trkpt><trkpt lat="43.904728" lon="-124.149958"></trkpt><trkpt lat="43.903946" lon="-124.150273"></trkpt><trkpt lat="43.903335" lon="-124.150106"></trkpt><trkpt lat="43.902794" lon="-124.150227"></trkpt><trkpt lat="43.902226" lon="-124.150216"></trkpt><trkpt lat="43.901621" lon="-124.150466"></trkpt><trkpt lat="43.901326" lon="-124.150693"></trkpt><trkpt lat="43.899752" lon="-124.150941"></trkpt><trkpt lat="43.899277" lon="-124.151208"></trkpt><trkpt lat="43.898262" lon="-124.151363"></trkpt><trkpt lat="43.896712" lon="-124.151508"></trkpt><trkpt lat="43.895827" lon="-124.151754"></trkpt><trkpt lat="43.895034" lon="-124.151869"></trkpt><trkpt lat="43.894623" lon="-124.151993"></trkpt><trkpt lat="43.894111" lon="-124.152289"></trkpt><trkpt lat="43.893200" lon="-124.152053"></trkpt><trkpt lat="43.892749" lon="-124.152044"></trkpt><trkpt lat="43.886545" lon="-124.153020"></trkpt><trkpt lat="43.885320" lon="-124.153037"></trkpt><trkpt lat="43.884958" lon="-124.153208"></trkpt><trkpt lat="43.884492" lon="-124.153490"></trkpt><trkpt lat="43.884235" lon="-124.153518"></trkpt><trkpt lat="43.884096" lon="-124.153471"></trkpt><trkpt lat="43.883929" lon="-124.153546"></trkpt><trkpt lat="43.883473" lon="-124.153627"></trkpt><trkpt lat="43.883266" lon="-124.153634"></trkpt><trkpt lat="43.883145" lon="-124.153564"></trkpt></trkseg></trk><trk><name>T004 LO3F3F3</name><trkseg><trkpt lat="43.956906" lon="-124.121251"></trkpt><trkpt lat="43.956782" lon="-124.121525"></trkpt><trkpt lat="43.956664" lon="-124.121565"></trkpt><trkpt lat="43.956533" lon="-124.121666"></trkpt><trkpt lat="43.956491" lon="-124.121805"></trkpt><trkpt lat="43.956444" lon="-124.122449"></trkpt><trkpt lat="43.956403" lon="-124.122554"></trkpt><trkpt lat="43.956419" lon="-124.123618"></trkpt><trkpt lat="43.956547" lon="-124.123894"></trkpt><trkpt lat="43.956995" lon="-124.124586"></trkpt><trkpt lat="43.957180" lon="-124.125024"></trkpt><trkpt lat="43.957346" lon="-124.125940"></trkpt><trkpt lat="43.957292" lon="-124.126418"></trkpt><trkpt lat="43.957025" lon="-124.126587"></trkpt><trkpt lat="43.956391" lon="-124.126879"></trkpt><trkpt lat="43.956186" lon="-124.127179"></trkpt><trkpt lat="43.955901" lon="-124.127326"></trkpt><trkpt lat="43.955273" lon="-124.127510"></trkpt><trkpt lat="43.954562" lon="-124.127931"></trkpt><trkpt lat="43.954476" lon="-124.128473"></trkpt><trkpt lat="43.954345" lon="-124.128949"></trkpt><trkpt lat="43.953810" lon="-124.129330"></trkpt><trkpt lat="43.953854" lon="-124.129504"></trkpt><trkpt lat="43.954324" lon="-124.129709"></trkpt><trkpt lat="43.954464" lon="-124.129646"></trkpt><trkpt lat="43.954856" lon="-124.129610"></trkpt><trkpt lat="43.955124" lon="-124.129833"></trkpt><trkpt lat="43.955227" lon="-124.130357"></trkpt><trkpt lat="43.955332" lon="-124.131607"></trkpt><trkpt lat="43.955274" lon="-124.132493"></trkpt><trkpt lat="43.955286" lon="-124.133064"></trkpt><trkpt lat="43.955353" lon="-124.133597"></trkpt><trkpt lat="43.955443" lon="-124.134936"></trkpt><trkpt lat="43.955369" lon="-124.135141"></trkpt><trkpt lat="43.955512" lon="-124.135676"></trkpt><trkpt lat="43.955591" lon="-124.136384"></trkpt><trkpt lat="43.955752" lon="-124.139663"></trkpt><trkpt lat="43.955832" lon="-124.140189"></trkpt><trkpt lat="43.955703" lon="-124.140872"></trkpt><trkpt lat="43.955711" lon="-124.141454"></trkpt><trkpt lat="43.955800" lon="-124.142001"></trkpt><trkpt lat="43.955797" lon="-124.142292"></trkpt><trkpt lat="43.955590" lon="-124.142767"></trkpt><trkpt lat="43.955635" lon="-124.142762"></trkpt></trkseg></trk><trk><name>T005 LO3F3F3</name><trkseg><trkpt lat="43.566795" lon="-124.216585"></trkpt><trkpt lat="43.566713" lon="-124.216724"></trkpt><trkpt lat="43.566367" lon="-124.217050"></trkpt><trkpt lat="43.565918" lon="-124.217385"></trkpt><trkpt lat="43.565713" lon="-124.217645"></trkpt><trkpt lat="43.565579" lon="-124.217893"></trkpt><trkpt lat="43.565416" lon="-124.218405"></trkpt><trkpt lat="43.565413" lon="-124.218707"></trkpt><trkpt lat="43.565517" lon="-124.219544"></trkpt><trkpt lat="43.565483" lon="-124.219730"></trkpt><trkpt lat="43.565355" lon="-124.219957"></trkpt><trkpt lat="43.565045" lon="-124.220285"></trkpt><trkpt lat="43.564894" lon="-124.220510"></trkpt><trkpt lat="43.564678" lon="-124.220950"></trkpt><trkpt lat="43.564349" lon="-124.221791"></trkpt><trkpt lat="43.563699" lon="-124.223202"></trkpt><trkpt lat="43.563370" lon="-124.223658"></trkpt><trkpt lat="43.562895" lon="-124.223938"></trkpt><trkpt lat="43.562724" lon="-124.223928"></trkpt><trkpt lat="43.562549" lon="-124.223849"></trkpt><trkpt lat="43.562295" lon="-124.223569"></trkpt><trkpt lat="43.562161" lon="-124.223500"></trkpt><trkpt lat="43.562039" lon="-124.223561"></trkpt><trkpt lat="43.561933" lon="-124.223729"></trkpt><trkpt lat="43.561886" lon="-124.223982"></trkpt><trkpt lat="43.561870" lon="-124.224562"></trkpt><trkpt lat="43.561814" lon="-124.224733"></trkpt><trkpt lat="43.561404" lon="-124.225206"></trkpt><trkpt lat="43.561036" lon="-124.225969"></trkpt><trkpt lat="43.560524" lon="-124.226255"></trkpt><trkpt lat="43.560137" lon="-124.226247"></trkpt><trkpt lat="43.559598" lon="-124.226153"></trkpt><trkpt lat="43.559178" lon="-124.226234"></trkpt><trkpt lat="43.558133" lon="-124.227136"></trkpt><trkpt lat="43.557362" lon="-124.227648"></trkpt><trkpt lat="43.557071" lon="-124.227895"></trkpt><trkpt lat="43.556916" lon="-124.228074"></trkpt><trkpt lat="43.556806" lon="-124.228309"></trkpt><trkpt lat="43.556698" lon="-124.228672"></trkpt><trkpt lat="43.556685" lon="-124.229027"></trkpt><trkpt lat="43.556738" lon="-124.229623"></trkpt><trkpt lat="43.556564" lon="-124.229816"></trkpt><trkpt lat="43.556495" lon="-124.229993"></trkpt><trkpt lat="43.556348" lon="-124.230649"></trkpt><trkpt lat="43.556151" lon="-124.230976"></trkpt><trkpt lat="43.555172" lon="-124.232050"></trkpt><trkpt lat="43.554843" lon="-124.232520"></trkpt><trkpt lat="43.554640" lon="-124.232900"></trkpt><trkpt lat="43.554409" lon="-124.233105"></trkpt><trkpt lat="43.553812" lon="-124.233355"></trkpt><trkpt lat="43.553657" lon="-124.233490"></trkpt><trkpt lat="43.553305" lon="-124.233996"></trkpt><trkpt lat="43.553059" lon="-124.234261"></trkpt><trkpt lat="43.552688" lon="-124.234427"></trkpt><trkpt lat="43.552528" lon="-124.234606"></trkpt><trkpt lat="43.552345" lon="-124.234919"></trkpt><trkpt lat="43.551828" lon="-124.235273"></trkpt><trkpt lat="43.550912" lon="-124.235466"></trkpt><trkpt lat="43.550622" lon="-124.235629"></trkpt><trkpt lat="43.550145" lon="-124.236000"></trkpt><trkpt lat="43.549916" lon="-124.235994"></trkpt><trkpt lat="43.549597" lon="-124.235929"></trkpt><trkpt lat="43.549439" lon="-124.235965"></trkpt><trkpt lat="43.549122" lon="-124.236104"></trkpt><trkpt lat="43.548803" lon="-124.236069"></trkpt><trkpt lat="43.548599" lon="-124.236155"></trkpt><trkpt lat="43.548363" lon="-124.236329"></trkpt><trkpt lat="43.548174" lon="-124.236385"></trkpt><trkpt lat="43.547985" lon="-124.236344"></trkpt><trkpt lat="43.547787" lon="-124.236369"></trkpt><trkpt lat="43.547600" lon="-124.236517"></trkpt><trkpt lat="43.547384" lon="-124.236571"></trkpt><trkpt lat="43.547213" lon="-124.236553"></trkpt><trkpt lat="43.547136" lon="-124.236601"></trkpt><trkpt lat="43.546962" lon="-124.236817"></trkpt><trkpt lat="43.546750" lon="-124.236842"></trkpt><trkpt lat="43.546524" lon="-124.236971"></trkpt><trkpt lat="43.546357" lon="-124.237007"></trkpt><trkpt lat="43.546146" lon="-124.236994"></trkpt><trkpt lat="43.545372" lon="-124.237354"></trkpt><trkpt lat="43.544946" lon="-124.237592"></trkpt><trkpt lat="43.544607" lon="-124.237722"></trkpt><trkpt lat="43.544319" lon="-124.237705"></trkpt><trkpt lat="43.543943" lon="-124.237885"></trkpt><trkpt lat="43.543655" lon="-124.237943"></trkpt><trkpt lat="43.543389" lon="-124.237942"></trkpt><trkpt lat="43.543186" lon="-124.238013"></trkpt><trkpt lat="43.542873" lon="-124.238205"></trkpt><trkpt lat="43.542235" lon="-124.238467"></trkpt><trkpt lat="43.541978" lon="-124.238535"></trkpt><trkpt lat="43.539641" lon="-124.239380"></trkpt><trkpt lat="43.539253" lon="-124.239478"></trkpt><trkpt lat="43.538773" lon="-124.239743"></trkpt><trkpt lat="43.538440" lon="-124.239699"></trkpt><trkpt lat="43.538215" lon="-124.239731"></trkpt><trkpt lat="43.537907" lon="-124.239833"></trkpt><trkpt lat="43.537667" lon="-124.239947"></trkpt><trkpt lat="43.537327" lon="-124.240182"></trkpt><trkpt lat="43.537036" lon="-124.240497"></trkpt><trkpt lat="43.536882" lon="-124.240555"></trkpt><trkpt lat="43.536224" lon="-124.240598"></trkpt><trkpt lat="43.535863" lon="-124.240711"></trkpt><trkpt lat="43.535374" lon="-124.240969"></trkpt><trkpt lat="43.535089" lon="-124.241079"></trkpt><trkpt lat="43.534557" lon="-124.241130"></trkpt><trkpt lat="43.534199" lon="-124.241357"></trkpt><trkpt lat="43.533843" lon="-124.241425"></trkpt><trkpt lat="43.533670" lon="-124.241528"></trkpt><trkpt lat="43.533402" lon="-124.241776"></trkpt><trkpt lat="43.533253" lon="-124.241842"></trkpt><trkpt lat="43.533089" lon="-124.242036"></trkpt><trkpt lat="43.532957" lon="-124.242103"></trkpt><trkpt lat="43.532651" lon="-124.242099"></trkpt><trkpt lat="43.532344" lon="-124.242149"></trkpt><trkpt lat="43.532026" lon="-124.242083"></trkpt><trkpt lat="43.531773" lon="-124.242114"></trkpt><trkpt lat="43.531623" lon="-124.242210"></trkpt><trkpt lat="43.531327" lon="-124.242584"></trkpt><trkpt lat="43.531182" lon="-124.242659"></trkpt><trkpt lat="43.530930" lon="-124.242628"></trkpt><trkpt lat="43.530586" lon="-124.242396"></trkpt><trkpt lat="43.530308" lon="-124.242326"></trkpt><trkpt lat="43.530123" lon="-124.242329"></trkpt><trkpt lat="43.529879" lon="-124.242420"></trkpt><trkpt lat="43.529344" lon="-124.242757"></trkpt><trkpt lat="43.528807" lon="-124.242860"></trkpt><trkpt lat="43.528653" lon="-124.242979"></trkpt><trkpt lat="43.528307" lon="-124.243751"></trkpt><trkpt lat="43.528138" lon="-124.243944"></trkpt><trkpt lat="43.527957" lon="-124.244016"></trkpt><trkpt lat="43.527804" lon="-124.244029"></trkpt><trkpt lat="43.527201" lon="-124.243954"></trkpt><trkpt lat="43.526712" lon="-124.244196"></trkpt><trkpt lat="43.526217" lon="-124.244248"></trkpt><trkpt lat="43.525809" lon="-124.244518"></trkpt><trkpt lat="43.525322" lon="-124.244586"></trkpt><trkpt lat="43.525095" lon="-124.244716"></trkpt><trkpt lat="43.524689" lon="-124.245211"></trkpt><trkpt lat="43.524426" lon="-124.245384"></trkpt><trkpt lat="43.523632" lon="-124.245531"></trkpt><trkpt lat="43.523192" lon="-124.245813"></trkpt><trkpt lat="43.523070" lon="-124.245851"></trkpt><trkpt lat="43.522778" lon="-124.245826"></trkpt><trkpt lat="43.522533" lon="-124.245939"></trkpt><trkpt lat="43.522361" lon="-124.246065"></trkpt><trkpt lat="43.522216" lon="-124.246108"></trkpt><trkpt lat="43.521838" lon="-124.246145"></trkpt><trkpt lat="43.521530" lon="-124.246263"></trkpt><trkpt lat="43.521288" lon="-124.246225"></trkpt><trkpt lat="43.521039" lon="-124.246368"></trkpt><trkpt lat="43.520755" lon="-124.246373"></trkpt><trkpt lat="43.520262" lon="-124.246947"></trkpt><trkpt lat="43.520086" lon="-124.247057"></trkpt><trkpt lat="43.519797" lon="-124.247061"></trkpt><trkpt lat="43.519489" lon="-124.247224"></trkpt><trkpt lat="43.519394" lon="-124.247316"></trkpt><trkpt lat="43.518961" lon="-124.247403"></trkpt><trkpt lat="43.518838" lon="-124.247493"></trkpt><trkpt lat="43.518644" lon="-124.247556"></trkpt><trkpt lat="43.518334" lon="-124.247455"></trkpt><trkpt lat="43.518217" lon="-124.247470"></trkpt><trkpt lat="43.517954" lon="-124.247627"></trkpt><trkpt lat="43.517434" lon="-124.247837"></trkpt><trkpt lat="43.517298" lon="-124.247942"></trkpt><trkpt lat="43.517134" lon="-124.248159"></trkpt><trkpt lat="43.517020" lon="-124.248227"></trkpt><trkpt lat="43.516703" lon="-124.248034"></trkpt><trkpt lat="43.516604" lon="-124.248012"></trkpt><trkpt lat="43.516500" lon="-124.248037"></trkpt><trkpt lat="43.516229" lon="-124.248170"></trkpt><trkpt lat="43.516073" lon="-124.248357"></trkpt><trkpt lat="43.515575" lon="-124.248644"></trkpt><trkpt lat="43.515157" lon="-124.249041"></trkpt><trkpt lat="43.514962" lon="-124.249149"></trkpt><trkpt lat="43.513540" lon="-124.249432"></trkpt><trkpt lat="43.513003" lon="-124.249587"></trkpt><trkpt lat="43.512541" lon="-124.249853"></trkpt><trkpt lat="43.512377" lon="-124.250002"></trkpt><trkpt lat="43.512272" lon="-124.250176"></trkpt><trkpt lat="43.512172" lon="-124.250268"></trkpt><trkpt lat="43.511668" lon="-124.250177"></trkpt><trkpt lat="43.511265" lon="-124.250424"></trkpt><trkpt lat="43.510859" lon="-124.250542"></trkpt><trkpt lat="43.510419" lon="-124.250809"></trkpt><trkpt lat="43.510036" lon="-124.250831"></trkpt><trkpt lat="43.509728" lon="-124.251009"></trkpt><trkpt lat="43.509314" lon="-124.250960"></trkpt><trkpt lat="43.509020" lon="-124.251108"></trkpt><trkpt lat="43.508835" lon="-124.251127"></trkpt><trkpt lat="43.508423" lon="-124.250935"></trkpt><trkpt lat="43.508315" lon="-124.250929"></trkpt><trkpt lat="43.508152" lon="-124.250995"></trkpt><trkpt lat="43.507885" lon="-124.251182"></trkpt><trkpt lat="43.507566" lon="-124.251464"></trkpt><trkpt lat="43.507073" lon="-124.252113"></trkpt><trkpt lat="43.506820" lon="-124.252218"></trkpt><trkpt lat="43.506532" lon="-124.252193"></trkpt><trkpt lat="43.506311" lon="-124.252209"></trkpt><trkpt lat="43.506103" lon="-124.252287"></trkpt><trkpt lat="43.505526" lon="-124.252734"></trkpt><trkpt lat="43.505069" lon="-124.252940"></trkpt><trkpt lat="43.504573" lon="-124.253061"></trkpt><trkpt lat="43.504274" lon="-124.253201"></trkpt><trkpt lat="43.503730" lon="-124.253605"></trkpt><trkpt lat="43.503421" lon="-124.253775"></trkpt><trkpt lat="43.502562" lon="-124.254136"></trkpt><trkpt lat="43.502112" lon="-124.254562"></trkpt><trkpt lat="43.501971" lon="-124.254628"></trkpt><trkpt lat="43.501594" lon="-124.254552"></trkpt><trkpt lat="43.501364" lon="-124.254568"></trkpt><trkpt lat="43.501052" lon="-124.254677"></trkpt><trkpt lat="43.500772" lon="-124.254826"></trkpt><trkpt lat="43.500367" lon="-124.255193"></trkpt><trkpt lat="43.500227" lon="-124.255207"></trkpt><trkpt lat="43.500062" lon="-124.255069"></trkpt><trkpt lat="43.499958" lon="-124.255093"></trkpt><trkpt lat="43.499804" lon="-124.255182"></trkpt><trkpt lat="43.499731" lon="-124.255298"></trkpt><trkpt lat="43.499097" lon="-124.255643"></trkpt><trkpt lat="43.498741" lon="-124.255705"></trkpt><trkpt lat="43.497672" lon="-124.256208"></trkpt><trkpt lat="43.496819" lon="-124.256420"></trkpt><trkpt lat="43.496357" lon="-124.256686"></trkpt><trkpt lat="43.496053" lon="-124.256923"></trkpt><trkpt lat="43.495574" lon="-124.257090"></trkpt><trkpt lat="43.495228" lon="-124.257378"></trkpt><trkpt lat="43.495016" lon="-124.257470"></trkpt><trkpt lat="43.494469" lon="-124.257618"></trkpt><trkpt lat="43.494056" lon="-124.257924"></trkpt><trkpt lat="43.493767" lon="-124.258073"></trkpt><trkpt lat="43.493044" lon="-124.258292"></trkpt><trkpt lat="43.492478" lon="-124.258552"></trkpt><trkpt lat="43.492208" lon="-124.258558"></trkpt><trkpt lat="43.491960" lon="-124.258610"></trkpt><trkpt lat="43.491357" lon="-124.258957"></trkpt><trkpt lat="43.490938" lon="-124.259022"></trkpt><trkpt lat="43.490402" lon="-124.259397"></trkpt><trkpt lat="43.489471" lon="-124.259731"></trkpt><trkpt lat="43.488437" lon="-124.260030"></trkpt><trkpt lat="43.487948" lon="-124.260317"></trkpt><trkpt lat="43.487794" lon="-124.260375"></trkpt><trkpt lat="43.487037" lon="-124.260456"></trkpt><trkpt lat="43.486652" lon="-124.260599"></trkpt><trkpt lat="43.486271" lon="-124.260861"></trkpt><trkpt lat="43.485816" lon="-124.261294"></trkpt><trkpt lat="43.485219" lon="-124.261566"></trkpt><trkpt lat="43.485093" lon="-124.261596"></trkpt><trkpt lat="43.484742" lon="-124.261582"></trkpt><trkpt lat="43.484210" lon="-124.261632"></trkpt><trkpt lat="43.483996" lon="-124.261793"></trkpt><trkpt lat="43.483668" lon="-124.262134"></trkpt><trkpt lat="43.483360" lon="-124.262296"></trkpt><trkpt lat="43.482982" lon="-124.262363"></trkpt><trkpt lat="43.481887" lon="-124.262787"></trkpt><trkpt lat="43.481615" lon="-124.262973"></trkpt><trkpt lat="43.481287" lon="-124.263300"></trkpt><trkpt lat="43.480812" lon="-124.263580"></trkpt><trkpt lat="43.480203" lon="-124.263670"></trkpt><trkpt lat="43.480021" lon="-124.263818"></trkpt><trkpt lat="43.479645" lon="-124.263998"></trkpt><trkpt lat="43.479473" lon="-124.264138"></trkpt><trkpt lat="43.479278" lon="-124.264232"></trkpt><trkpt lat="43.479102" lon="-124.264274"></trkpt><trkpt lat="43.478733" lon="-124.264221"></trkpt><trkpt lat="43.478625" lon="-124.264244"></trkpt><trkpt lat="43.478421" lon="-124.264391"></trkpt><trkpt lat="43.477970" lon="-124.264837"></trkpt><trkpt lat="43.477156" lon="-124.265202"></trkpt><trkpt lat="43.476193" lon="-124.265580"></trkpt><trkpt lat="43.475670" lon="-124.266016"></trkpt><trkpt lat="43.475521" lon="-124.266089"></trkpt><trkpt lat="43.474922" lon="-124.266128"></trkpt><trkpt lat="43.474397" lon="-124.266363"></trkpt><trkpt lat="43.474011" lon="-124.266633"></trkpt><trkpt lat="43.473496" lon="-124.266775"></trkpt><trkpt lat="43.472890" lon="-124.267062"></trkpt><trkpt lat="43.472614" lon="-124.267143"></trkpt><trkpt lat="43.472359" lon="-124.267429"></trkpt><trkpt lat="43.472236" lon="-124.267520"></trkpt><trkpt lat="43.471634" lon="-124.267799"></trkpt><trkpt lat="43.471442" lon="-124.268111"></trkpt><trkpt lat="43.471346" lon="-124.268196"></trkpt><trkpt lat="43.471188" lon="-124.268239"></trkpt><trkpt lat="43.471022" lon="-124.268228"></trkpt><trkpt lat="43.470760" lon="-124.268265"></trkpt><trkpt lat="43.470508" lon="-124.268325"></trkpt><trkpt lat="43.469743" lon="-124.268610"></trkpt><trkpt lat="43.469481" lon="-124.268745"></trkpt><trkpt lat="43.468728" lon="-124.269264"></trkpt><trkpt lat="43.468543" lon="-124.269312"></trkpt><trkpt lat="43.468227" lon="-124.269330"></trkpt><trkpt lat="43.467880" lon="-124.269414"></trkpt><trkpt lat="43.467010" lon="-124.269896"></trkpt><trkpt lat="43.466873" lon="-124.270062"></trkpt><trkpt lat="43.466502" lon="-124.270257"></trkpt><trkpt lat="43.466393" lon="-124.270296"></trkpt><trkpt lat="43.466064" lon="-124.270328"></trkpt><trkpt lat="43.465951" lon="-124.270419"></trkpt><trkpt lat="43.465730" lon="-124.270857"></trkpt><trkpt lat="43.465666" lon="-124.270892"></trkpt><trkpt lat="43.465378" lon="-124.270896"></trkpt><trkpt lat="43.465094" lon="-124.270947"></trkpt><trkpt lat="43.464672" lon="-124.271253"></trkpt><trkpt lat="43.464482" lon="-124.271339"></trkpt><trkpt lat="43.464319" lon="-124.271389"></trkpt><trkpt lat="43.463796" lon="-124.271440"></trkpt><trkpt lat="43.463448" lon="-124.271606"></trkpt><trkpt lat="43.462910" lon="-124.271732"></trkpt><trkpt lat="43.462499" lon="-124.271864"></trkpt><trkpt lat="43.462268" lon="-124.272023"></trkpt><trkpt lat="43.462085" lon="-124.272292"></trkpt><trkpt lat="43.461921" lon="-124.272440"></trkpt><trkpt lat="43.461605" lon="-124.272556"></trkpt><trkpt lat="43.461129" lon="-124.272843"></trkpt><trkpt lat="43.459947" lon="-124.273419"></trkpt><trkpt lat="43.459761" lon="-124.273588"></trkpt><trkpt lat="43.459412" lon="-124.273785"></trkpt><trkpt lat="43.458708" lon="-124.273967"></trkpt><trkpt lat="43.458371" lon="-124.274256"></trkpt><trkpt lat="43.458293" lon="-124.274364"></trkpt><trkpt lat="43.458135" lon="-124.274460"></trkpt><trkpt lat="43.457258" lon="-124.274775"></trkpt><trkpt lat="43.456814" lon="-124.275012"></trkpt><trkpt lat="43.455782" lon="-124.275476"></trkpt><trkpt lat="43.455306" lon="-124.275756"></trkpt><trkpt lat="43.455171" lon="-124.275784"></trkpt><trkpt lat="43.454641" lon="-124.276114"></trkpt><trkpt lat="43.454049" lon="-124.276269"></trkpt></trkseg></trk><trk><name>T006 LO3F3F3</name><trkseg><trkpt lat="43.570006" lon="-124.205459"></trkpt><trkpt lat="43.569634" lon="-124.205707"></trkpt><trkpt lat="43.569529" lon="-124.205858"></trkpt><trkpt lat="43.569469" lon="-124.206044"></trkpt><trkpt lat="43.569381" lon="-124.206650"></trkpt><trkpt lat="43.569325" lon="-124.206828"></trkpt><trkpt lat="43.569584" lon="-124.207090"></trkpt><trkpt lat="43.569934" lon="-124.207131"></trkpt><trkpt lat="43.570329" lon="-124.207276"></trkpt><trkpt lat="43.570651" lon="-124.207522"></trkpt><trkpt lat="43.570875" lon="-124.207595"></trkpt><trkpt lat="43.571049" lon="-124.207770"></trkpt><trkpt lat="43.571168" lon="-124.207978"></trkpt><trkpt lat="43.571262" lon="-124.208460"></trkpt><trkpt lat="43.571687" lon="-124.208743"></trkpt><trkpt lat="43.572512" lon="-124.209448"></trkpt><trkpt lat="43.572636" lon="-124.209614"></trkpt><trkpt lat="43.573011" lon="-124.209931"></trkpt><trkpt lat="43.573197" lon="-124.210230"></trkpt><trkpt lat="43.573267" lon="-124.210460"></trkpt><trkpt lat="43.573333" lon="-124.211424"></trkpt><trkpt lat="43.573560" lon="-124.212560"></trkpt><trkpt lat="43.573526" lon="-124.212735"></trkpt><trkpt lat="43.573407" lon="-124.212925"></trkpt><trkpt lat="43.573004" lon="-124.213172"></trkpt><trkpt lat="43.572685" lon="-124.213515"></trkpt><trkpt lat="43.572531" lon="-124.213634"></trkpt><trkpt lat="43.571979" lon="-124.213887"></trkpt><trkpt lat="43.571834" lon="-124.213939"></trkpt><trkpt lat="43.571559" lon="-124.213975"></trkpt><trkpt lat="43.570821" lon="-124.213976"></trkpt><trkpt lat="43.570555" lon="-124.214004"></trkpt><trkpt lat="43.570455" lon="-124.214067"></trkpt><trkpt lat="43.570301" lon="-124.214193"></trkpt><trkpt lat="43.569660" lon="-124.215151"></trkpt><trkpt lat="43.569401" lon="-124.215437"></trkpt><trkpt lat="43.569114" lon="-124.215691"></trkpt><trkpt lat="43.568566" lon="-124.216036"></trkpt><trkpt lat="43.567905" lon="-124.216366"></trkpt><trkpt lat="43.566795" lon="-124.216585"></trkpt><trkpt lat="43.566116" lon="-124.216551"></trkpt><trkpt lat="43.565792" lon="-124.216486"></trkpt><trkpt lat="43.565499" lon="-124.216513"></trkpt><trkpt lat="43.565250" lon="-124.216642"></trkpt><trkpt lat="43.564402" lon="-124.217210"></trkpt><trkpt lat="43.563489" lon="-124.217977"></trkpt><trkpt lat="43.562868" lon="-124.218384"></trkpt><trkpt lat="43.562688" lon="-124.218434"></trkpt><trkpt lat="43.562500" lon="-124.218310"></trkpt><trkpt lat="43.562170" lon="-124.217579"></trkpt><trkpt lat="43.561989" lon="-124.217281"></trkpt><trkpt lat="43.561881" lon="-124.217199"></trkpt><trkpt lat="43.561707" lon="-124.217128"></trkpt><trkpt lat="43.561383" lon="-124.217093"></trkpt><trkpt lat="43.561225" lon="-124.217106"></trkpt><trkpt lat="43.560994" lon="-124.217197"></trkpt><trkpt lat="43.560422" lon="-124.217677"></trkpt><trkpt lat="43.560232" lon="-124.217740"></trkpt><trkpt lat="43.559957" lon="-124.217762"></trkpt><trkpt lat="43.559634" lon="-124.217734"></trkpt><trkpt lat="43.559421" lon="-124.217812"></trkpt><trkpt lat="43.558623" lon="-124.218389"></trkpt><trkpt lat="43.557759" lon="-124.219198"></trkpt><trkpt lat="43.557423" lon="-124.219442"></trkpt><trkpt lat="43.557038" lon="-124.219645"></trkpt><trkpt lat="43.556084" lon="-124.220032"></trkpt><trkpt lat="43.555812" lon="-124.220189"></trkpt><trkpt lat="43.554977" lon="-124.220803"></trkpt><trkpt lat="43.554534" lon="-124.220987"></trkpt><trkpt lat="43.554243" lon="-124.221256"></trkpt><trkpt lat="43.554080" lon="-124.221314"></trkpt><trkpt lat="43.553899" lon="-124.221432"></trkpt><trkpt lat="43.553421" lon="-124.221954"></trkpt><trkpt lat="43.553203" lon="-124.222114"></trkpt><trkpt lat="43.552932" lon="-124.222203"></trkpt><trkpt lat="43.551850" lon="-124.222281"></trkpt><trkpt lat="43.551621" lon="-124.222267"></trkpt><trkpt lat="43.550800" lon="-124.221990"></trkpt><trkpt lat="43.550237" lon="-124.221986"></trkpt><trkpt lat="43.549768" lon="-124.222108"></trkpt><trkpt lat="43.548723" lon="-124.222535"></trkpt><trkpt lat="43.548052" lon="-124.222547"></trkpt><trkpt lat="43.547632" lon="-124.222649"></trkpt><trkpt lat="43.546970" lon="-124.222662"></trkpt><trkpt lat="43.546542" lon="-124.222712"></trkpt><trkpt lat="43.546226" lon="-124.222821"></trkpt><trkpt lat="43.545864" lon="-124.223018"></trkpt><trkpt lat="43.545546" lon="-124.223263"></trkpt><trkpt lat="43.545233" lon="-124.223447"></trkpt><trkpt lat="43.544994" lon="-124.223531"></trkpt><trkpt lat="43.544674" lon="-124.223511"></trkpt><trkpt lat="43.544422" lon="-124.223549"></trkpt><trkpt lat="43.544254" lon="-124.223674"></trkpt><trkpt lat="43.543942" lon="-124.224161"></trkpt><trkpt lat="43.543829" lon="-124.224282"></trkpt><trkpt lat="43.543461" lon="-124.224509"></trkpt><trkpt lat="43.543357" lon="-124.224623"></trkpt><trkpt lat="43.542822" lon="-124.225330"></trkpt><trkpt lat="43.542511" lon="-124.225388"></trkpt><trkpt lat="43.542138" lon="-124.225372"></trkpt><trkpt lat="43.541845" lon="-124.225324"></trkpt><trkpt lat="43.541535" lon="-124.225328"></trkpt><trkpt lat="43.541214" lon="-124.225459"></trkpt><trkpt lat="43.540951" lon="-124.225624"></trkpt><trkpt lat="43.540595" lon="-124.226055"></trkpt><trkpt lat="43.540396" lon="-124.226164"></trkpt><trkpt lat="43.540023" lon="-124.226470"></trkpt><trkpt lat="43.539856" lon="-124.226516"></trkpt><trkpt lat="43.539316" lon="-124.226529"></trkpt><trkpt lat="43.539013" lon="-124.226236"></trkpt><trkpt lat="43.538744" lon="-124.226124"></trkpt><trkpt lat="43.538432" lon="-124.226257"></trkpt><trkpt lat="43.538113" lon="-124.226202"></trkpt><trkpt lat="43.537872" lon="-124.226426"></trkpt><trkpt lat="43.537630" lon="-124.226749"></trkpt><trkpt lat="43.537345" lon="-124.226817"></trkpt><trkpt lat="43.537281" lon="-124.226963"></trkpt><trkpt lat="43.537218" lon="-124.227323"></trkpt><trkpt lat="43.537080" lon="-124.227648"></trkpt><trkpt lat="43.536872" lon="-124.227750"></trkpt><trkpt lat="43.536266" lon="-124.227935"></trkpt><trkpt lat="43.535892" lon="-124.228419"></trkpt><trkpt lat="43.535699" lon="-124.228390"></trkpt><trkpt lat="43.535396" lon="-124.228523"></trkpt><trkpt lat="43.534996" lon="-124.228843"></trkpt><trkpt lat="43.534796" lon="-124.229052"></trkpt><trkpt lat="43.534451" lon="-124.229299"></trkpt><trkpt lat="43.534245" lon="-124.229213"></trkpt><trkpt lat="43.533948" lon="-124.229141"></trkpt><trkpt lat="43.533643" lon="-124.229078"></trkpt><trkpt lat="43.533328" lon="-124.229065"></trkpt><trkpt lat="43.533043" lon="-124.229153"></trkpt><trkpt lat="43.532789" lon="-124.229323"></trkpt><trkpt lat="43.532366" lon="-124.229314"></trkpt><trkpt lat="43.531933" lon="-124.229404"></trkpt><trkpt lat="43.531632" lon="-124.229316"></trkpt><trkpt lat="43.531310" lon="-124.229160"></trkpt><trkpt lat="43.531039" lon="-124.229246"></trkpt><trkpt lat="43.530837" lon="-124.229177"></trkpt><trkpt lat="43.530561" lon="-124.229318"></trkpt><trkpt lat="43.530128" lon="-124.229745"></trkpt><trkpt lat="43.530024" lon="-124.229814"></trkpt><trkpt lat="43.529844" lon="-124.229825"></trkpt><trkpt lat="43.529582" lon="-124.229907"></trkpt><trkpt lat="43.529141" lon="-124.230303"></trkpt><trkpt lat="43.528832" lon="-124.230518"></trkpt><trkpt lat="43.528380" lon="-124.230694"></trkpt><trkpt lat="43.528266" lon="-124.230824"></trkpt><trkpt lat="43.528074" lon="-124.231152"></trkpt><trkpt lat="43.527806" lon="-124.231369"></trkpt><trkpt lat="43.526997" lon="-124.231622"></trkpt><trkpt lat="43.526360" lon="-124.231861"></trkpt><trkpt lat="43.525300" lon="-124.232461"></trkpt><trkpt lat="43.524814" lon="-124.232816"></trkpt><trkpt lat="43.524488" lon="-124.233008"></trkpt><trkpt lat="43.523950" lon="-124.233239"></trkpt><trkpt lat="43.523774" lon="-124.233281"></trkpt><trkpt lat="43.523179" lon="-124.233327"></trkpt><trkpt lat="43.522836" lon="-124.233427"></trkpt><trkpt lat="43.522435" lon="-124.233448"></trkpt><trkpt lat="43.521931" lon="-124.233394"></trkpt><trkpt lat="43.521075" lon="-124.233440"></trkpt><trkpt lat="43.520756" lon="-124.233360"></trkpt><trkpt lat="43.520259" lon="-124.233156"></trkpt><trkpt lat="43.519944" lon="-124.233159"></trkpt><trkpt lat="43.519697" lon="-124.233113"></trkpt><trkpt lat="43.519402" lon="-124.233246"></trkpt><trkpt lat="43.519150" lon="-124.233290"></trkpt><trkpt lat="43.518876" lon="-124.233244"></trkpt><trkpt lat="43.518191" lon="-124.233303"></trkpt><trkpt lat="43.517910" lon="-124.233470"></trkpt><trkpt lat="43.517644" lon="-124.233866"></trkpt><trkpt lat="43.517458" lon="-124.234050"></trkpt><trkpt lat="43.517304" lon="-124.234129"></trkpt><trkpt lat="43.517124" lon="-124.234134"></trkpt><trkpt lat="43.516814" lon="-124.234029"></trkpt><trkpt lat="43.516604" lon="-124.233910"></trkpt><trkpt lat="43.515819" lon="-124.233599"></trkpt><trkpt lat="43.515598" lon="-124.233644"></trkpt><trkpt lat="43.515402" lon="-124.233861"></trkpt><trkpt lat="43.515097" lon="-124.233806"></trkpt><trkpt lat="43.514777" lon="-124.233791"></trkpt><trkpt lat="43.514511" lon="-124.233835"></trkpt><trkpt lat="43.514078" lon="-124.233941"></trkpt><trkpt lat="43.513836" lon="-124.234222"></trkpt><trkpt lat="43.513381" lon="-124.234644"></trkpt><trkpt lat="43.512967" lon="-124.234639"></trkpt><trkpt lat="43.512673" lon="-124.234756"></trkpt><trkpt lat="43.512471" lon="-124.235137"></trkpt><trkpt lat="43.512373" lon="-124.235446"></trkpt><trkpt lat="43.512191" lon="-124.235672"></trkpt><trkpt lat="43.512037" lon="-124.235750"></trkpt><trkpt lat="43.511374" lon="-124.235827"></trkpt><trkpt lat="43.510691" lon="-124.236140"></trkpt><trkpt lat="43.509978" lon="-124.236249"></trkpt><trkpt lat="43.509129" lon="-124.236559"></trkpt><trkpt lat="43.508666" lon="-124.236862"></trkpt><trkpt lat="43.508237" lon="-124.237008"></trkpt><trkpt lat="43.507725" lon="-124.236892"></trkpt><trkpt lat="43.507488" lon="-124.236731"></trkpt><trkpt lat="43.507458" lon="-124.236575"></trkpt><trkpt lat="43.507252" lon="-124.236472"></trkpt><trkpt lat="43.507085" lon="-124.236559"></trkpt><trkpt lat="43.506758" lon="-124.236819"></trkpt><trkpt lat="43.506030" lon="-124.237045"></trkpt><trkpt lat="43.505851" lon="-124.236960"></trkpt><trkpt lat="43.505745" lon="-124.236810"></trkpt><trkpt lat="43.505247" lon="-124.236652"></trkpt><trkpt lat="43.504836" lon="-124.236701"></trkpt><trkpt lat="43.504731" lon="-124.236861"></trkpt><trkpt lat="43.504476" lon="-124.237102"></trkpt><trkpt lat="43.504464" lon="-124.237447"></trkpt><trkpt lat="43.504400" lon="-124.237545"></trkpt><trkpt lat="43.504296" lon="-124.237583"></trkpt><trkpt lat="43.503992" lon="-124.237397"></trkpt><trkpt lat="43.503718" lon="-124.237301"></trkpt><trkpt lat="43.503585" lon="-124.237143"></trkpt><trkpt lat="43.503389" lon="-124.236877"></trkpt><trkpt lat="43.503319" lon="-124.236728"></trkpt><trkpt lat="43.503317" lon="-124.236449"></trkpt><trkpt lat="43.503265" lon="-124.236284"></trkpt><trkpt lat="43.503154" lon="-124.236151"></trkpt><trkpt lat="43.503016" lon="-124.236058"></trkpt><trkpt lat="43.502382" lon="-124.235947"></trkpt><trkpt lat="43.502213" lon="-124.235739"></trkpt><trkpt lat="43.501877" lon="-124.235560"></trkpt><trkpt lat="43.501784" lon="-124.235468"></trkpt><trkpt lat="43.501676" lon="-124.235441"></trkpt><trkpt lat="43.501541" lon="-124.235471"></trkpt><trkpt lat="43.501248" lon="-124.235432"></trkpt><trkpt lat="43.501125" lon="-124.235651"></trkpt><trkpt lat="43.501011" lon="-124.235714"></trkpt><trkpt lat="43.500919" lon="-124.235879"></trkpt></trkseg></trk><trk><name>T007 LO3F3F3</name><trkseg><trkpt lat="43.442606" lon="-124.245907"></trkpt><trkpt lat="43.442754" lon="-124.245977"></trkpt><trkpt lat="43.443253" lon="-124.245992"></trkpt><trkpt lat="43.444045" lon="-124.246071"></trkpt><trkpt lat="43.445103" lon="-124.246106"></trkpt><trkpt lat="43.445261" lon="-124.246063"></trkpt><trkpt lat="43.445595" lon="-124.245910"></trkpt><trkpt lat="43.445727" lon="-124.245812"></trkpt><trkpt lat="43.446165" lon="-124.245319"></trkpt><trkpt lat="43.446337" lon="-124.245179"></trkpt><trkpt lat="43.446481" lon="-124.245195"></trkpt><trkpt lat="43.446906" lon="-124.245432"></trkpt><trkpt lat="43.447006" lon="-124.245393"></trkpt><trkpt lat="43.447047" lon="-124.245298"></trkpt><trkpt lat="43.447048" lon="-124.245200"></trkpt><trkpt lat="43.446939" lon="-124.244945"></trkpt><trkpt lat="43.446922" lon="-124.244808"></trkpt><trkpt lat="43.446941" lon="-124.244696"></trkpt><trkpt lat="43.447042" lon="-124.244551"></trkpt><trkpt lat="43.447522" lon="-124.244242"></trkpt><trkpt lat="43.448063" lon="-124.243822"></trkpt><trkpt lat="43.448465" lon="-124.243644"></trkpt><trkpt lat="43.449436" lon="-124.243364"></trkpt><trkpt lat="43.450769" lon="-124.242925"></trkpt><trkpt lat="43.450972" lon="-124.242900"></trkpt><trkpt lat="43.451444" lon="-124.242959"></trkpt><trkpt lat="43.451791" lon="-124.242958"></trkpt><trkpt lat="43.452215" lon="-124.242871"></trkpt><trkpt lat="43.452609" lon="-124.242692"></trkpt><trkpt lat="43.452967" lon="-124.242427"></trkpt><trkpt lat="43.453540" lon="-124.241558"></trkpt><trkpt lat="43.453762" lon="-124.241398"></trkpt><trkpt lat="43.454385" lon="-124.241270"></trkpt><trkpt lat="43.455325" lon="-124.240887"></trkpt><trkpt lat="43.456197" lon="-124.240601"></trkpt><trkpt lat="43.456905" lon="-124.240501"></trkpt><trkpt lat="43.457542" lon="-124.240328"></trkpt><trkpt lat="43.457977" lon="-124.240099"></trkpt><trkpt lat="43.458330" lon="-124.239857"></trkpt><trkpt lat="43.458457" lon="-124.239812"></trkpt><trkpt lat="43.458722" lon="-124.239843"></trkpt><trkpt lat="43.459305" lon="-124.240038"></trkpt><trkpt lat="43.459697" lon="-124.240023"></trkpt><trkpt lat="43.460167" lon="-124.239917"></trkpt><trkpt lat="43.460796" lon="-124.239615"></trkpt><trkpt lat="43.461431" lon="-124.239127"></trkpt><trkpt lat="43.461916" lon="-124.238818"></trkpt><trkpt lat="43.462297" lon="-124.238637"></trkpt><trkpt lat="43.462726" lon="-124.238483"></trkpt><trkpt lat="43.463587" lon="-124.238362"></trkpt><trkpt lat="43.464042" lon="-124.238360"></trkpt><trkpt lat="43.464716" lon="-124.238454"></trkpt><trkpt lat="43.465292" lon="-124.238466"></trkpt><trkpt lat="43.465548" lon="-124.238565"></trkpt><trkpt lat="43.465937" lon="-124.238785"></trkpt><trkpt lat="43.466229" lon="-124.238894"></trkpt><trkpt lat="43.466368" lon="-124.238887"></trkpt><trkpt lat="43.466838" lon="-124.238728"></trkpt><trkpt lat="43.466928" lon="-124.238725"></trkpt><trkpt lat="43.467453" lon="-124.238961"></trkpt><trkpt lat="43.468310" lon="-124.239157"></trkpt><trkpt lat="43.468449" lon="-124.239233"></trkpt><trkpt lat="43.468607" lon="-124.239620"></trkpt><trkpt lat="43.468794" lon="-124.239812"></trkpt><trkpt lat="43.469426" lon="-124.240078"></trkpt><trkpt lat="43.469605" lon="-124.240186"></trkpt><trkpt lat="43.469889" lon="-124.240936"></trkpt><trkpt lat="43.469991" lon="-124.241085"></trkpt><trkpt lat="43.470679" lon="-124.241233"></trkpt><trkpt lat="43.471435" lon="-124.240359"></trkpt><trkpt lat="43.471684" lon="-124.240254"></trkpt><trkpt lat="43.472280" lon="-124.240132"></trkpt><trkpt lat="43.472624" lon="-124.239987"></trkpt><trkpt lat="43.472729" lon="-124.239858"></trkpt><trkpt lat="43.472801" lon="-124.239440"></trkpt><trkpt lat="43.472851" lon="-124.239315"></trkpt><trkpt lat="43.472947" lon="-124.239200"></trkpt><trkpt lat="43.473873" lon="-124.238563"></trkpt><trkpt lat="43.474059" lon="-124.238394"></trkpt><trkpt lat="43.474187" lon="-124.238198"></trkpt><trkpt lat="43.474594" lon="-124.238049"></trkpt><trkpt lat="43.474825" lon="-124.237919"></trkpt><trkpt lat="43.474994" lon="-124.237719"></trkpt><trkpt lat="43.475457" lon="-124.236933"></trkpt><trkpt lat="43.475684" lon="-124.236803"></trkpt><trkpt lat="43.475964" lon="-124.236692"></trkpt><trkpt lat="43.476282" lon="-124.236447"></trkpt><trkpt lat="43.476567" lon="-124.236337"></trkpt><trkpt lat="43.476638" lon="-124.236364"></trkpt><trkpt lat="43.476709" lon="-124.236444"></trkpt><trkpt lat="43.477036" lon="-124.237083"></trkpt><trkpt lat="43.477125" lon="-124.237178"></trkpt><trkpt lat="43.477550" lon="-124.237415"></trkpt><trkpt lat="43.477643" lon="-124.237512"></trkpt><trkpt lat="43.477714" lon="-124.238022"></trkpt><trkpt lat="43.477816" lon="-124.238224"></trkpt><trkpt lat="43.478335" lon="-124.238535"></trkpt><trkpt lat="43.478958" lon="-124.239154"></trkpt><trkpt lat="43.479160" lon="-124.239234"></trkpt><trkpt lat="43.479331" lon="-124.239267"></trkpt><trkpt lat="43.479385" lon="-124.239203"></trkpt><trkpt lat="43.479373" lon="-124.238727"></trkpt><trkpt lat="43.479451" lon="-124.238173"></trkpt><trkpt lat="43.479488" lon="-124.238062"></trkpt><trkpt lat="43.479538" lon="-124.238012"></trkpt><trkpt lat="43.479628" lon="-124.238003"></trkpt><trkpt lat="43.480009" lon="-124.238125"></trkpt><trkpt lat="43.480378" lon="-124.238170"></trkpt><trkpt lat="43.480701" lon="-124.238273"></trkpt><trkpt lat="43.481577" lon="-124.238454"></trkpt><trkpt lat="43.481924" lon="-124.238423"></trkpt><trkpt lat="43.482182" lon="-124.238318"></trkpt><trkpt lat="43.482350" lon="-124.238193"></trkpt><trkpt lat="43.482816" lon="-124.237504"></trkpt><trkpt lat="43.482873" lon="-124.237282"></trkpt><trkpt lat="43.483009" lon="-124.236317"></trkpt><trkpt lat="43.483141" lon="-124.235842"></trkpt><trkpt lat="43.483191" lon="-124.235762"></trkpt><trkpt lat="43.483341" lon="-124.235651"></trkpt><trkpt lat="43.484183" lon="-124.235242"></trkpt><trkpt lat="43.484292" lon="-124.235159"></trkpt><trkpt lat="43.484918" lon="-124.234254"></trkpt><trkpt lat="43.485300" lon="-124.233945"></trkpt><trkpt lat="43.485551" lon="-124.233591"></trkpt><trkpt lat="43.485746" lon="-124.233505"></trkpt><trkpt lat="43.486549" lon="-124.233350"></trkpt><trkpt lat="43.486870" lon="-124.233211"></trkpt><trkpt lat="43.487650" lon="-124.233086"></trkpt><trkpt lat="43.488348" lon="-124.233038"></trkpt><trkpt lat="43.488566" lon="-124.232886"></trkpt><trkpt lat="43.488740" lon="-124.232625"></trkpt><trkpt lat="43.488893" lon="-124.231819"></trkpt><trkpt lat="43.488982" lon="-124.231447"></trkpt><trkpt lat="43.489084" lon="-124.231190"></trkpt><trkpt lat="43.489208" lon="-124.230963"></trkpt><trkpt lat="43.490028" lon="-124.230078"></trkpt><trkpt lat="43.490097" lon="-124.229932"></trkpt><trkpt lat="43.490188" lon="-124.229447"></trkpt><trkpt lat="43.490836" lon="-124.229893"></trkpt><trkpt lat="43.491217" lon="-124.230090"></trkpt><trkpt lat="43.491464" lon="-124.230091"></trkpt><trkpt lat="43.491997" lon="-124.229987"></trkpt><trkpt lat="43.492402" lon="-124.229951"></trkpt><trkpt lat="43.492559" lon="-124.230037"></trkpt><trkpt lat="43.492661" lon="-124.230202"></trkpt><trkpt lat="43.492763" lon="-124.230268"></trkpt><trkpt lat="43.492872" lon="-124.230215"></trkpt><trkpt lat="43.493088" lon="-124.229790"></trkpt><trkpt lat="43.493175" lon="-124.229690"></trkpt><trkpt lat="43.493270" lon="-124.229620"></trkpt><trkpt lat="43.493681" lon="-124.229532"></trkpt><trkpt lat="43.493853" lon="-124.229452"></trkpt><trkpt lat="43.494240" lon="-124.229050"></trkpt><trkpt lat="43.494470" lon="-124.228951"></trkpt><trkpt lat="43.494856" lon="-124.229132"></trkpt><trkpt lat="43.495070" lon="-124.229274"></trkpt><trkpt lat="43.495262" lon="-124.229433"></trkpt><trkpt lat="43.495457" lon="-124.229739"></trkpt><trkpt lat="43.495494" lon="-124.230028"></trkpt><trkpt lat="43.495418" lon="-124.230453"></trkpt><trkpt lat="43.495430" lon="-124.230537"></trkpt><trkpt lat="43.495671" lon="-124.230801"></trkpt><trkpt lat="43.495719" lon="-124.230917"></trkpt><trkpt lat="43.495841" lon="-124.231317"></trkpt><trkpt lat="43.495957" lon="-124.232214"></trkpt><trkpt lat="43.496027" lon="-124.232384"></trkpt><trkpt lat="43.496094" lon="-124.232449"></trkpt><trkpt lat="43.496387" lon="-124.232452"></trkpt><trkpt lat="43.496708" lon="-124.232336"></trkpt><trkpt lat="43.496928" lon="-124.232334"></trkpt><trkpt lat="43.497053" lon="-124.232417"></trkpt><trkpt lat="43.497249" lon="-124.232671"></trkpt><trkpt lat="43.497414" lon="-124.232764"></trkpt><trkpt lat="43.497558" lon="-124.232757"></trkpt><trkpt lat="43.497744" lon="-124.232663"></trkpt><trkpt lat="43.497843" lon="-124.232646"></trkpt><trkpt lat="43.499291" lon="-124.232848"></trkpt><trkpt lat="43.499546" lon="-124.232947"></trkpt><trkpt lat="43.499800" lon="-124.233186"></trkpt><trkpt lat="43.499984" lon="-124.233310"></trkpt><trkpt lat="43.500147" lon="-124.234044"></trkpt><trkpt lat="43.500418" lon="-124.234370"></trkpt><trkpt lat="43.500493" lon="-124.234903"></trkpt><trkpt lat="43.500668" lon="-124.234943"></trkpt><trkpt lat="43.500833" lon="-124.235142"></trkpt><trkpt lat="43.500917" lon="-124.235654"></trkpt><trkpt lat="43.500854" lon="-124.236494"></trkpt><trkpt lat="43.500853" lon="-124.237053"></trkpt><trkpt lat="43.500892" lon="-124.237161"></trkpt><trkpt lat="43.501264" lon="-124.237719"></trkpt><trkpt lat="43.501409" lon="-124.238038"></trkpt><trkpt lat="43.501515" lon="-124.238708"></trkpt><trkpt lat="43.501562" lon="-124.239760"></trkpt><trkpt lat="43.501492" lon="-124.240790"></trkpt><trkpt lat="43.501525" lon="-124.241055"></trkpt><trkpt lat="43.501696" lon="-124.241541"></trkpt><trkpt lat="43.501716" lon="-124.241701"></trkpt><trkpt lat="43.501626" lon="-124.242533"></trkpt><trkpt lat="43.501523" lon="-124.242949"></trkpt><trkpt lat="43.501523" lon="-124.243304"></trkpt><trkpt lat="43.501572" lon="-124.243752"></trkpt><trkpt lat="43.501552" lon="-124.244370"></trkpt><trkpt lat="43.501585" lon="-124.244666"></trkpt><trkpt lat="43.501550" lon="-124.245034"></trkpt><trkpt lat="43.501579" lon="-124.245240"></trkpt><trkpt lat="43.501711" lon="-124.245459"></trkpt><trkpt lat="43.502201" lon="-124.245965"></trkpt><trkpt lat="43.502723" lon="-124.246411"></trkpt><trkpt lat="43.504318" lon="-124.247506"></trkpt><trkpt lat="43.505291" lon="-124.248313"></trkpt><trkpt lat="43.505505" lon="-124.248507"></trkpt><trkpt lat="43.505683" lon="-124.248737"></trkpt><trkpt lat="43.505883" lon="-124.248907"></trkpt><trkpt lat="43.506353" lon="-124.249185"></trkpt><trkpt lat="43.506808" lon="-124.249176"></trkpt><trkpt lat="43.506960" lon="-124.249230"></trkpt><trkpt lat="43.507134" lon="-124.249385"></trkpt><trkpt lat="43.507610" lon="-124.249972"></trkpt><trkpt lat="43.507831" lon="-124.250318"></trkpt><trkpt lat="43.508233" lon="-124.250637"></trkpt><trkpt lat="43.508423" lon="-124.250935"></trkpt></trkseg></trk><trk><name>T008 LO3F3F3</name><trkseg><trkpt lat="43.947659" lon="-124.136341"></trkpt><trkpt lat="43.947667" lon="-124.136854"></trkpt><trkpt lat="43.947965" lon="-124.137275"></trkpt><trkpt lat="43.948093" lon="-124.138891"></trkpt><trkpt lat="43.947958" lon="-124.139695"></trkpt><trkpt lat="43.947915" lon="-124.140452"></trkpt><trkpt lat="43.947822" lon="-124.141232"></trkpt><trkpt lat="43.947606" lon="-124.141594"></trkpt><trkpt lat="43.947688" lon="-124.141962"></trkpt><trkpt lat="43.947812" lon="-124.142234"></trkpt><trkpt lat="43.947484" lon="-124.143009"></trkpt><trkpt lat="43.947359" lon="-124.143398"></trkpt><trkpt lat="43.947034" lon="-124.143954"></trkpt><trkpt lat="43.946902" lon="-124.144929"></trkpt><trkpt lat="43.947021" lon="-124.145175"></trkpt><trkpt lat="43.947499" lon="-124.145160"></trkpt></trkseg></trk><trk><name>T009 LO3F3F3</name><trkseg><trkpt lat="43.919769" lon="-124.134161"></trkpt><trkpt lat="43.919905" lon="-124.134962"></trkpt><trkpt lat="43.920319" lon="-124.136768"></trkpt><trkpt lat="43.920631" lon="-124.139370"></trkpt><trkpt lat="43.920795" lon="-124.141902"></trkpt><trkpt lat="43.921294" lon="-124.145107"></trkpt><trkpt lat="43.921856" lon="-124.146449"></trkpt><trkpt lat="43.921557" lon="-124.147575"></trkpt><trkpt lat="43.921405" lon="-124.148371"></trkpt></trkseg></trk><trk><name>T010 LO3F3F3</name><trkseg><trkpt lat="43.881115" lon="-124.149518"></trkpt><trkpt lat="43.881403" lon="-124.149512"></trkpt><trkpt lat="43.882018" lon="-124.149285"></trkpt><trkpt lat="43.882186" lon="-124.149069"></trkpt><trkpt lat="43.882255" lon="-124.148918"></trkpt><trkpt lat="43.882387" lon="-124.148347"></trkpt><trkpt lat="43.882492" lon="-124.148178"></trkpt><trkpt lat="43.882791" lon="-124.148021"></trkpt><trkpt lat="43.883265" lon="-124.147925"></trkpt><trkpt lat="43.884793" lon="-124.147726"></trkpt><trkpt lat="43.885294" lon="-124.147583"></trkpt><trkpt lat="43.886246" lon="-124.147381"></trkpt><trkpt lat="43.886747" lon="-124.147238"></trkpt><trkpt lat="43.887336" lon="-124.146868"></trkpt><trkpt lat="43.887792" lon="-124.146791"></trkpt><trkpt lat="43.887955" lon="-124.146698"></trkpt><trkpt lat="43.888230" lon="-124.146656"></trkpt><trkpt lat="43.890022" lon="-124.146185"></trkpt><trkpt lat="43.890113" lon="-124.146092"></trkpt><trkpt lat="43.890842" lon="-124.144760"></trkpt><trkpt lat="43.891456" lon="-124.145469"></trkpt><trkpt lat="43.892923" lon="-124.148167"></trkpt><trkpt lat="43.893099" lon="-124.149060"></trkpt><trkpt lat="43.893071" lon="-124.149568"></trkpt><trkpt lat="43.892927" lon="-124.150042"></trkpt><trkpt lat="43.892994" lon="-124.150520"></trkpt><trkpt lat="43.893239" lon="-124.151288"></trkpt><trkpt lat="43.893300" lon="-124.151956"></trkpt><trkpt lat="43.893339" lon="-124.152089"></trkpt><trkpt lat="43.893544" lon="-124.152755"></trkpt><trkpt lat="43.893861" lon="-124.153397"></trkpt></trkseg></trk><trk><name>T011 LO3F3F3</name><trkseg><trkpt lat="43.955711" lon="-124.138782"></trkpt><trkpt lat="43.954212" lon="-124.138791"></trkpt><trkpt lat="43.953732" lon="-124.138551"></trkpt><trkpt lat="43.953422" lon="-124.138487"></trkpt><trkpt lat="43.952861" lon="-124.138292"></trkpt><trkpt lat="43.952261" lon="-124.138476"></trkpt><trkpt lat="43.951409" lon="-124.138531"></trkpt><trkpt lat="43.950660" lon="-124.138767"></trkpt><trkpt lat="43.949911" lon="-124.138904"></trkpt><trkpt lat="43.948222" lon="-124.138963"></trkpt><trkpt lat="43.948024" lon="-124.138572"></trkpt><trkpt lat="43.947296" lon="-124.138900"></trkpt><trkpt lat="43.946855" lon="-124.138843"></trkpt><trkpt lat="43.946413" lon="-124.138908"></trkpt><trkpt lat="43.945513" lon="-124.138866"></trkpt><trkpt lat="43.945337" lon="-124.138933"></trkpt><trkpt lat="43.944356" lon="-124.138843"></trkpt><trkpt lat="43.943458" lon="-124.138600"></trkpt><trkpt lat="43.943013" lon="-124.138565"></trkpt><trkpt lat="43.940382" lon="-124.138734"></trkpt><trkpt lat="43.938551" lon="-124.139110"></trkpt><trkpt lat="43.936531" lon="-124.139445"></trkpt><trkpt lat="43.935126" lon="-124.139945"></trkpt><trkpt lat="43.934761" lon="-124.140394"></trkpt><trkpt lat="43.934004" lon="-124.140881"></trkpt><trkpt lat="43.933749" lon="-124.141194"></trkpt><trkpt lat="43.932772" lon="-124.141247"></trkpt><trkpt lat="43.932304" lon="-124.141616"></trkpt><trkpt lat="43.931757" lon="-124.141832"></trkpt><trkpt lat="43.931049" lon="-124.141516"></trkpt><trkpt lat="43.930533" lon="-124.141356"></trkpt><trkpt lat="43.930009" lon="-124.141949"></trkpt><trkpt lat="43.929735" lon="-124.141906"></trkpt><trkpt lat="43.929213" lon="-124.142387"></trkpt><trkpt lat="43.928719" lon="-124.142717"></trkpt><trkpt lat="43.926124" lon="-124.142451"></trkpt><trkpt lat="43.925765" lon="-124.141915"></trkpt><trkpt lat="43.925488" lon="-124.141640"></trkpt><trkpt lat="43.925017" lon="-124.141485"></trkpt><trkpt lat="43.924617" lon="-124.140977"></trkpt><trkpt lat="43.924223" lon="-124.140753"></trkpt><trkpt lat="43.923816" lon="-124.140452"></trkpt><trkpt lat="43.922943" lon="-124.140010"></trkpt><trkpt lat="43.922019" lon="-124.140600"></trkpt><trkpt lat="43.920692" lon="-124.141303"></trkpt><trkpt lat="43.919704" lon="-124.141602"></trkpt><trkpt lat="43.919460" lon="-124.141643"></trkpt><trkpt lat="43.917844" lon="-124.142099"></trkpt><trkpt lat="43.916432" lon="-124.142341"></trkpt><trkpt lat="43.915838" lon="-124.142382"></trkpt><trkpt lat="43.915255" lon="-124.142620"></trkpt><trkpt lat="43.915129" lon="-124.142591"></trkpt><trkpt lat="43.910789" lon="-124.144363"></trkpt><trkpt lat="43.906546" lon="-124.146406"></trkpt><trkpt lat="43.906055" lon="-124.146389"></trkpt><trkpt lat="43.904904" lon="-124.146707"></trkpt><trkpt lat="43.903100" lon="-124.147084"></trkpt><trkpt lat="43.902743" lon="-124.147229"></trkpt><trkpt lat="43.902237" lon="-124.147358"></trkpt><trkpt lat="43.900749" lon="-124.147599"></trkpt><trkpt lat="43.899576" lon="-124.147855"></trkpt><trkpt lat="43.898063" lon="-124.148318"></trkpt><trkpt lat="43.895299" lon="-124.148721"></trkpt><trkpt lat="43.894238" lon="-124.149106"></trkpt><trkpt lat="43.893967" lon="-124.149157"></trkpt><trkpt lat="43.893373" lon="-124.149175"></trkpt><trkpt lat="43.892280" lon="-124.149451"></trkpt><trkpt lat="43.891987" lon="-124.149493"></trkpt><trkpt lat="43.891537" lon="-124.149482"></trkpt><trkpt lat="43.890866" lon="-124.149539"></trkpt><trkpt lat="43.889951" lon="-124.149682"></trkpt><trkpt lat="43.889104" lon="-124.149677"></trkpt><trkpt lat="43.888767" lon="-124.149618"></trkpt><trkpt lat="43.888605" lon="-124.149646"></trkpt><trkpt lat="43.888313" lon="-124.149542"></trkpt><trkpt lat="43.887587" lon="-124.149639"></trkpt><trkpt lat="43.884515" lon="-124.149863"></trkpt><trkpt lat="43.884199" lon="-124.149935"></trkpt><trkpt lat="43.884073" lon="-124.149935"></trkpt><trkpt lat="43.883513" lon="-124.149703"></trkpt><trkpt lat="43.882935" lon="-124.149812"></trkpt><trkpt lat="43.882177" lon="-124.150014"></trkpt><trkpt lat="43.882118" lon="-124.149563"></trkpt><trkpt lat="43.882018" lon="-124.149285"></trkpt></trkseg></trk><trk><name>T012 LO3F3F3</name><trkseg><trkpt lat="43.536424" lon="-124.227964"></trkpt><trkpt lat="43.536729" lon="-124.228075"></trkpt><trkpt lat="43.537029" lon="-124.229031"></trkpt><trkpt lat="43.537012" lon="-124.230613"></trkpt><trkpt lat="43.537454" lon="-124.232204"></trkpt><trkpt lat="43.536826" lon="-124.233246"></trkpt><trkpt lat="43.536497" lon="-124.235348"></trkpt><trkpt lat="43.536769" lon="-124.238518"></trkpt><trkpt lat="43.535655" lon="-124.240812"></trkpt></trkseg></trk><trk><name>T013 LO3F3F3</name><trkseg><trkpt lat="43.452334" lon="-124.269759"></trkpt><trkpt lat="43.452486" lon="-124.269691"></trkpt><trkpt lat="43.452956" lon="-124.269290"></trkpt><trkpt lat="43.453223" lon="-124.269285"></trkpt><trkpt lat="43.453498" lon="-124.269146"></trkpt><trkpt lat="43.453664" lon="-124.269197"></trkpt><trkpt lat="43.454177" lon="-124.269499"></trkpt><trkpt lat="43.454428" lon="-124.269901"></trkpt><trkpt lat="43.454514" lon="-124.270198"></trkpt><trkpt lat="43.454441" lon="-124.270658"></trkpt><trkpt lat="43.454449" lon="-124.271211"></trkpt><trkpt lat="43.454364" lon="-124.272310"></trkpt><trkpt lat="43.454393" lon="-124.272446"></trkpt><trkpt lat="43.454532" lon="-124.272671"></trkpt><trkpt lat="43.454630" lon="-124.272777"></trkpt><trkpt lat="43.454805" lon="-124.272860"></trkpt><trkpt lat="43.454928" lon="-124.273055"></trkpt><trkpt lat="43.455051" lon="-124.273814"></trkpt><trkpt lat="43.455662" lon="-124.275091"></trkpt><trkpt lat="43.455932" lon="-124.276204"></trkpt></trkseg></trk><trk><name>T014 LO3F3F3</name><trkseg><trkpt lat="43.877804" lon="-124.140738"></trkpt><trkpt lat="43.878043" lon="-124.140638"></trkpt><trkpt lat="43.878461" lon="-124.140774"></trkpt><trkpt lat="43.879196" lon="-124.140603"></trkpt><trkpt lat="43.879410" lon="-124.140348"></trkpt><trkpt lat="43.879811" lon="-124.140387"></trkpt><trkpt lat="43.879981" lon="-124.140494"></trkpt><trkpt lat="43.880283" lon="-124.140423"></trkpt><trkpt lat="43.880404" lon="-124.140435"></trkpt><trkpt lat="43.880586" lon="-124.139827"></trkpt><trkpt lat="43.881141" lon="-124.140115"></trkpt><trkpt lat="43.881345" lon="-124.139996"></trkpt><trkpt lat="43.881701" lon="-124.140034"></trkpt><trkpt lat="43.881970" lon="-124.140100"></trkpt><trkpt lat="43.882281" lon="-124.140075"></trkpt><trkpt lat="43.882527" lon="-124.140235"></trkpt><trkpt lat="43.882834" lon="-124.140549"></trkpt></trkseg></trk></gpx>