<?xml version='1.0' encoding='utf-8'?>
<gpx xmlns="http://www.topografix.com/GPX/1/1" xmlns:xsi="http://www.w3.org/2001/XMLSchema-instance" version="1.1" creator="Bob's Motorcycle Trails" xsi:schemaLocation="http://www.topografix.com/GPX/1/1 http://www.topografix.com/GPX/1/1/gpx.xsd"><trk><name>T001 LO570AE</name><trkseg><trkpt lat="46.245682" lon="-91.082441"></trkpt><trkpt lat="46.246172" lon="-91.082286"></trkpt><trkpt lat="46.247806" lon="-91.081282"></trkpt><trkpt lat="46.248631" lon="-91.080999"></trkpt><trkpt lat="46.249375" lon="-91.080458"></trkpt><trkpt lat="46.250491" lon="-91.080396"></trkpt><trkpt lat="46.251674" lon="-91.080980"></trkpt><trkpt lat="46.252845" lon="-91.081261"></trkpt><trkpt lat="46.254677" lon="-91.081297"></trkpt><trkpt lat="46.255411" lon="-91.081028"></trkpt></trkseg></trk><trk><name>T002 LO570AE</name><trkseg><trkpt lat="45.896698" lon="-90.687528"></trkpt><trkpt lat="45.897193" lon="-90.686919"></trkpt><trkpt lat="45.897362" lon="-90.686814"></trkpt><trkpt lat="45.898090" lon="-90.686795"></trkpt><trkpt lat="45.898587" lon="-90.686896"></trkpt><trkpt lat="45.899939" lon="-90.686743"></trkpt><trkpt lat="45.900546" lon="-90.686516"></trkpt><trkpt lat="45.901830" lon="-90.685887"></trkpt><trkpt lat="45.902541" lon="-90.685906"></trkpt><trkpt lat="45.902716" lon="-90.686086"></trkpt><trkpt lat="45.902829" lon="-90.686328"></trkpt><trkpt lat="45.903035" lon="-90.686503"></trkpt><trkpt lat="45.902860" lon="-90.687215"></trkpt></trkseg></trk><trk><name>T003 LO570AE</name><trkseg><trkpt lat="45.908943" lon="-90.687611"></trkpt><trkpt lat="45.908587" lon="-90.687333"></trkpt><trkpt lat="45.908303" lon="-90.686647"></trkpt><trkpt lat="45.907958" lon="-90.686022"></trkpt><trkpt lat="45.906658" lon="-90.684301"></trkpt><trkpt lat="45.906102" lon="-90.683711"></trkpt><trkpt lat="45.905908" lon="-90.683706"></trkpt><trkpt lat="45.905613" lon="-90.684051"></trkpt><trkpt lat="45.905339" lon="-90.684935"></trkpt><trkpt lat="45.905141" lon="-90.685164"></trkpt><trkpt lat="45.904394" lon="-90.685610"></trkpt><trkpt lat="45.904182" lon="-90.686025"></trkpt><trkpt lat="45.903996" lon="-90.686183"></trkpt><trkpt lat="45.903035" lon="-90.686503"></trkpt></trkseg></trk><trk><name>T004 LO570AE</name><trkseg><trkpt lat="45.920611" lon="-90.107207"></trkpt><trkpt lat="45.920619" lon="-90.107906"></trkpt><trkpt lat="45.920741" lon="-90.108819"></trkpt><trkpt lat="45.920913" lon="-90.109434"></trkpt><trkpt lat="45.921258" lon="-90.110915"></trkpt><trkpt lat="45.921707" lon="-90.112089"></trkpt><trkpt lat="45.921835" lon="-90.112734"></trkpt><trkpt lat="45.921830" lon="-90.113197"></trkpt></trkseg></trk><trk><name>T005 LO570AE</name><trkseg><trkpt lat="46.112714" lon="-90.847823"></trkpt><trkpt lat="46.112410" lon="-90.847024"></trkpt><trkpt lat="46.112086" lon="-90.846558"></trkpt><trkpt lat="46.111645" lon="-90.846148"></trkpt><trkpt lat="46.111298" lon="-90.845917"></trkpt><trkpt lat="46.110971" lon="-90.845814"></trkpt><trkpt lat="46.109425" lon="-90.845656"></trkpt><trkpt lat="46.108912" lon="-90.845341"></trkpt><trkpt lat="46.108628" lon="-90.845011"></trkpt></trkseg></trk><trk><name>T006 LO570AE</name><trkseg><trkpt lat="45.183564" lon="-90.625251"></trkpt><trkpt lat="45.184732" lon="-90.624597"></trkpt><trkpt lat="45.185631" lon="-90.623238"></trkpt><trkpt lat="45.186195" lon="-90.622734"></trkpt><trkpt lat="45.185968" lon="-90.622105"></trkpt><trkpt lat="45.185922" lon="-90.621625"></trkpt><trkpt lat="45.186139" lon="-90.620574"></trkpt><trkpt lat="45.185978" lon="-90.620251"></trkpt><trkpt lat="45.185931" lon="-90.619913"></trkpt><trkpt lat="45.186015" lon="-90.619454"></trkpt><trkpt lat="45.186130" lon="-90.619194"></trkpt><trkpt lat="45.186343" lon="-90.618928"></trkpt><trkpt lat="45.187224" lon="-90.618269"></trkpt><trkpt lat="45.187265" lon="-90.617993"></trkpt><trkpt lat="45.187112" lon="-90.617426"></trkpt><trkpt lat="45.188957" lon="-90.617405"></trkpt><trkpt lat="45.188945" lon="-90.616800"></trkpt><trkpt lat="45.188537" lon="-90.616244"></trkpt><trkpt lat="45.188248" lon="-90.615976"></trkpt><trkpt lat="45.187664" lon="-90.615824"></trkpt><trkpt lat="45.187436" lon="-90.615699"></trkpt><trkpt lat="45.187064" lon="-90.615107"></trkpt><trkpt lat="45.186963" lon="-90.614807"></trkpt><trkpt lat="45.187112" lon="-90.614403"></trkpt><trkpt lat="45.187589" lon="-90.614151"></trkpt><trkpt lat="45.188150" lon="-90.613440"></trkpt><trkpt lat="45.188100" lon="-90.612932"></trkpt><trkpt lat="45.186918" lon="-90.612429"></trkpt><trkpt lat="45.186789" lon="-90.612089"></trkpt><trkpt lat="45.186589" lon="-90.611098"></trkpt><trkpt lat="45.186154" lon="-90.610763"></trkpt><trkpt lat="45.185824" lon="-90.610742"></trkpt><trkpt lat="45.184721" lon="-90.610962"></trkpt><trkpt lat="45.184186" lon="-90.611385"></trkpt><trkpt lat="45.183916" lon="-90.611470"></trkpt><trkpt lat="45.183799" lon="-90.611369"></trkpt><trkpt lat="45.183580" lon="-90.610025"></trkpt><trkpt lat="45.183212" lon="-90.609412"></trkpt><trkpt lat="45.182986" lon="-90.608577"></trkpt><trkpt lat="45.181988" lon="-90.607181"></trkpt><trkpt lat="45.182031" lon="-90.606475"></trkpt><trkpt lat="45.181532" lon="-90.606825"></trkpt><trkpt lat="45.181159" lon="-90.606909"></trkpt><trkpt lat="45.181034" lon="-90.607014"></trkpt><trkpt lat="45.180836" lon="-90.607009"></trkpt><trkpt lat="45.180643" lon="-90.606788"></trkpt><trkpt lat="45.180515" lon="-90.606297"></trkpt><trkpt lat="45.179940" lon="-90.605542"></trkpt><trkpt lat="45.179321" lon="-90.605344"></trkpt><trkpt lat="45.179466" lon="-90.604628"></trkpt><trkpt lat="45.179545" lon="-90.603686"></trkpt><trkpt lat="45.179878" lon="-90.603052"></trkpt><trkpt lat="45.179895" lon="-90.602665"></trkpt><trkpt lat="45.179473" lon="-90.601500"></trkpt><trkpt lat="45.179598" lon="-90.598901"></trkpt><trkpt lat="45.179458" lon="-90.598484"></trkpt><trkpt lat="45.179221" lon="-90.598075"></trkpt><trkpt lat="45.179133" lon="-90.597278"></trkpt><trkpt lat="45.179302" lon="-90.596942"></trkpt><trkpt lat="45.179464" lon="-90.596822"></trkpt><trkpt lat="45.179893" lon="-90.596804"></trkpt><trkpt lat="45.180332" lon="-90.597167"></trkpt><trkpt lat="45.181488" lon="-90.599039"></trkpt><trkpt lat="45.181981" lon="-90.599375"></trkpt><trkpt lat="45.182551" lon="-90.599598"></trkpt><trkpt lat="45.182795" lon="-90.599514"></trkpt><trkpt lat="45.182966" lon="-90.599344"></trkpt><trkpt lat="45.183380" lon="-90.597937"></trkpt><trkpt lat="45.183399" lon="-90.596852"></trkpt><trkpt lat="45.183618" lon="-90.596553"></trkpt><trkpt lat="45.183946" lon="-90.596517"></trkpt><trkpt lat="45.184369" lon="-90.596364"></trkpt><trkpt lat="45.184674" lon="-90.596144"></trkpt><trkpt lat="45.185071" lon="-90.595533"></trkpt><trkpt lat="45.185130" lon="-90.595297"></trkpt><trkpt lat="45.185099" lon="-90.595014"></trkpt><trkpt lat="45.184976" lon="-90.594719"></trkpt><trkpt lat="45.184135" lon="-90.593910"></trkpt><trkpt lat="45.184346" lon="-90.593461"></trkpt><trkpt lat="45.184084" lon="-90.592805"></trkpt><trkpt lat="45.184103" lon="-90.591599"></trkpt><trkpt lat="45.184829" lon="-90.590335"></trkpt><trkpt lat="45.184892" lon="-90.590121"></trkpt><trkpt lat="45.184602" lon="-90.589539"></trkpt><trkpt lat="45.184367" lon="-90.589467"></trkpt><trkpt lat="45.184010" lon="-90.589148"></trkpt><trkpt lat="45.183445" lon="-90.588285"></trkpt><trkpt lat="45.182421" lon="-90.587661"></trkpt><trkpt lat="45.181880" lon="-90.586991"></trkpt><trkpt lat="45.181546" lon="-90.586865"></trkpt><trkpt lat="45.181189" lon="-90.586599"></trkpt><trkpt lat="45.180771" lon="-90.586052"></trkpt><trkpt lat="45.180197" lon="-90.584523"></trkpt><trkpt lat="45.179918" lon="-90.583520"></trkpt><trkpt lat="45.180044" lon="-90.582948"></trkpt><trkpt lat="45.180265" lon="-90.582457"></trkpt><trkpt lat="45.179875" lon="-90.582330"></trkpt><trkpt lat="45.179495" lon="-90.581608"></trkpt><trkpt lat="45.179250" lon="-90.581282"></trkpt><trkpt lat="45.178478" lon="-90.580742"></trkpt><trkpt lat="45.178101" lon="-90.579536"></trkpt><trkpt lat="45.176551" lon="-90.577757"></trkpt><trkpt lat="45.176213" lon="-90.577119"></trkpt><trkpt lat="45.176012" lon="-90.576127"></trkpt><trkpt lat="45.175809" lon="-90.576080"></trkpt><trkpt lat="45.175579" lon="-90.575645"></trkpt><trkpt lat="45.174868" lon="-90.575453"></trkpt><trkpt lat="45.174279" lon="-90.575041"></trkpt><trkpt lat="45.172900" lon="-90.572011"></trkpt><trkpt lat="45.172720" lon="-90.571768"></trkpt><trkpt lat="45.171672" lon="-90.571083"></trkpt><trkpt lat="45.170274" lon="-90.570024"></trkpt><trkpt lat="45.170007" lon="-90.569952"></trkpt><trkpt lat="45.168156" lon="-90.569899"></trkpt><trkpt lat="45.167955" lon="-90.569745"></trkpt><trkpt lat="45.167455" lon="-90.569077"></trkpt><trkpt lat="45.166905" lon="-90.567567"></trkpt><trkpt lat="45.166505" lon="-90.566122"></trkpt><trkpt lat="45.166156" lon="-90.564528"></trkpt><trkpt lat="45.166085" lon="-90.563937"></trkpt><trkpt lat="45.166285" lon="-90.561908"></trkpt><trkpt lat="45.166478" lon="-90.561300"></trkpt><trkpt lat="45.167770" lon="-90.560526"></trkpt><trkpt lat="45.168119" lon="-90.560740"></trkpt><trkpt lat="45.168561" lon="-90.560807"></trkpt><trkpt lat="45.168754" lon="-90.560969"></trkpt><trkpt lat="45.168996" lon="-90.560956"></trkpt><trkpt lat="45.169328" lon="-90.560682"></trkpt><trkpt lat="45.170230" lon="-90.560559"></trkpt><trkpt lat="45.170516" lon="-90.560240"></trkpt><trkpt lat="45.170625" lon="-90.559852"></trkpt><trkpt lat="45.170532" lon="-90.559125"></trkpt><trkpt lat="45.170269" lon="-90.558578"></trkpt><trkpt lat="45.170304" lon="-90.558137"></trkpt><trkpt lat="45.170627" lon="-90.557640"></trkpt><trkpt lat="45.170960" lon="-90.557415"></trkpt><trkpt lat="45.171191" lon="-90.557086"></trkpt><trkpt lat="45.172115" lon="-90.557164"></trkpt><trkpt lat="45.172041" lon="-90.556638"></trkpt><trkpt lat="45.171873" lon="-90.556346"></trkpt><trkpt lat="45.171448" lon="-90.556068"></trkpt><trkpt lat="45.170921" lon="-90.556032"></trkpt><trkpt lat="45.170790" lon="-90.555816"></trkpt><trkpt lat="45.170837" lon="-90.555494"></trkpt><trkpt lat="45.171258" lon="-90.554761"></trkpt><trkpt lat="45.171294" lon="-90.554098"></trkpt><trkpt lat="45.171419" lon="-90.553435"></trkpt><trkpt lat="45.171870" lon="-90.552036"></trkpt><trkpt lat="45.172190" lon="-90.551606"></trkpt><trkpt lat="45.173716" lon="-90.549969"></trkpt><trkpt lat="45.174360" lon="-90.548388"></trkpt><trkpt lat="45.174856" lon="-90.545594"></trkpt><trkpt lat="45.175543" lon="-90.539263"></trkpt><trkpt lat="45.175657" lon="-90.538808"></trkpt><trkpt lat="45.175629" lon="-90.538237"></trkpt><trkpt lat="45.175772" lon="-90.536903"></trkpt><trkpt lat="45.175450" lon="-90.535408"></trkpt><trkpt lat="45.175465" lon="-90.534723"></trkpt><trkpt lat="45.175861" lon="-90.533759"></trkpt><trkpt lat="45.176441" lon="-90.532703"></trkpt><trkpt lat="45.176499" lon="-90.532056"></trkpt><trkpt lat="45.176352" lon="-90.531268"></trkpt><trkpt lat="45.176196" lon="-90.530840"></trkpt><trkpt lat="45.175715" lon="-90.529929"></trkpt><trkpt lat="45.175566" lon="-90.529923"></trkpt><trkpt lat="45.175233" lon="-90.530349"></trkpt><trkpt lat="45.175024" lon="-90.530456"></trkpt><trkpt lat="45.174679" lon="-90.530099"></trkpt><trkpt lat="45.174657" lon="-90.529501"></trkpt><trkpt lat="45.173553" lon="-90.527970"></trkpt><trkpt lat="45.172890" lon="-90.527711"></trkpt><trkpt lat="45.172805" lon="-90.527562"></trkpt><trkpt lat="45.172787" lon="-90.527291"></trkpt><trkpt lat="45.173055" lon="-90.526592"></trkpt><trkpt lat="45.173048" lon="-90.526287"></trkpt><trkpt lat="45.172889" lon="-90.526001"></trkpt><trkpt lat="45.172084" lon="-90.524992"></trkpt><trkpt lat="45.171826" lon="-90.524283"></trkpt><trkpt lat="45.171760" lon="-90.523759"></trkpt><trkpt lat="45.171617" lon="-90.523409"></trkpt><trkpt lat="45.171058" lon="-90.522924"></trkpt><trkpt lat="45.170410" lon="-90.522112"></trkpt><trkpt lat="45.170358" lon="-90.521771"></trkpt><trkpt lat="45.170387" lon="-90.521477"></trkpt><trkpt lat="45.170836" lon="-90.520567"></trkpt><trkpt lat="45.171084" lon="-90.519576"></trkpt><trkpt lat="45.171237" lon="-90.518323"></trkpt><trkpt lat="45.171150" lon="-90.518034"></trkpt><trkpt lat="45.169647" lon="-90.516013"></trkpt><trkpt lat="45.169474" lon="-90.515498"></trkpt><trkpt lat="45.169458" lon="-90.515156"></trkpt><trkpt lat="45.168909" lon="-90.514855"></trkpt><trkpt lat="45.162046" lon="-90.504591"></trkpt><trkpt lat="45.161657" lon="-90.503776"></trkpt></trkseg></trk><trk><name>T007 LO570AE</name><trkseg><trkpt lat="45.224557" lon="-90.694851"></trkpt><trkpt lat="45.242300" lon="-90.696772"></trkpt><trkpt lat="45.242213" lon="-90.719234"></trkpt><trkpt lat="45.250394" lon="-90.719460"></trkpt><trkpt lat="45.250442" lon="-90.741678"></trkpt></trkseg></trk><trk><name>T008 LO570AE</name><trkseg><trkpt lat="45.331326" lon="-90.452148"></trkpt><trkpt lat="45.330692" lon="-90.452409"></trkpt><trkpt lat="45.330063" lon="-90.454195"></trkpt><trkpt lat="45.329938" lon="-90.454410"></trkpt><trkpt lat="45.329379" lon="-90.454843"></trkpt><trkpt lat="45.328954" lon="-90.454976"></trkpt><trkpt lat="45.328521" lon="-90.454910"></trkpt><trkpt lat="45.327972" lon="-90.454731"></trkpt><trkpt lat="45.327596" lon="-90.454403"></trkpt><trkpt lat="45.327122" lon="-90.453646"></trkpt><trkpt lat="45.325518" lon="-90.454994"></trkpt><trkpt lat="45.324963" lon="-90.455268"></trkpt><trkpt lat="45.323535" lon="-90.455810"></trkpt><trkpt lat="45.323313" lon="-90.455488"></trkpt><trkpt lat="45.322619" lon="-90.455034"></trkpt><trkpt lat="45.322470" lon="-90.454837"></trkpt><trkpt lat="45.322146" lon="-90.454035"></trkpt><trkpt lat="45.321823" lon="-90.453488"></trkpt><trkpt lat="45.321369" lon="-90.453278"></trkpt><trkpt lat="45.320544" lon="-90.453186"></trkpt><trkpt lat="45.319248" lon="-90.453233"></trkpt><trkpt lat="45.318350" lon="-90.453350"></trkpt><trkpt lat="45.318079" lon="-90.453309"></trkpt><trkpt lat="45.316971" lon="-90.453545"></trkpt><trkpt lat="45.315632" lon="-90.453636"></trkpt><trkpt lat="45.313724" lon="-90.453391"></trkpt><trkpt lat="45.311500" lon="-90.453304"></trkpt><trkpt lat="45.310071" lon="-90.452921"></trkpt><trkpt lat="45.309836" lon="-90.452919"></trkpt><trkpt lat="45.308169" lon="-90.453454"></trkpt><trkpt lat="45.306960" lon="-90.453405"></trkpt><trkpt lat="45.306484" lon="-90.453274"></trkpt><trkpt lat="45.305953" lon="-90.453025"></trkpt><trkpt lat="45.305621" lon="-90.453022"></trkpt><trkpt lat="45.304321" lon="-90.453374"></trkpt><trkpt lat="45.304064" lon="-90.453627"></trkpt><trkpt lat="45.304023" lon="-90.454068"></trkpt><trkpt lat="45.303930" lon="-90.454243"></trkpt><trkpt lat="45.303764" lon="-90.454408"></trkpt><trkpt lat="45.303473" lon="-90.454552"></trkpt><trkpt lat="45.302980" lon="-90.455189"></trkpt><trkpt lat="45.302235" lon="-90.455653"></trkpt><trkpt lat="45.301772" lon="-90.456507"></trkpt><trkpt lat="45.301607" lon="-90.456666"></trkpt><trkpt lat="45.301384" lon="-90.456758"></trkpt><trkpt lat="45.301212" lon="-90.456737"></trkpt><trkpt lat="45.301067" lon="-90.456618"></trkpt><trkpt lat="45.300881" lon="-90.456607"></trkpt><trkpt lat="45.300438" lon="-90.456760"></trkpt><trkpt lat="45.300245" lon="-90.456612"></trkpt><trkpt lat="45.300169" lon="-90.456281"></trkpt><trkpt lat="45.299868" lon="-90.455777"></trkpt><trkpt lat="45.298663" lon="-90.454837"></trkpt><trkpt lat="45.298310" lon="-90.454971"></trkpt><trkpt lat="45.298117" lon="-90.454940"></trkpt><trkpt lat="45.297194" lon="-90.454208"></trkpt><trkpt lat="45.296793" lon="-90.454176"></trkpt><trkpt lat="45.296376" lon="-90.454819"></trkpt><trkpt lat="45.296203" lon="-90.454945"></trkpt><trkpt lat="45.295795" lon="-90.454941"></trkpt><trkpt lat="45.295587" lon="-90.455038"></trkpt><trkpt lat="45.294996" lon="-90.455831"></trkpt><trkpt lat="45.294096" lon="-90.455440"></trkpt><trkpt lat="45.293640" lon="-90.455143"></trkpt><trkpt lat="45.293288" lon="-90.455266"></trkpt><trkpt lat="45.292717" lon="-90.455700"></trkpt><trkpt lat="45.291980" lon="-90.455967"></trkpt><trkpt lat="45.291604" lon="-90.456014"></trkpt><trkpt lat="45.290623" lon="-90.455771"></trkpt><trkpt lat="45.290480" lon="-90.455467"></trkpt><trkpt lat="45.290414" lon="-90.454516"></trkpt><trkpt lat="45.290246" lon="-90.454293"></trkpt><trkpt lat="45.289831" lon="-90.454038"></trkpt><trkpt lat="45.289401" lon="-90.453955"></trkpt><trkpt lat="45.288895" lon="-90.454055"></trkpt><trkpt lat="45.288139" lon="-90.453864"></trkpt><trkpt lat="45.287759" lon="-90.453962"></trkpt><trkpt lat="45.287126" lon="-90.453844"></trkpt><trkpt lat="45.286373" lon="-90.453985"></trkpt><trkpt lat="45.285963" lon="-90.453767"></trkpt><trkpt lat="45.285071" lon="-90.452928"></trkpt><trkpt lat="45.284806" lon="-90.452354"></trkpt><trkpt lat="45.284551" lon="-90.451991"></trkpt><trkpt lat="45.284347" lon="-90.451302"></trkpt><trkpt lat="45.284325" lon="-90.450683"></trkpt><trkpt lat="45.284387" lon="-90.450218"></trkpt><trkpt lat="45.284605" lon="-90.450021"></trkpt><trkpt lat="45.284662" lon="-90.449834"></trkpt><trkpt lat="45.284616" lon="-90.449317"></trkpt><trkpt lat="45.284539" lon="-90.449208"></trkpt><trkpt lat="45.284307" lon="-90.449172"></trkpt><trkpt lat="45.284094" lon="-90.449290"></trkpt><trkpt lat="45.283974" lon="-90.449249"></trkpt><trkpt lat="45.283751" lon="-90.449009"></trkpt><trkpt lat="45.283562" lon="-90.449029"></trkpt><trkpt lat="45.283081" lon="-90.449869"></trkpt><trkpt lat="45.282964" lon="-90.449911"></trkpt><trkpt lat="45.282752" lon="-90.449838"></trkpt><trkpt lat="45.282514" lon="-90.449265"></trkpt><trkpt lat="45.282078" lon="-90.449103"></trkpt><trkpt lat="45.281166" lon="-90.449360"></trkpt><trkpt lat="45.281053" lon="-90.449158"></trkpt><trkpt lat="45.281079" lon="-90.448902"></trkpt><trkpt lat="45.281460" lon="-90.448179"></trkpt><trkpt lat="45.281496" lon="-90.447664"></trkpt><trkpt lat="45.281202" lon="-90.447083"></trkpt><trkpt lat="45.281125" lon="-90.446678"></trkpt><trkpt lat="45.280787" lon="-90.445669"></trkpt><trkpt lat="45.280527" lon="-90.445120"></trkpt><trkpt lat="45.280509" lon="-90.444537"></trkpt><trkpt lat="45.280420" lon="-90.444197"></trkpt><trkpt lat="45.280201" lon="-90.443834"></trkpt><trkpt lat="45.279592" lon="-90.442307"></trkpt><trkpt lat="45.278831" lon="-90.442230"></trkpt><trkpt lat="45.278223" lon="-90.441861"></trkpt><trkpt lat="45.277707" lon="-90.441209"></trkpt><trkpt lat="45.277149" lon="-90.441527"></trkpt><trkpt lat="45.276942" lon="-90.441518"></trkpt><trkpt lat="45.276742" lon="-90.441247"></trkpt><trkpt lat="45.276407" lon="-90.441046"></trkpt><trkpt lat="45.275639" lon="-90.440057"></trkpt><trkpt lat="45.275337" lon="-90.439867"></trkpt><trkpt lat="45.274341" lon="-90.439857"></trkpt><trkpt lat="45.274117" lon="-90.439966"></trkpt><trkpt lat="45.273593" lon="-90.440016"></trkpt><trkpt lat="45.273159" lon="-90.440197"></trkpt><trkpt lat="45.272794" lon="-90.440234"></trkpt><trkpt lat="45.272246" lon="-90.440117"></trkpt><trkpt lat="45.271144" lon="-90.439171"></trkpt><trkpt lat="45.270726" lon="-90.439123"></trkpt><trkpt lat="45.270371" lon="-90.439281"></trkpt><trkpt lat="45.270257" lon="-90.439227"></trkpt><trkpt lat="45.270270" lon="-90.438983"></trkpt><trkpt lat="45.270580" lon="-90.438262"></trkpt><trkpt lat="45.270578" lon="-90.437956"></trkpt><trkpt lat="45.270256" lon="-90.437245"></trkpt><trkpt lat="45.270191" lon="-90.436934"></trkpt><trkpt lat="45.270208" lon="-90.436370"></trkpt><trkpt lat="45.270323" lon="-90.435885"></trkpt><trkpt lat="45.270205" lon="-90.435760"></trkpt><trkpt lat="45.269607" lon="-90.435517"></trkpt><trkpt lat="45.269193" lon="-90.435625"></trkpt><trkpt lat="45.268930" lon="-90.435544"></trkpt><trkpt lat="45.268139" lon="-90.434658"></trkpt><trkpt lat="45.268072" lon="-90.434248"></trkpt><trkpt lat="45.268115" lon="-90.433354"></trkpt><trkpt lat="45.267800" lon="-90.432334"></trkpt><trkpt lat="45.267522" lon="-90.431872"></trkpt><trkpt lat="45.267290" lon="-90.431189"></trkpt><trkpt lat="45.266561" lon="-90.430018"></trkpt><trkpt lat="45.266273" lon="-90.429438"></trkpt><trkpt lat="45.266128" lon="-90.429302"></trkpt><trkpt lat="45.265854" lon="-90.429213"></trkpt><trkpt lat="45.265670" lon="-90.429308"></trkpt><trkpt lat="45.265416" lon="-90.429645"></trkpt><trkpt lat="45.265040" lon="-90.429714"></trkpt><trkpt lat="45.264834" lon="-90.429625"></trkpt><trkpt lat="45.263552" lon="-90.428324"></trkpt><trkpt lat="45.263031" lon="-90.428320"></trkpt><trkpt lat="45.262288" lon="-90.427447"></trkpt><trkpt lat="45.261810" lon="-90.427010"></trkpt><trkpt lat="45.261523" lon="-90.426628"></trkpt><trkpt lat="45.261247" lon="-90.426003"></trkpt><trkpt lat="45.261330" lon="-90.425286"></trkpt><trkpt lat="45.261688" lon="-90.424798"></trkpt><trkpt lat="45.262179" lon="-90.424400"></trkpt><trkpt lat="45.262325" lon="-90.424129"></trkpt><trkpt lat="45.262300" lon="-90.423527"></trkpt><trkpt lat="45.262599" lon="-90.423198"></trkpt><trkpt lat="45.262966" lon="-90.423172"></trkpt><trkpt lat="45.263377" lon="-90.423052"></trkpt><trkpt lat="45.264321" lon="-90.422971"></trkpt><trkpt lat="45.265191" lon="-90.423237"></trkpt><trkpt lat="45.265407" lon="-90.423227"></trkpt><trkpt lat="45.266430" lon="-90.422889"></trkpt><trkpt lat="45.266711" lon="-90.422620"></trkpt><trkpt lat="45.267152" lon="-90.421350"></trkpt><trkpt lat="45.267718" lon="-90.420721"></trkpt><trkpt lat="45.267823" lon="-90.420525"></trkpt><trkpt lat="45.267819" lon="-90.420299"></trkpt><trkpt lat="45.267639" lon="-90.419675"></trkpt><trkpt lat="45.267497" lon="-90.419521"></trkpt><trkpt lat="45.267172" lon="-90.419577"></trkpt><trkpt lat="45.266793" lon="-90.419055"></trkpt><trkpt lat="45.266434" lon="-90.418935"></trkpt><trkpt lat="45.266128" lon="-90.418614"></trkpt><trkpt lat="45.265716" lon="-90.417902"></trkpt><trkpt lat="45.265580" lon="-90.417819"></trkpt><trkpt lat="45.265472" lon="-90.417646"></trkpt><trkpt lat="45.265479" lon="-90.417302"></trkpt><trkpt lat="45.265555" lon="-90.417087"></trkpt><trkpt lat="45.266032" lon="-90.416429"></trkpt><trkpt lat="45.266253" lon="-90.415586"></trkpt><trkpt lat="45.266259" lon="-90.415199"></trkpt><trkpt lat="45.266019" lon="-90.415082"></trkpt><trkpt lat="45.265909" lon="-90.414835"></trkpt><trkpt lat="45.265855" lon="-90.414358"></trkpt><trkpt lat="45.266002" lon="-90.413614"></trkpt><trkpt lat="45.266269" lon="-90.413204"></trkpt><trkpt lat="45.266408" lon="-90.412464"></trkpt><trkpt lat="45.266591" lon="-90.412193"></trkpt><trkpt lat="45.266686" lon="-90.411907"></trkpt><trkpt lat="45.266694" lon="-90.411668"></trkpt><trkpt lat="45.266504" lon="-90.411089"></trkpt><trkpt lat="45.266455" lon="-90.410681"></trkpt><trkpt lat="45.266465" lon="-90.410373"></trkpt><trkpt lat="45.266703" lon="-90.409572"></trkpt><trkpt lat="45.266648" lon="-90.409415"></trkpt><trkpt lat="45.266524" lon="-90.409286"></trkpt><trkpt lat="45.265966" lon="-90.408146"></trkpt><trkpt lat="45.265914" lon="-90.407909"></trkpt><trkpt lat="45.265344" lon="-90.407379"></trkpt><trkpt lat="45.265164" lon="-90.407533"></trkpt><trkpt lat="45.264915" lon="-90.407531"></trkpt><trkpt lat="45.264750" lon="-90.407461"></trkpt><trkpt lat="45.264600" lon="-90.407298"></trkpt><trkpt lat="45.264509" lon="-90.406911"></trkpt><trkpt lat="45.264228" lon="-90.406331"></trkpt><trkpt lat="45.263189" lon="-90.405628"></trkpt><trkpt lat="45.261890" lon="-90.405374"></trkpt><trkpt lat="45.261299" lon="-90.405062"></trkpt><trkpt lat="45.261062" lon="-90.404806"></trkpt><trkpt lat="45.260745" lon="-90.402916"></trkpt><trkpt lat="45.261150" lon="-90.401363"></trkpt><trkpt lat="45.261131" lon="-90.400699"></trkpt><trkpt lat="45.261408" lon="-90.400669"></trkpt><trkpt lat="45.261712" lon="-90.400427"></trkpt><trkpt lat="45.261850" lon="-90.400178"></trkpt><trkpt lat="45.261936" lon="-90.399771"></trkpt><trkpt lat="45.261872" lon="-90.399497"></trkpt><trkpt lat="45.261435" lon="-90.398617"></trkpt><trkpt lat="45.261608" lon="-90.397810"></trkpt><trkpt lat="45.261827" lon="-90.397163"></trkpt><trkpt lat="45.261840" lon="-90.396744"></trkpt><trkpt lat="45.261980" lon="-90.396233"></trkpt><trkpt lat="45.262102" lon="-90.396015"></trkpt><trkpt lat="45.263283" lon="-90.395091"></trkpt><trkpt lat="45.263316" lon="-90.394217"></trkpt><trkpt lat="45.263194" lon="-90.393286"></trkpt><trkpt lat="45.262865" lon="-90.392598"></trkpt><trkpt lat="45.262799" lon="-90.391647"></trkpt><trkpt lat="45.262677" lon="-90.390980"></trkpt><trkpt lat="45.262900" lon="-90.390512"></trkpt><trkpt lat="45.263021" lon="-90.389308"></trkpt><trkpt lat="45.263362" lon="-90.388840"></trkpt><trkpt lat="45.263385" lon="-90.376992"></trkpt><trkpt lat="45.264392" lon="-90.376495"></trkpt><trkpt lat="45.265413" lon="-90.375522"></trkpt><trkpt lat="45.267029" lon="-90.376120"></trkpt><trkpt lat="45.267395" lon="-90.376475"></trkpt><trkpt lat="45.267863" lon="-90.376529"></trkpt><trkpt lat="45.268282" lon="-90.376409"></trkpt><trkpt lat="45.268558" lon="-90.376186"></trkpt><trkpt lat="45.268893" lon="-90.375553"></trkpt><trkpt lat="45.269197" lon="-90.375392"></trkpt><trkpt lat="45.269457" lon="-90.375393"></trkpt><trkpt lat="45.269775" lon="-90.375518"></trkpt><trkpt lat="45.270482" lon="-90.375973"></trkpt><trkpt lat="45.270901" lon="-90.376038"></trkpt><trkpt lat="45.271553" lon="-90.375735"></trkpt><trkpt lat="45.271699" lon="-90.375306"></trkpt><trkpt lat="45.272048" lon="-90.374714"></trkpt><trkpt lat="45.272283" lon="-90.373548"></trkpt><trkpt lat="45.272589" lon="-90.372915"></trkpt><trkpt lat="45.272973" lon="-90.372625"></trkpt><trkpt lat="45.273134" lon="-90.372325"></trkpt><trkpt lat="45.273438" lon="-90.371306"></trkpt><trkpt lat="45.273364" lon="-90.370053"></trkpt><trkpt lat="45.274458" lon="-90.367903"></trkpt><trkpt lat="45.274068" lon="-90.367170"></trkpt><trkpt lat="45.274022" lon="-90.366554"></trkpt><trkpt lat="45.273499" lon="-90.365738"></trkpt><trkpt lat="45.273113" lon="-90.365527"></trkpt><trkpt lat="45.272469" lon="-90.365892"></trkpt><trkpt lat="45.272138" lon="-90.365940"></trkpt><trkpt lat="45.271931" lon="-90.365860"></trkpt><trkpt lat="45.271762" lon="-90.365673"></trkpt><trkpt lat="45.271288" lon="-90.364833"></trkpt><trkpt lat="45.271199" lon="-90.364423"></trkpt><trkpt lat="45.271587" lon="-90.362584"></trkpt><trkpt lat="45.271494" lon="-90.361724"></trkpt><trkpt lat="45.271247" lon="-90.361304"></trkpt><trkpt lat="45.270511" lon="-90.361576"></trkpt><trkpt lat="45.270071" lon="-90.361646"></trkpt><trkpt lat="45.269883" lon="-90.361301"></trkpt><trkpt lat="45.269887" lon="-90.360669"></trkpt><trkpt lat="45.270015" lon="-90.359792"></trkpt><trkpt lat="45.270176" lon="-90.359182"></trkpt><trkpt lat="45.270171" lon="-90.358945"></trkpt><trkpt lat="45.269938" lon="-90.358663"></trkpt><trkpt lat="45.269371" lon="-90.358764"></trkpt><trkpt lat="45.269170" lon="-90.358700"></trkpt><trkpt lat="45.268648" lon="-90.358307"></trkpt><trkpt lat="45.268516" lon="-90.358092"></trkpt><trkpt lat="45.268274" lon="-90.356952"></trkpt><trkpt lat="45.268528" lon="-90.356312"></trkpt><trkpt lat="45.268061" lon="-90.355611"></trkpt><trkpt lat="45.267424" lon="-90.355661"></trkpt><trkpt lat="45.266792" lon="-90.355557"></trkpt><trkpt lat="45.266131" lon="-90.355656"></trkpt><trkpt lat="45.265753" lon="-90.355342"></trkpt><trkpt lat="45.265365" lon="-90.354806"></trkpt><trkpt lat="45.265180" lon="-90.354898"></trkpt><trkpt lat="45.265109" lon="-90.355005"></trkpt><trkpt lat="45.265014" lon="-90.355682"></trkpt><trkpt lat="45.264426" lon="-90.356129"></trkpt><trkpt lat="45.264137" lon="-90.356770"></trkpt><trkpt lat="45.263736" lon="-90.356751"></trkpt><trkpt lat="45.263050" lon="-90.356844"></trkpt><trkpt lat="45.262484" lon="-90.356758"></trkpt><trkpt lat="45.262350" lon="-90.356875"></trkpt><trkpt lat="45.261807" lon="-90.357915"></trkpt><trkpt lat="45.261554" lon="-90.358259"></trkpt><trkpt lat="45.261280" lon="-90.358498"></trkpt><trkpt lat="45.260924" lon="-90.359015"></trkpt><trkpt lat="45.260786" lon="-90.359529"></trkpt><trkpt lat="45.260632" lon="-90.359503"></trkpt><trkpt lat="45.260297" lon="-90.359788"></trkpt><trkpt lat="45.259966" lon="-90.359821"></trkpt><trkpt lat="45.259616" lon="-90.359347"></trkpt><trkpt lat="45.259283" lon="-90.359183"></trkpt><trkpt lat="45.258800" lon="-90.358342"></trkpt><trkpt lat="45.258868" lon="-90.357584"></trkpt><trkpt lat="45.258367" lon="-90.356746"></trkpt><trkpt lat="45.258196" lon="-90.353970"></trkpt><trkpt lat="45.258086" lon="-90.353644"></trkpt><trkpt lat="45.257844" lon="-90.353471"></trkpt><trkpt lat="45.257882" lon="-90.353238"></trkpt></trkseg></trk><trk><name>T009 LO570AE</name><trkseg><trkpt lat="45.333345" lon="-90.451965"></trkpt><trkpt lat="45.333856" lon="-90.451376"></trkpt><trkpt lat="45.334100" lon="-90.451218"></trkpt><trkpt lat="45.334573" lon="-90.451088"></trkpt><trkpt lat="45.334627" lon="-90.450306"></trkpt><trkpt lat="45.334546" lon="-90.449854"></trkpt><trkpt lat="45.333694" lon="-90.448028"></trkpt><trkpt lat="45.333981" lon="-90.447295"></trkpt><trkpt lat="45.334625" lon="-90.446691"></trkpt><trkpt lat="45.335268" lon="-90.445366"></trkpt><trkpt lat="45.335321" lon="-90.445004"></trkpt><trkpt lat="45.335242" lon="-90.444567"></trkpt><trkpt lat="45.334841" lon="-90.444119"></trkpt><trkpt lat="45.334415" lon="-90.443855"></trkpt><trkpt lat="45.334381" lon="-90.443292"></trkpt><trkpt lat="45.334000" lon="-90.441150"></trkpt><trkpt lat="45.333790" lon="-90.440386"></trkpt><trkpt lat="45.334085" lon="-90.440279"></trkpt><trkpt lat="45.334484" lon="-90.439989"></trkpt><trkpt lat="45.335196" lon="-90.438640"></trkpt><trkpt lat="45.335482" lon="-90.438357"></trkpt><trkpt lat="45.335396" lon="-90.437514"></trkpt><trkpt lat="45.335266" lon="-90.437361"></trkpt><trkpt lat="45.335230" lon="-90.437132"></trkpt><trkpt lat="45.335303" lon="-90.436408"></trkpt><trkpt lat="45.334449" lon="-90.435230"></trkpt><trkpt lat="45.334172" lon="-90.434522"></trkpt><trkpt lat="45.333836" lon="-90.433997"></trkpt><trkpt lat="45.333582" lon="-90.433092"></trkpt><trkpt lat="45.333630" lon="-90.432170"></trkpt><trkpt lat="45.333821" lon="-90.432059"></trkpt><trkpt lat="45.333834" lon="-90.431629"></trkpt><trkpt lat="45.336160" lon="-90.425290"></trkpt><trkpt lat="45.335698" lon="-90.424150"></trkpt><trkpt lat="45.335682" lon="-90.423686"></trkpt><trkpt lat="45.335484" lon="-90.423091"></trkpt><trkpt lat="45.334218" lon="-90.421381"></trkpt><trkpt lat="45.333948" lon="-90.420477"></trkpt><trkpt lat="45.333848" lon="-90.418080"></trkpt><trkpt lat="45.334284" lon="-90.413315"></trkpt><trkpt lat="45.334743" lon="-90.412004"></trkpt><trkpt lat="45.335461" lon="-90.409329"></trkpt><trkpt lat="45.335644" lon="-90.409150"></trkpt><trkpt lat="45.335826" lon="-90.409074"></trkpt><trkpt lat="45.336468" lon="-90.409149"></trkpt><trkpt lat="45.337117" lon="-90.408980"></trkpt><trkpt lat="45.337863" lon="-90.408247"></trkpt><trkpt lat="45.338250" lon="-90.408057"></trkpt><trkpt lat="45.338621" lon="-90.407748"></trkpt><trkpt lat="45.338826" lon="-90.407675"></trkpt><trkpt lat="45.339981" lon="-90.408455"></trkpt><trkpt lat="45.341007" lon="-90.409807"></trkpt><trkpt lat="45.342126" lon="-90.410726"></trkpt><trkpt lat="45.342807" lon="-90.411598"></trkpt><trkpt lat="45.343109" lon="-90.411578"></trkpt><trkpt lat="45.343839" lon="-90.410704"></trkpt><trkpt lat="45.344968" lon="-90.410154"></trkpt><trkpt lat="45.345188" lon="-90.409952"></trkpt><trkpt lat="45.345729" lon="-90.408947"></trkpt><trkpt lat="45.347437" lon="-90.407340"></trkpt><trkpt lat="45.347589" lon="-90.407051"></trkpt><trkpt lat="45.347746" lon="-90.405657"></trkpt><trkpt lat="45.348031" lon="-90.405540"></trkpt><trkpt lat="45.348541" lon="-90.405606"></trkpt><trkpt lat="45.349259" lon="-90.406366"></trkpt><trkpt lat="45.349589" lon="-90.406915"></trkpt><trkpt lat="45.349896" lon="-90.407162"></trkpt><trkpt lat="45.350236" lon="-90.407300"></trkpt><trkpt lat="45.351421" lon="-90.407184"></trkpt><trkpt lat="45.353503" lon="-90.403755"></trkpt><trkpt lat="45.353642" lon="-90.403608"></trkpt><trkpt lat="45.354868" lon="-90.403486"></trkpt><trkpt lat="45.355158" lon="-90.403389"></trkpt><trkpt lat="45.356294" lon="-90.402725"></trkpt><trkpt lat="45.356837" lon="-90.402696"></trkpt><trkpt lat="45.357218" lon="-90.403026"></trkpt><trkpt lat="45.359196" lon="-90.402745"></trkpt><trkpt lat="45.360120" lon="-90.403096"></trkpt><trkpt lat="45.360387" lon="-90.403016"></trkpt><trkpt lat="45.360538" lon="-90.402673"></trkpt><trkpt lat="45.360898" lon="-90.402216"></trkpt><trkpt lat="45.360911" lon="-90.402052"></trkpt><trkpt lat="45.360717" lon="-90.401181"></trkpt><trkpt lat="45.360755" lon="-90.400394"></trkpt><trkpt lat="45.360561" lon="-90.399638"></trkpt><trkpt lat="45.360529" lon="-90.398867"></trkpt><trkpt lat="45.360670" lon="-90.398015"></trkpt><trkpt lat="45.360585" lon="-90.395799"></trkpt><trkpt lat="45.360483" lon="-90.395257"></trkpt><trkpt lat="45.360476" lon="-90.394158"></trkpt><trkpt lat="45.360535" lon="-90.393584"></trkpt><trkpt lat="45.360640" lon="-90.393339"></trkpt><trkpt lat="45.361034" lon="-90.393325"></trkpt><trkpt lat="45.361853" lon="-90.393741"></trkpt><trkpt lat="45.362524" lon="-90.393828"></trkpt><trkpt lat="45.363994" lon="-90.393296"></trkpt><trkpt lat="45.364352" lon="-90.393479"></trkpt><trkpt lat="45.364803" lon="-90.393483"></trkpt><trkpt lat="45.365256" lon="-90.393108"></trkpt><trkpt lat="45.366551" lon="-90.393216"></trkpt><trkpt lat="45.366954" lon="-90.393579"></trkpt><trkpt lat="45.367417" lon="-90.393583"></trkpt><trkpt lat="45.367757" lon="-90.393748"></trkpt><trkpt lat="45.367831" lon="-90.393911"></trkpt><trkpt lat="45.367844" lon="-90.394299"></trkpt><trkpt lat="45.367620" lon="-90.394754"></trkpt><trkpt lat="45.367646" lon="-90.395042"></trkpt><trkpt lat="45.367914" lon="-90.395772"></trkpt><trkpt lat="45.368048" lon="-90.395984"></trkpt><trkpt lat="45.369324" lon="-90.396216"></trkpt><trkpt lat="45.369448" lon="-90.396339"></trkpt><trkpt lat="45.370307" lon="-90.396482"></trkpt><trkpt lat="45.370445" lon="-90.396449"></trkpt><trkpt lat="45.370603" lon="-90.396248"></trkpt><trkpt lat="45.370823" lon="-90.396122"></trkpt><trkpt lat="45.370728" lon="-90.395583"></trkpt><trkpt lat="45.370813" lon="-90.393774"></trkpt><trkpt lat="45.371167" lon="-90.392687"></trkpt><trkpt lat="45.371312" lon="-90.390935"></trkpt><trkpt lat="45.371397" lon="-90.382550"></trkpt><trkpt lat="45.371503" lon="-90.382066"></trkpt><trkpt lat="45.371514" lon="-90.380306"></trkpt><trkpt lat="45.371701" lon="-90.379640"></trkpt><trkpt lat="45.371707" lon="-90.379269"></trkpt><trkpt lat="45.371509" lon="-90.378155"></trkpt><trkpt lat="45.371579" lon="-90.374767"></trkpt><trkpt lat="45.371731" lon="-90.373742"></trkpt><trkpt lat="45.371950" lon="-90.370839"></trkpt><trkpt lat="45.372224" lon="-90.369281"></trkpt><trkpt lat="45.372637" lon="-90.368481"></trkpt><trkpt lat="45.372869" lon="-90.367874"></trkpt><trkpt lat="45.372964" lon="-90.367410"></trkpt><trkpt lat="45.373259" lon="-90.362612"></trkpt><trkpt lat="45.373167" lon="-90.362330"></trkpt><trkpt lat="45.371958" lon="-90.361172"></trkpt><trkpt lat="45.371912" lon="-90.360917"></trkpt><trkpt lat="45.372262" lon="-90.360061"></trkpt><trkpt lat="45.372092" lon="-90.359590"></trkpt><trkpt lat="45.372129" lon="-90.354346"></trkpt><trkpt lat="45.372361" lon="-90.353772"></trkpt><trkpt lat="45.372302" lon="-90.353492"></trkpt><trkpt lat="45.372298" lon="-90.352120"></trkpt><trkpt lat="45.372423" lon="-90.351988"></trkpt><trkpt lat="45.373392" lon="-90.351573"></trkpt><trkpt lat="45.373704" lon="-90.351525"></trkpt><trkpt lat="45.374473" lon="-90.351563"></trkpt><trkpt lat="45.374897" lon="-90.351848"></trkpt><trkpt lat="45.375157" lon="-90.352254"></trkpt><trkpt lat="45.375449" lon="-90.352322"></trkpt><trkpt lat="45.376185" lon="-90.351640"></trkpt></trkseg></trk><trk><name>T010 LO570AE</name><trkseg><trkpt lat="45.898243" lon="-90.176609"></trkpt><trkpt lat="45.898327" lon="-90.176766"></trkpt><trkpt lat="45.899966" lon="-90.177748"></trkpt><trkpt lat="45.900751" lon="-90.177865"></trkpt><trkpt lat="45.901228" lon="-90.177567"></trkpt><trkpt lat="45.901153" lon="-90.177196"></trkpt><trkpt lat="45.901630" lon="-90.176974"></trkpt><trkpt lat="45.902409" lon="-90.177794"></trkpt><trkpt lat="45.903122" lon="-90.177886"></trkpt><trkpt lat="45.903581" lon="-90.177817"></trkpt><trkpt lat="45.903899" lon="-90.177135"></trkpt><trkpt lat="45.904483" lon="-90.176836"></trkpt><trkpt lat="45.905663" lon="-90.176697"></trkpt><trkpt lat="45.905989" lon="-90.176009"></trkpt><trkpt lat="45.906427" lon="-90.175788"></trkpt><trkpt lat="45.906709" lon="-90.176275"></trkpt><trkpt lat="45.907076" lon="-90.176560"></trkpt><trkpt lat="45.908475" lon="-90.176605"></trkpt><trkpt lat="45.908971" lon="-90.176019"></trkpt><trkpt lat="45.908985" lon="-90.175683"></trkpt></trkseg></trk><trk><name>T011 LO570AE</name><trkseg><trkpt lat="46.145219" lon="-90.863670"></trkpt><trkpt lat="46.145378" lon="-90.864170"></trkpt><trkpt lat="46.145386" lon="-90.864610"></trkpt><trkpt lat="46.145162" lon="-90.866587"></trkpt><trkpt lat="46.145376" lon="-90.866942"></trkpt><trkpt lat="46.145548" lon="-90.867013"></trkpt><trkpt lat="46.145765" lon="-90.867030"></trkpt><trkpt lat="46.146769" lon="-90.866849"></trkpt><trkpt lat="46.146694" lon="-90.867296"></trkpt><trkpt lat="46.146680" lon="-90.868354"></trkpt><trkpt lat="46.146525" lon="-90.869215"></trkpt><trkpt lat="46.145982" lon="-90.869987"></trkpt><trkpt lat="46.144679" lon="-90.871227"></trkpt><trkpt lat="46.142592" lon="-90.871926"></trkpt><trkpt lat="46.142251" lon="-90.872164"></trkpt><trkpt lat="46.141297" lon="-90.873120"></trkpt><trkpt lat="46.142532" lon="-90.873934"></trkpt><trkpt lat="46.142767" lon="-90.874246"></trkpt><trkpt lat="46.143000" lon="-90.874692"></trkpt><trkpt lat="46.143227" lon="-90.875518"></trkpt><trkpt lat="46.143708" lon="-90.875978"></trkpt><trkpt lat="46.143921" lon="-90.876309"></trkpt><trkpt lat="46.144371" lon="-90.876300"></trkpt><trkpt lat="46.144701" lon="-90.876595"></trkpt><trkpt lat="46.144956" lon="-90.876507"></trkpt><trkpt lat="46.145513" lon="-90.876696"></trkpt><trkpt lat="46.146174" lon="-90.876186"></trkpt><trkpt lat="46.146445" lon="-90.876254"></trkpt><trkpt lat="46.146544" lon="-90.876505"></trkpt><trkpt lat="46.146374" lon="-90.877285"></trkpt><trkpt lat="46.146002" lon="-90.877820"></trkpt><trkpt lat="46.145579" lon="-90.878092"></trkpt><trkpt lat="46.145429" lon="-90.878258"></trkpt><trkpt lat="46.145361" lon="-90.878482"></trkpt><trkpt lat="46.145490" lon="-90.878634"></trkpt><trkpt lat="46.145700" lon="-90.879295"></trkpt><trkpt lat="46.145741" lon="-90.880978"></trkpt><trkpt lat="46.145814" lon="-90.881555"></trkpt><trkpt lat="46.146312" lon="-90.881925"></trkpt><trkpt lat="46.146635" lon="-90.882391"></trkpt><trkpt lat="46.146436" lon="-90.883063"></trkpt><trkpt lat="46.146446" lon="-90.883314"></trkpt><trkpt lat="46.147074" lon="-90.883968"></trkpt><trkpt lat="46.147606" lon="-90.884972"></trkpt><trkpt lat="46.147961" lon="-90.885165"></trkpt><trkpt lat="46.147656" lon="-90.885708"></trkpt><trkpt lat="46.147401" lon="-90.886559"></trkpt><trkpt lat="46.147302" lon="-90.887016"></trkpt><trkpt lat="46.147285" lon="-90.887474"></trkpt><trkpt lat="46.147091" lon="-90.888241"></trkpt><trkpt lat="46.147078" lon="-90.888684"></trkpt><trkpt lat="46.147593" lon="-90.889170"></trkpt><trkpt lat="46.147773" lon="-90.889965"></trkpt><trkpt lat="46.147784" lon="-90.890965"></trkpt><trkpt lat="46.147887" lon="-90.891164"></trkpt><trkpt lat="46.148724" lon="-90.891163"></trkpt><trkpt lat="46.149645" lon="-90.891316"></trkpt><trkpt lat="46.151925" lon="-90.892460"></trkpt><trkpt lat="46.158864" lon="-90.895899"></trkpt><trkpt lat="46.159362" lon="-90.896048"></trkpt><trkpt lat="46.160147" lon="-90.896161"></trkpt><trkpt lat="46.160597" lon="-90.896170"></trkpt><trkpt lat="46.161027" lon="-90.896011"></trkpt><trkpt lat="46.163369" lon="-90.901518"></trkpt><trkpt lat="46.164329" lon="-90.903992"></trkpt></trkseg></trk><trk><name>T012 LO570AE</name><trkseg><trkpt lat="45.921854" lon="-90.085261"></trkpt><trkpt lat="45.921633" lon="-90.085532"></trkpt><trkpt lat="45.921413" lon="-90.086076"></trkpt><trkpt lat="45.921734" lon="-90.087089"></trkpt><trkpt lat="45.921346" lon="-90.090103"></trkpt><trkpt lat="45.921392" lon="-90.091649"></trkpt><trkpt lat="45.921209" lon="-90.092251"></trkpt><trkpt lat="45.920481" lon="-90.093914"></trkpt><trkpt lat="45.920449" lon="-90.094321"></trkpt><trkpt lat="45.920314" lon="-90.094666"></trkpt><trkpt lat="45.920368" lon="-90.095211"></trkpt><trkpt lat="45.920549" lon="-90.095472"></trkpt><trkpt lat="45.921004" lon="-90.096546"></trkpt><trkpt lat="45.921250" lon="-90.096624"></trkpt><trkpt lat="45.921806" lon="-90.097392"></trkpt><trkpt lat="45.921898" lon="-90.098122"></trkpt><trkpt lat="45.921733" lon="-90.099072"></trkpt><trkpt lat="45.921515" lon="-90.099616"></trkpt><trkpt lat="45.921477" lon="-90.100390"></trkpt><trkpt lat="45.921626" lon="-90.101334"></trkpt><trkpt lat="45.921588" lon="-90.101840"></trkpt><trkpt lat="45.921357" lon="-90.102270"></trkpt><trkpt lat="45.921282" lon="-90.102829"></trkpt><trkpt lat="45.921298" lon="-90.103892"></trkpt><trkpt lat="45.920931" lon="-90.105759"></trkpt><trkpt lat="45.920776" lon="-90.106104"></trkpt><trkpt lat="45.920611" lon="-90.107208"></trkpt></trkseg></trk><trk><name>T013 LO570AE</name><trkseg><trkpt lat="45.981884" lon="-91.163462"></trkpt><trkpt lat="45.981856" lon="-91.160899"></trkpt><trkpt lat="45.982151" lon="-91.160876"></trkpt><trkpt lat="45.982398" lon="-91.160623"></trkpt><trkpt lat="45.982730" lon="-91.158850"></trkpt><trkpt lat="45.983110" lon="-91.158173"></trkpt><trkpt lat="45.983370" lon="-91.157515"></trkpt><trkpt lat="45.983869" lon="-91.154448"></trkpt><trkpt lat="45.983868" lon="-91.153571"></trkpt><trkpt lat="45.983607" lon="-91.152737"></trkpt><trkpt lat="45.983703" lon="-91.152532"></trkpt><trkpt lat="45.984254" lon="-91.152346"></trkpt><trkpt lat="45.984565" lon="-91.152122"></trkpt><trkpt lat="45.984862" lon="-91.151305"></trkpt><trkpt lat="45.984984" lon="-91.150450"></trkpt><trkpt lat="45.984898" lon="-91.149615"></trkpt><trkpt lat="45.984986" lon="-91.148997"></trkpt><trkpt lat="45.984887" lon="-91.148653"></trkpt><trkpt lat="45.984382" lon="-91.148244"></trkpt><trkpt lat="45.983943" lon="-91.147642"></trkpt><trkpt lat="45.983792" lon="-91.146863"></trkpt><trkpt lat="45.982946" lon="-91.146363"></trkpt><trkpt lat="45.982880" lon="-91.145621"></trkpt><trkpt lat="45.982971" lon="-91.145364"></trkpt><trkpt lat="45.983336" lon="-91.144879"></trkpt><trkpt lat="45.983607" lon="-91.144350"></trkpt><trkpt lat="45.983687" lon="-91.143830"></trkpt><trkpt lat="45.983981" lon="-91.143585"></trkpt><trkpt lat="45.984417" lon="-91.143010"></trkpt><trkpt lat="45.984948" lon="-91.142702"></trkpt><trkpt lat="45.985330" lon="-91.142422"></trkpt><trkpt lat="45.985440" lon="-91.142261"></trkpt><trkpt lat="45.985900" lon="-91.142055"></trkpt><trkpt lat="45.986062" lon="-91.142025"></trkpt><trkpt lat="45.986988" lon="-91.142541"></trkpt><trkpt lat="45.987137" lon="-91.142531"></trkpt><trkpt lat="45.987516" lon="-91.142316"></trkpt><trkpt lat="45.988015" lon="-91.141718"></trkpt><trkpt lat="45.989101" lon="-91.141566"></trkpt><trkpt lat="45.989260" lon="-91.141629"></trkpt><trkpt lat="45.989872" lon="-91.141642"></trkpt><trkpt lat="45.990700" lon="-91.141929"></trkpt><trkpt lat="45.990844" lon="-91.141892"></trkpt><trkpt lat="45.991124" lon="-91.141446"></trkpt><trkpt lat="45.991246" lon="-91.140650"></trkpt><trkpt lat="45.991371" lon="-91.140538"></trkpt><trkpt lat="45.991732" lon="-91.140550"></trkpt><trkpt lat="45.991915" lon="-91.140230"></trkpt><trkpt lat="45.992507" lon="-91.139874"></trkpt><trkpt lat="45.992669" lon="-91.139838"></trkpt><trkpt lat="45.992793" lon="-91.139703"></trkpt><trkpt lat="45.993474" lon="-91.139564"></trkpt><trkpt lat="45.993637" lon="-91.139334"></trkpt><trkpt lat="45.993822" lon="-91.138823"></trkpt><trkpt lat="45.994114" lon="-91.138488"></trkpt><trkpt lat="45.994271" lon="-91.138439"></trkpt><trkpt lat="45.994621" lon="-91.137864"></trkpt><trkpt lat="45.995032" lon="-91.137669"></trkpt><trkpt lat="45.995279" lon="-91.137343"></trkpt><trkpt lat="45.995582" lon="-91.137166"></trkpt><trkpt lat="45.996068" lon="-91.137155"></trkpt><trkpt lat="45.996932" lon="-91.136914"></trkpt><trkpt lat="45.997691" lon="-91.136495"></trkpt><trkpt lat="45.998201" lon="-91.136076"></trkpt><trkpt lat="45.998897" lon="-91.134849"></trkpt><trkpt lat="45.999524" lon="-91.134428"></trkpt><trkpt lat="45.999621" lon="-91.134299"></trkpt><trkpt lat="46.000085" lon="-91.133209"></trkpt><trkpt lat="46.000322" lon="-91.132040"></trkpt><trkpt lat="46.000553" lon="-91.131537"></trkpt><trkpt lat="46.001099" lon="-91.131377"></trkpt><trkpt lat="46.001591" lon="-91.131456"></trkpt><trkpt lat="46.002325" lon="-91.131462"></trkpt><trkpt lat="46.003278" lon="-91.130844"></trkpt><trkpt lat="46.003699" lon="-91.130450"></trkpt><trkpt lat="46.004032" lon="-91.130483"></trkpt><trkpt lat="46.004528" lon="-91.130994"></trkpt><trkpt lat="46.005136" lon="-91.131962"></trkpt><trkpt lat="46.005671" lon="-91.132456"></trkpt><trkpt lat="46.006793" lon="-91.132564"></trkpt><trkpt lat="46.007498" lon="-91.132425"></trkpt><trkpt lat="46.008080" lon="-91.132563"></trkpt><trkpt lat="46.008237" lon="-91.132485"></trkpt><trkpt lat="46.008498" lon="-91.132483"></trkpt><trkpt lat="46.009360" lon="-91.132080"></trkpt><trkpt lat="46.009845" lon="-91.131756"></trkpt><trkpt lat="46.010395" lon="-91.131264"></trkpt><trkpt lat="46.010886" lon="-91.131028"></trkpt><trkpt lat="46.011555" lon="-91.130942"></trkpt><trkpt lat="46.012527" lon="-91.130959"></trkpt><trkpt lat="46.013808" lon="-91.131133"></trkpt><trkpt lat="46.014424" lon="-91.130801"></trkpt><trkpt lat="46.015801" lon="-91.130249"></trkpt><trkpt lat="46.016431" lon="-91.129698"></trkpt><trkpt lat="46.016963" lon="-91.129457"></trkpt><trkpt lat="46.017908" lon="-91.129221"></trkpt><trkpt lat="46.018786" lon="-91.128690"></trkpt><trkpt lat="46.019523" lon="-91.128354"></trkpt><trkpt lat="46.019833" lon="-91.128043"></trkpt><trkpt lat="46.020323" lon="-91.127740"></trkpt><trkpt lat="46.021109" lon="-91.127659"></trkpt><trkpt lat="46.022073" lon="-91.127428"></trkpt><trkpt lat="46.022347" lon="-91.127137"></trkpt><trkpt lat="46.022685" lon="-91.126335"></trkpt><trkpt lat="46.022610" lon="-91.125341"></trkpt><trkpt lat="46.022885" lon="-91.123398"></trkpt><trkpt lat="46.023087" lon="-91.123123"></trkpt><trkpt lat="46.024203" lon="-91.122827"></trkpt><trkpt lat="46.024560" lon="-91.122647"></trkpt><trkpt lat="46.024924" lon="-91.122349"></trkpt><trkpt lat="46.025299" lon="-91.121889"></trkpt><trkpt lat="46.025762" lon="-91.121613"></trkpt><trkpt lat="46.026004" lon="-91.121338"></trkpt></trkseg></trk><trk><name>T014 LO570AE</name><trkseg><trkpt lat="46.069818" lon="-91.157625"></trkpt><trkpt lat="46.069911" lon="-91.157341"></trkpt><trkpt lat="46.070033" lon="-91.155854"></trkpt><trkpt lat="46.069974" lon="-91.154829"></trkpt><trkpt lat="46.069848" lon="-91.154169"></trkpt><trkpt lat="46.069344" lon="-91.153480"></trkpt><trkpt lat="46.069087" lon="-91.152113"></trkpt><trkpt lat="46.069213" lon="-91.151215"></trkpt><trkpt lat="46.068900" lon="-91.150620"></trkpt><trkpt lat="46.068850" lon="-91.150313"></trkpt><trkpt lat="46.068936" lon="-91.148811"></trkpt><trkpt lat="46.069366" lon="-91.147594"></trkpt><trkpt lat="46.070176" lon="-91.147605"></trkpt><trkpt lat="46.070241" lon="-91.147294"></trkpt><trkpt lat="46.070672" lon="-91.146256"></trkpt><trkpt lat="46.070797" lon="-91.145395"></trkpt><trkpt lat="46.071139" lon="-91.144524"></trkpt><trkpt lat="46.071472" lon="-91.145524"></trkpt><trkpt lat="46.071788" lon="-91.145752"></trkpt><trkpt lat="46.071979" lon="-91.145802"></trkpt><trkpt lat="46.072139" lon="-91.145790"></trkpt><trkpt lat="46.072831" lon="-91.145356"></trkpt><trkpt lat="46.073449" lon="-91.145099"></trkpt><trkpt lat="46.073926" lon="-91.145193"></trkpt><trkpt lat="46.074411" lon="-91.144579"></trkpt><trkpt lat="46.074607" lon="-91.144430"></trkpt><trkpt lat="46.075981" lon="-91.144255"></trkpt><trkpt lat="46.076196" lon="-91.144158"></trkpt><trkpt lat="46.076540" lon="-91.143772"></trkpt><trkpt lat="46.076719" lon="-91.143662"></trkpt><trkpt lat="46.077435" lon="-91.143405"></trkpt><trkpt lat="46.078301" lon="-91.141915"></trkpt><trkpt lat="46.079168" lon="-91.140051"></trkpt></trkseg></trk><trk><name>T015 LO570AE</name><trkseg><trkpt lat="45.950446" lon="-90.251264"></trkpt><trkpt lat="45.951153" lon="-90.252588"></trkpt><trkpt lat="45.951634" lon="-90.253040"></trkpt><trkpt lat="45.952277" lon="-90.252999"></trkpt><trkpt lat="45.953020" lon="-90.252728"></trkpt><trkpt lat="45.953327" lon="-90.252071"></trkpt><trkpt lat="45.953695" lon="-90.251842"></trkpt><trkpt lat="45.954108" lon="-90.252031"></trkpt><trkpt lat="45.954942" lon="-90.251958"></trkpt><trkpt lat="45.955234" lon="-90.251509"></trkpt><trkpt lat="45.955735" lon="-90.249888"></trkpt><trkpt lat="45.955737" lon="-90.248999"></trkpt><trkpt lat="45.956995" lon="-90.247546"></trkpt><trkpt lat="45.958173" lon="-90.247375"></trkpt><trkpt lat="45.958586" lon="-90.246266"></trkpt></trkseg></trk><trk><name>T016 LO570AE</name><trkseg><trkpt lat="45.768369" lon="-89.037545"></trkpt><trkpt lat="45.767664" lon="-89.037727"></trkpt><trkpt lat="45.767530" lon="-89.037826"></trkpt><trkpt lat="45.767415" lon="-89.038341"></trkpt><trkpt lat="45.767217" lon="-89.038815"></trkpt><trkpt lat="45.766797" lon="-89.038790"></trkpt><trkpt lat="45.766024" lon="-89.039381"></trkpt><trkpt lat="45.765648" lon="-89.040082"></trkpt><trkpt lat="45.765380" lon="-89.040301"></trkpt><trkpt lat="45.765201" lon="-89.040325"></trkpt><trkpt lat="45.764959" lon="-89.040182"></trkpt><trkpt lat="45.764781" lon="-89.040236"></trkpt><trkpt lat="45.764644" lon="-89.039971"></trkpt><trkpt lat="45.764364" lon="-89.039644"></trkpt><trkpt lat="45.764200" lon="-89.039669"></trkpt><trkpt lat="45.763947" lon="-89.039801"></trkpt><trkpt lat="45.762997" lon="-89.040801"></trkpt><trkpt lat="45.761781" lon="-89.041006"></trkpt><trkpt lat="45.761422" lon="-89.041427"></trkpt><trkpt lat="45.761119" lon="-89.041536"></trkpt><trkpt lat="45.760778" lon="-89.041760"></trkpt><trkpt lat="45.760603" lon="-89.041970"></trkpt><trkpt lat="45.760373" lon="-89.042457"></trkpt><trkpt lat="45.759410" lon="-89.042952"></trkpt><trkpt lat="45.759090" lon="-89.043226"></trkpt><trkpt lat="45.759007" lon="-89.043877"></trkpt><trkpt lat="45.759036" lon="-89.044268"></trkpt><trkpt lat="45.758920" lon="-89.044698"></trkpt><trkpt lat="45.758621" lon="-89.045097"></trkpt><trkpt lat="45.758412" lon="-89.045692"></trkpt><trkpt lat="45.758346" lon="-89.046123"></trkpt><trkpt lat="45.758069" lon="-89.046726"></trkpt><trkpt lat="45.757787" lon="-89.047028"></trkpt><trkpt lat="45.757355" lon="-89.047196"></trkpt><trkpt lat="45.757187" lon="-89.047451"></trkpt></trkseg></trk><trk><name>T017 LO570AE</name><trkseg><trkpt lat="45.894600" lon="-90.305302"></trkpt><trkpt lat="45.894765" lon="-90.305233"></trkpt><trkpt lat="45.895195" lon="-90.304800"></trkpt><trkpt lat="45.896223" lon="-90.304486"></trkpt><trkpt lat="45.898265" lon="-90.304765"></trkpt><trkpt lat="45.898979" lon="-90.304652"></trkpt><trkpt lat="45.899270" lon="-90.304736"></trkpt><trkpt lat="45.899605" lon="-90.304738"></trkpt><trkpt lat="45.900074" lon="-90.306202"></trkpt><trkpt lat="45.900208" lon="-90.306112"></trkpt><trkpt lat="45.900959" lon="-90.305923"></trkpt><trkpt lat="45.901251" lon="-90.306696"></trkpt><trkpt lat="45.901579" lon="-90.306883"></trkpt><trkpt lat="45.902170" lon="-90.306911"></trkpt><trkpt lat="45.903068" lon="-90.306623"></trkpt><trkpt lat="45.903652" lon="-90.306015"></trkpt><trkpt lat="45.903951" lon="-90.305984"></trkpt><trkpt lat="45.904587" lon="-90.306086"></trkpt><trkpt lat="45.904914" lon="-90.306211"></trkpt><trkpt lat="45.905124" lon="-90.306174"></trkpt><trkpt lat="45.905614" lon="-90.305812"></trkpt><trkpt lat="45.906216" lon="-90.305890"></trkpt><trkpt lat="45.906377" lon="-90.306063"></trkpt><trkpt lat="45.906508" lon="-90.306064"></trkpt><trkpt lat="45.906726" lon="-90.305799"></trkpt><trkpt lat="45.907181" lon="-90.305796"></trkpt></trkseg></trk><trk><name>T018 LO570AE</name><trkseg><trkpt lat="45.907509" lon="-90.305540"></trkpt><trkpt lat="45.907717" lon="-90.305641"></trkpt><trkpt lat="45.908266" lon="-90.305359"></trkpt><trkpt lat="45.908536" lon="-90.305048"></trkpt><trkpt lat="45.908710" lon="-90.304432"></trkpt><trkpt lat="45.908928" lon="-90.304220"></trkpt><trkpt lat="45.909531" lon="-90.304117"></trkpt><trkpt lat="45.910807" lon="-90.303440"></trkpt><trkpt lat="45.910967" lon="-90.303270"></trkpt><trkpt lat="45.911220" lon="-90.302793"></trkpt><trkpt lat="45.912931" lon="-90.302385"></trkpt><trkpt lat="45.913212" lon="-90.302510"></trkpt><trkpt lat="45.915472" lon="-90.304387"></trkpt><trkpt lat="45.915643" lon="-90.304738"></trkpt><trkpt lat="45.915979" lon="-90.305828"></trkpt><trkpt lat="45.916750" lon="-90.307016"></trkpt><trkpt lat="45.917784" lon="-90.307847"></trkpt><trkpt lat="45.918918" lon="-90.309123"></trkpt><trkpt lat="45.920362" lon="-90.309822"></trkpt><trkpt lat="45.920693" lon="-90.309884"></trkpt></trkseg></trk><trk><name>T019 LO570AE</name><trkseg><trkpt lat="45.926781" lon="-90.307529"></trkpt><trkpt lat="45.925643" lon="-90.308051"></trkpt><trkpt lat="45.925277" lon="-90.307967"></trkpt><trkpt lat="45.924744" lon="-90.307578"></trkpt><trkpt lat="45.924233" lon="-90.307739"></trkpt><trkpt lat="45.923153" lon="-90.308300"></trkpt><trkpt lat="45.922270" lon="-90.308386"></trkpt><trkpt lat="45.921914" lon="-90.308630"></trkpt><trkpt lat="45.921395" lon="-90.309712"></trkpt><trkpt lat="45.921251" lon="-90.309876"></trkpt><trkpt lat="45.921004" lon="-90.309965"></trkpt><trkpt lat="45.920693" lon="-90.309885"></trkpt></trkseg></trk><trk><name>T020 LO570AE</name><trkseg><trkpt lat="46.195096" lon="-91.011244"></trkpt><trkpt lat="46.196299" lon="-91.011130"></trkpt><trkpt lat="46.196906" lon="-91.010823"></trkpt><trkpt lat="46.197198" lon="-91.010541"></trkpt><trkpt lat="46.197484" lon="-91.009921"></trkpt><trkpt lat="46.197659" lon="-91.009359"></trkpt><trkpt lat="46.198143" lon="-91.008484"></trkpt><trkpt lat="46.198944" lon="-91.007457"></trkpt><trkpt lat="46.200541" lon="-91.006129"></trkpt><trkpt lat="46.200942" lon="-91.005869"></trkpt><trkpt lat="46.201506" lon="-91.005732"></trkpt><trkpt lat="46.203907" lon="-91.005593"></trkpt><trkpt lat="46.204753" lon="-91.005602"></trkpt><trkpt lat="46.207254" lon="-91.006561"></trkpt><trkpt lat="46.207788" lon="-91.006711"></trkpt><trkpt lat="46.208020" lon="-91.006624"></trkpt><trkpt lat="46.209581" lon="-91.005790"></trkpt><trkpt lat="46.210747" lon="-91.005074"></trkpt><trkpt lat="46.211899" lon="-91.004578"></trkpt><trkpt lat="46.212561" lon="-91.004391"></trkpt><trkpt lat="46.213872" lon="-91.004131"></trkpt><trkpt lat="46.217991" lon="-91.002944"></trkpt><trkpt lat="46.218993" lon="-91.003128"></trkpt><trkpt lat="46.219743" lon="-91.002751"></trkpt><trkpt lat="46.221402" lon="-91.002432"></trkpt><trkpt lat="46.222590" lon="-91.001922"></trkpt><trkpt lat="46.223205" lon="-91.001563"></trkpt><trkpt lat="46.224326" lon="-91.000142"></trkpt><trkpt lat="46.226306" lon="-90.997047"></trkpt><trkpt lat="46.227286" lon="-90.995592"></trkpt><trkpt lat="46.227571" lon="-90.995269"></trkpt><trkpt lat="46.228950" lon="-90.993536"></trkpt><trkpt lat="46.229402" lon="-90.993090"></trkpt><trkpt lat="46.231234" lon="-90.991843"></trkpt><trkpt lat="46.231819" lon="-90.991329"></trkpt><trkpt lat="46.232797" lon="-90.990671"></trkpt><trkpt lat="46.233599" lon="-90.990226"></trkpt><trkpt lat="46.234350" lon="-90.989940"></trkpt><trkpt lat="46.234971" lon="-90.989904"></trkpt><trkpt lat="46.236207" lon="-90.990053"></trkpt><trkpt lat="46.237183" lon="-90.989810"></trkpt><trkpt lat="46.238066" lon="-90.989350"></trkpt><trkpt lat="46.238474" lon="-90.988972"></trkpt><trkpt lat="46.239388" lon="-90.986681"></trkpt><trkpt lat="46.240133" lon="-90.985102"></trkpt><trkpt lat="46.240705" lon="-90.984352"></trkpt><trkpt lat="46.241049" lon="-90.985576"></trkpt><trkpt lat="46.241475" lon="-90.987764"></trkpt><trkpt lat="46.241648" lon="-90.989028"></trkpt><trkpt lat="46.241658" lon="-90.989916"></trkpt><trkpt lat="46.242038" lon="-90.989997"></trkpt><trkpt lat="46.242235" lon="-90.989964"></trkpt><trkpt lat="46.242816" lon="-90.989216"></trkpt><trkpt lat="46.243214" lon="-90.988812"></trkpt><trkpt lat="46.244335" lon="-90.988577"></trkpt><trkpt lat="46.245280" lon="-90.988607"></trkpt><trkpt lat="46.245725" lon="-90.988318"></trkpt><trkpt lat="46.246210" lon="-90.988223"></trkpt><trkpt lat="46.247100" lon="-90.987684"></trkpt><trkpt lat="46.247297" lon="-90.987638"></trkpt><trkpt lat="46.248493" lon="-90.988061"></trkpt><trkpt lat="46.249350" lon="-90.988679"></trkpt><trkpt lat="46.249695" lon="-90.988848"></trkpt><trkpt lat="46.250735" lon="-90.989147"></trkpt><trkpt lat="46.251279" lon="-90.989867"></trkpt><trkpt lat="46.251709" lon="-90.990266"></trkpt><trkpt lat="46.251953" lon="-90.990335"></trkpt><trkpt lat="46.252556" lon="-90.990339"></trkpt><trkpt lat="46.252859" lon="-90.990185"></trkpt><trkpt lat="46.253649" lon="-90.989533"></trkpt><trkpt lat="46.254856" lon="-90.989074"></trkpt><trkpt lat="46.256353" lon="-90.987748"></trkpt><trkpt lat="46.257228" lon="-90.986328"></trkpt><trkpt lat="46.257685" lon="-90.985195"></trkpt><trkpt lat="46.257836" lon="-90.985086"></trkpt><trkpt lat="46.258256" lon="-90.984902"></trkpt><trkpt lat="46.259242" lon="-90.984645"></trkpt><trkpt lat="46.260832" lon="-90.984003"></trkpt><trkpt lat="46.261889" lon="-90.983704"></trkpt><trkpt lat="46.262243" lon="-90.983636"></trkpt><trkpt lat="46.263724" lon="-90.983637"></trkpt><trkpt lat="46.263983" lon="-90.983511"></trkpt><trkpt lat="46.264594" lon="-90.982956"></trkpt><trkpt lat="46.264916" lon="-90.982854"></trkpt><trkpt lat="46.265120" lon="-90.982664"></trkpt><trkpt lat="46.265304" lon="-90.982359"></trkpt><trkpt lat="46.265500" lon="-90.981781"></trkpt><trkpt lat="46.265436" lon="-90.981174"></trkpt><trkpt lat="46.265253" lon="-90.980505"></trkpt><trkpt lat="46.265346" lon="-90.980165"></trkpt><trkpt lat="46.266044" lon="-90.979438"></trkpt><trkpt lat="46.266792" lon="-90.978489"></trkpt><trkpt lat="46.267193" lon="-90.978254"></trkpt><trkpt lat="46.267622" lon="-90.978095"></trkpt><trkpt lat="46.268210" lon="-90.977736"></trkpt><trkpt lat="46.268351" lon="-90.977549"></trkpt><trkpt lat="46.268616" lon="-90.976787"></trkpt><trkpt lat="46.268855" lon="-90.976406"></trkpt><trkpt lat="46.269012" lon="-90.976267"></trkpt><trkpt lat="46.269346" lon="-90.974573"></trkpt><trkpt lat="46.269512" lon="-90.974284"></trkpt><trkpt lat="46.269892" lon="-90.974123"></trkpt><trkpt lat="46.270435" lon="-90.973748"></trkpt><trkpt lat="46.270444" lon="-90.973508"></trkpt></trkseg></trk><trk><name>T021 LO570AE</name><trkseg><trkpt lat="46.242038" lon="-90.989997"></trkpt><trkpt lat="46.243115" lon="-90.996340"></trkpt><trkpt lat="46.243701" lon="-91.000184"></trkpt><trkpt lat="46.243201" lon="-91.000885"></trkpt><trkpt lat="46.242953" lon="-91.001631"></trkpt><trkpt lat="46.243009" lon="-91.002271"></trkpt><trkpt lat="46.242930" lon="-91.002634"></trkpt><trkpt lat="46.241860" lon="-91.003506"></trkpt><trkpt lat="46.241604" lon="-91.004011"></trkpt><trkpt lat="46.241152" lon="-91.004657"></trkpt><trkpt lat="46.240899" lon="-91.004867"></trkpt><trkpt lat="46.240604" lon="-91.004994"></trkpt><trkpt lat="46.240090" lon="-91.005441"></trkpt></trkseg></trk><trk><name>T022 LO570AE</name><trkseg><trkpt lat="46.240129" lon="-91.005657"></trkpt><trkpt lat="46.240973" lon="-91.009388"></trkpt><trkpt lat="46.241633" lon="-91.011608"></trkpt><trkpt lat="46.242549" lon="-91.013080"></trkpt><trkpt lat="46.243803" lon="-91.014760"></trkpt><trkpt lat="46.244462" lon="-91.015955"></trkpt><trkpt lat="46.244725" lon="-91.016581"></trkpt><trkpt lat="46.244862" lon="-91.017199"></trkpt><trkpt lat="46.245022" lon="-91.019732"></trkpt><trkpt lat="46.245810" lon="-91.019866"></trkpt><trkpt lat="46.246827" lon="-91.020407"></trkpt><trkpt lat="46.247567" lon="-91.020658"></trkpt><trkpt lat="46.248351" lon="-91.020666"></trkpt><trkpt lat="46.248933" lon="-91.020570"></trkpt><trkpt lat="46.249284" lon="-91.020609"></trkpt><trkpt lat="46.249533" lon="-91.020770"></trkpt><trkpt lat="46.249948" lon="-91.020402"></trkpt><trkpt lat="46.255147" lon="-91.017075"></trkpt><trkpt lat="46.255434" lon="-91.017039"></trkpt><trkpt lat="46.257780" lon="-91.017356"></trkpt><trkpt lat="46.258022" lon="-91.017283"></trkpt><trkpt lat="46.257892" lon="-91.017605"></trkpt><trkpt lat="46.257916" lon="-91.018441"></trkpt><trkpt lat="46.258183" lon="-91.019084"></trkpt><trkpt lat="46.258521" lon="-91.019338"></trkpt><trkpt lat="46.258710" lon="-91.019606"></trkpt><trkpt lat="46.258924" lon="-91.020547"></trkpt><trkpt lat="46.258887" lon="-91.021254"></trkpt><trkpt lat="46.258710" lon="-91.021957"></trkpt><trkpt lat="46.258540" lon="-91.023816"></trkpt><trkpt lat="46.258197" lon="-91.025096"></trkpt><trkpt lat="46.257746" lon="-91.026044"></trkpt><trkpt lat="46.256300" lon="-91.027305"></trkpt><trkpt lat="46.255896" lon="-91.027840"></trkpt><trkpt lat="46.255313" lon="-91.028734"></trkpt><trkpt lat="46.254720" lon="-91.029850"></trkpt><trkpt lat="46.254542" lon="-91.030261"></trkpt><trkpt lat="46.254400" lon="-91.030820"></trkpt><trkpt lat="46.254485" lon="-91.031725"></trkpt><trkpt lat="46.254449" lon="-91.032107"></trkpt><trkpt lat="46.254200" lon="-91.032936"></trkpt><trkpt lat="46.254098" lon="-91.033102"></trkpt><trkpt lat="46.253769" lon="-91.033119"></trkpt><trkpt lat="46.253426" lon="-91.033360"></trkpt><trkpt lat="46.252799" lon="-91.034072"></trkpt><trkpt lat="46.252668" lon="-91.034310"></trkpt><trkpt lat="46.252851" lon="-91.035546"></trkpt><trkpt lat="46.253067" lon="-91.036117"></trkpt><trkpt lat="46.253075" lon="-91.036575"></trkpt><trkpt lat="46.252920" lon="-91.037290"></trkpt><trkpt lat="46.252971" lon="-91.037807"></trkpt><trkpt lat="46.253116" lon="-91.038273"></trkpt><trkpt lat="46.253322" lon="-91.038537"></trkpt><trkpt lat="46.253538" lon="-91.038674"></trkpt><trkpt lat="46.254138" lon="-91.038935"></trkpt><trkpt lat="46.255880" lon="-91.039996"></trkpt><trkpt lat="46.255583" lon="-91.040808"></trkpt><trkpt lat="46.255148" lon="-91.041397"></trkpt><trkpt lat="46.254559" lon="-91.041990"></trkpt><trkpt lat="46.254519" lon="-91.042267"></trkpt><trkpt lat="46.254127" lon="-91.043414"></trkpt><trkpt lat="46.254990" lon="-91.050687"></trkpt><trkpt lat="46.254434" lon="-91.067399"></trkpt><trkpt lat="46.255309" lon="-91.067442"></trkpt><trkpt lat="46.255236" lon="-91.073330"></trkpt><trkpt lat="46.255655" lon="-91.073418"></trkpt></trkseg></trk><trk><name>T023 LO570AE</name><trkseg><trkpt lat="46.257104" lon="-91.078684"></trkpt><trkpt lat="46.256898" lon="-91.077954"></trkpt><trkpt lat="46.256632" lon="-91.077384"></trkpt><trkpt lat="46.256622" lon="-91.075717"></trkpt><trkpt lat="46.256404" lon="-91.074789"></trkpt><trkpt lat="46.256126" lon="-91.074306"></trkpt><trkpt lat="46.255833" lon="-91.073508"></trkpt><trkpt lat="46.255703" lon="-91.073380"></trkpt></trkseg></trk><trk><name>T024 LO570AE</name><trkseg><trkpt lat="46.271435" lon="-91.072415"></trkpt><trkpt lat="46.271149" lon="-91.072559"></trkpt><trkpt lat="46.270690" lon="-91.073089"></trkpt><trkpt lat="46.270246" lon="-91.073444"></trkpt><trkpt lat="46.268913" lon="-91.073944"></trkpt><trkpt lat="46.268173" lon="-91.074078"></trkpt><trkpt lat="46.267756" lon="-91.073876"></trkpt><trkpt lat="46.267448" lon="-91.073803"></trkpt><trkpt lat="46.266835" lon="-91.073205"></trkpt><trkpt lat="46.266283" lon="-91.071922"></trkpt><trkpt lat="46.265873" lon="-91.071382"></trkpt><trkpt lat="46.265540" lon="-91.071120"></trkpt><trkpt lat="46.264768" lon="-91.070991"></trkpt><trkpt lat="46.264133" lon="-91.071195"></trkpt><trkpt lat="46.262596" lon="-91.072369"></trkpt><trkpt lat="46.261189" lon="-91.073796"></trkpt><trkpt lat="46.260714" lon="-91.074481"></trkpt><trkpt lat="46.260221" lon="-91.075636"></trkpt><trkpt lat="46.259830" lon="-91.076214"></trkpt><trkpt lat="46.258401" lon="-91.077972"></trkpt><trkpt lat="46.257868" lon="-91.078391"></trkpt><trkpt lat="46.257104" lon="-91.078685"></trkpt></trkseg></trk><trk><name>T025 LO570AE</name><trkseg><trkpt lat="46.199058" lon="-90.873777"></trkpt><trkpt lat="46.198642" lon="-90.872844"></trkpt><trkpt lat="46.198454" lon="-90.872685"></trkpt><trkpt lat="46.198201" lon="-90.872142"></trkpt><trkpt lat="46.198000" lon="-90.871955"></trkpt><trkpt lat="46.197638" lon="-90.871141"></trkpt><trkpt lat="46.197617" lon="-90.870264"></trkpt><trkpt lat="46.197442" lon="-90.870033"></trkpt><trkpt lat="46.197063" lon="-90.869755"></trkpt><trkpt lat="46.196919" lon="-90.869512"></trkpt><trkpt lat="46.196697" lon="-90.869404"></trkpt><trkpt lat="46.196532" lon="-90.868788"></trkpt><trkpt lat="46.196142" lon="-90.865693"></trkpt><trkpt lat="46.196289" lon="-90.863976"></trkpt><trkpt lat="46.196610" lon="-90.861890"></trkpt><trkpt lat="46.196954" lon="-90.860542"></trkpt><trkpt lat="46.196202" lon="-90.858193"></trkpt><trkpt lat="46.196428" lon="-90.857674"></trkpt><trkpt lat="46.196410" lon="-90.857354"></trkpt><trkpt lat="46.196272" lon="-90.857033"></trkpt><trkpt lat="46.196254" lon="-90.856626"></trkpt><trkpt lat="46.196358" lon="-90.856221"></trkpt><trkpt lat="46.196583" lon="-90.855876"></trkpt><trkpt lat="46.196785" lon="-90.855792"></trkpt><trkpt lat="46.197085" lon="-90.856029"></trkpt><trkpt lat="46.197427" lon="-90.856122"></trkpt><trkpt lat="46.197696" lon="-90.855942"></trkpt><trkpt lat="46.197961" lon="-90.854853"></trkpt><trkpt lat="46.197861" lon="-90.854706"></trkpt><trkpt lat="46.197469" lon="-90.853219"></trkpt><trkpt lat="46.196856" lon="-90.851613"></trkpt><trkpt lat="46.196455" lon="-90.851375"></trkpt><trkpt lat="46.196275" lon="-90.851169"></trkpt><trkpt lat="46.195913" lon="-90.850601"></trkpt><trkpt lat="46.195880" lon="-90.850292"></trkpt><trkpt lat="46.195884" lon="-90.849777"></trkpt><trkpt lat="46.195714" lon="-90.849589"></trkpt><trkpt lat="46.195214" lon="-90.849325"></trkpt><trkpt lat="46.195029" lon="-90.849076"></trkpt><trkpt lat="46.194892" lon="-90.848743"></trkpt><trkpt lat="46.194537" lon="-90.847063"></trkpt><trkpt lat="46.194529" lon="-90.845865"></trkpt><trkpt lat="46.193754" lon="-90.842778"></trkpt><trkpt lat="46.193665" lon="-90.842214"></trkpt><trkpt lat="46.193657" lon="-90.841473"></trkpt><trkpt lat="46.193828" lon="-90.841255"></trkpt><trkpt lat="46.194294" lon="-90.840897"></trkpt><trkpt lat="46.194732" lon="-90.840742"></trkpt><trkpt lat="46.194998" lon="-90.840489"></trkpt><trkpt lat="46.195526" lon="-90.840335"></trkpt><trkpt lat="46.195601" lon="-90.840039"></trkpt><trkpt lat="46.195673" lon="-90.838851"></trkpt><trkpt lat="46.195510" lon="-90.838078"></trkpt><trkpt lat="46.195364" lon="-90.837714"></trkpt><trkpt lat="46.196018" lon="-90.837360"></trkpt><trkpt lat="46.196429" lon="-90.836955"></trkpt><trkpt lat="46.196568" lon="-90.836216"></trkpt><trkpt lat="46.196715" lon="-90.835863"></trkpt><trkpt lat="46.197286" lon="-90.835136"></trkpt><trkpt lat="46.197360" lon="-90.834788"></trkpt><trkpt lat="46.197353" lon="-90.834409"></trkpt><trkpt lat="46.197594" lon="-90.833819"></trkpt><trkpt lat="46.197674" lon="-90.833311"></trkpt><trkpt lat="46.197916" lon="-90.832792"></trkpt><trkpt lat="46.198190" lon="-90.832502"></trkpt><trkpt lat="46.198354" lon="-90.831889"></trkpt><trkpt lat="46.198474" lon="-90.831360"></trkpt><trkpt lat="46.198937" lon="-90.831320"></trkpt><trkpt lat="46.199119" lon="-90.831176"></trkpt><trkpt lat="46.199594" lon="-90.830350"></trkpt><trkpt lat="46.199917" lon="-90.830086"></trkpt><trkpt lat="46.200087" lon="-90.829781"></trkpt><trkpt lat="46.200244" lon="-90.829759"></trkpt><trkpt lat="46.200177" lon="-90.829075"></trkpt><trkpt lat="46.200368" lon="-90.828212"></trkpt><trkpt lat="46.200407" lon="-90.827433"></trkpt><trkpt lat="46.200259" lon="-90.826079"></trkpt><trkpt lat="46.200579" lon="-90.824679"></trkpt><trkpt lat="46.200618" lon="-90.823873"></trkpt><trkpt lat="46.200550" lon="-90.823593"></trkpt><trkpt lat="46.200841" lon="-90.821193"></trkpt><trkpt lat="46.200760" lon="-90.820611"></trkpt><trkpt lat="46.200871" lon="-90.820635"></trkpt><trkpt lat="46.201183" lon="-90.820480"></trkpt><trkpt lat="46.201409" lon="-90.820044"></trkpt><trkpt lat="46.201595" lon="-90.819881"></trkpt></trkseg></trk></gpx>