<?xml version='1.0' encoding='utf-8'?>
<gpx xmlns="http://www.topografix.com/GPX/1/1" xmlns:xsi="http://www.w3.org/2001/XMLSchema-instance" version="1.1" creator="Bob's Motorcycle Trails" xsi:schemaLocation="http://www.topografix.com/GPX/1/1 http://www.topografix.com/GPX/1/1/gpx.xsd"><trk><name>T001 LOC74F3</name><trkseg><trkpt lat="44.337231" lon="-120.387344"></trkpt><trkpt lat="44.337387" lon="-120.387680"></trkpt><trkpt lat="44.337719" lon="-120.387856"></trkpt><trkpt lat="44.337929" lon="-120.388130"></trkpt><trkpt lat="44.338345" lon="-120.390007"></trkpt><trkpt lat="44.338326" lon="-120.390549"></trkpt><trkpt lat="44.338238" lon="-120.391396"></trkpt></trkseg></trk><trk><name>T002 LOC74F3</name><trkseg><trkpt lat="44.391841" lon="-120.346448"></trkpt><trkpt lat="44.392061" lon="-120.345832"></trkpt><trkpt lat="44.392389" lon="-120.345980"></trkpt><trkpt lat="44.392611" lon="-120.346437"></trkpt><trkpt lat="44.392720" lon="-120.347048"></trkpt><trkpt lat="44.392938" lon="-120.346739"></trkpt></trkseg></trk><trk><name>T003 LOC74F3</name><trkseg><trkpt lat="44.395450" lon="-120.328633"></trkpt><trkpt lat="44.395779" lon="-120.328629"></trkpt><trkpt lat="44.396106" lon="-120.328778"></trkpt><trkpt lat="44.396325" lon="-120.329081"></trkpt><trkpt lat="44.396328" lon="-120.329388"></trkpt><trkpt lat="44.396989" lon="-120.330144"></trkpt><trkpt lat="44.397644" lon="-120.330441"></trkpt><trkpt lat="44.398635" lon="-120.330274"></trkpt><trkpt lat="44.398856" lon="-120.330270"></trkpt><trkpt lat="44.399403" lon="-120.330569"></trkpt><trkpt lat="44.400503" lon="-120.330860"></trkpt><trkpt lat="44.400723" lon="-120.331010"></trkpt><trkpt lat="44.401272" lon="-120.331769"></trkpt><trkpt lat="44.401490" lon="-120.332225"></trkpt><trkpt lat="44.402041" lon="-120.332523"></trkpt><trkpt lat="44.403248" lon="-120.333885"></trkpt><trkpt lat="44.403690" lon="-120.333725"></trkpt><trkpt lat="44.404129" lon="-120.333259"></trkpt><trkpt lat="44.404454" lon="-120.333102"></trkpt><trkpt lat="44.405003" lon="-120.333094"></trkpt><trkpt lat="44.406105" lon="-120.334611"></trkpt><trkpt lat="44.406432" lon="-120.334912"></trkpt><trkpt lat="44.406848" lon="-120.335185"></trkpt><trkpt lat="44.407421" lon="-120.335246"></trkpt><trkpt lat="44.408101" lon="-120.335854"></trkpt><trkpt lat="44.408891" lon="-120.336498"></trkpt><trkpt lat="44.409216" lon="-120.337336"></trkpt><trkpt lat="44.409651" lon="-120.337840"></trkpt><trkpt lat="44.410251" lon="-120.338644"></trkpt><trkpt lat="44.410787" lon="-120.338860"></trkpt><trkpt lat="44.411934" lon="-120.339014"></trkpt><trkpt lat="44.414095" lon="-120.338269"></trkpt><trkpt lat="44.414967" lon="-120.337620"></trkpt><trkpt lat="44.415883" lon="-120.336786"></trkpt><trkpt lat="44.416758" lon="-120.335870"></trkpt><trkpt lat="44.417018" lon="-120.335070"></trkpt><trkpt lat="44.417670" lon="-120.334269"></trkpt><trkpt lat="44.418759" lon="-120.333098"></trkpt><trkpt lat="44.419583" lon="-120.332521"></trkpt><trkpt lat="44.420365" lon="-120.332075"></trkpt><trkpt lat="44.420637" lon="-120.331981"></trkpt><trkpt lat="44.421054" lon="-120.332654"></trkpt><trkpt lat="44.421625" lon="-120.333405"></trkpt><trkpt lat="44.422335" lon="-120.333861"></trkpt><trkpt lat="44.423134" lon="-120.333867"></trkpt><trkpt lat="44.423780" lon="-120.333182"></trkpt><trkpt lat="44.424344" lon="-120.332285"></trkpt><trkpt lat="44.424854" lon="-120.331359"></trkpt><trkpt lat="44.425134" lon="-120.330052"></trkpt><trkpt lat="44.424910" lon="-120.328934"></trkpt><trkpt lat="44.424914" lon="-120.327944"></trkpt><trkpt lat="44.425274" lon="-120.326412"></trkpt><trkpt lat="44.425185" lon="-120.324153"></trkpt><trkpt lat="44.424988" lon="-120.322872"></trkpt><trkpt lat="44.425156" lon="-120.321185"></trkpt><trkpt lat="44.425428" lon="-120.319948"></trkpt><trkpt lat="44.426105" lon="-120.319238"></trkpt><trkpt lat="44.427290" lon="-120.319467"></trkpt><trkpt lat="44.428283" lon="-120.320761"></trkpt><trkpt lat="44.429498" lon="-120.322078"></trkpt><trkpt lat="44.430474" lon="-120.322407"></trkpt><trkpt lat="44.431544" lon="-120.322571"></trkpt><trkpt lat="44.432303" lon="-120.322294"></trkpt><trkpt lat="44.432358" lon="-120.320437"></trkpt><trkpt lat="44.432686" lon="-120.319634"></trkpt><trkpt lat="44.433556" lon="-120.319476"></trkpt><trkpt lat="44.435047" lon="-120.320489"></trkpt><trkpt lat="44.435874" lon="-120.321215"></trkpt><trkpt lat="44.435951" lon="-120.321431"></trkpt><trkpt lat="44.436664" lon="-120.322242"></trkpt><trkpt lat="44.437492" lon="-120.322631"></trkpt><trkpt lat="44.437946" lon="-120.322975"></trkpt><trkpt lat="44.438604" lon="-120.322659"></trkpt><trkpt lat="44.438931" lon="-120.322195"></trkpt><trkpt lat="44.439154" lon="-120.321732"></trkpt><trkpt lat="44.439370" lon="-120.320962"></trkpt><trkpt lat="44.440030" lon="-120.319727"></trkpt><trkpt lat="44.440582" lon="-120.318492"></trkpt><trkpt lat="44.440908" lon="-120.317414"></trkpt><trkpt lat="44.441020" lon="-120.316646"></trkpt><trkpt lat="44.441019" lon="-120.316033"></trkpt><trkpt lat="44.440800" lon="-120.315729"></trkpt><trkpt lat="44.440798" lon="-120.315423"></trkpt><trkpt lat="44.441020" lon="-120.314347"></trkpt><trkpt lat="44.441456" lon="-120.313574"></trkpt><trkpt lat="44.441788" lon="-120.313109"></trkpt><trkpt lat="44.442556" lon="-120.312485"></trkpt><trkpt lat="44.443106" lon="-120.311557"></trkpt><trkpt lat="44.443655" lon="-120.310782"></trkpt><trkpt lat="44.444092" lon="-120.310623"></trkpt><trkpt lat="44.444753" lon="-120.310000"></trkpt><trkpt lat="44.444973" lon="-120.309997"></trkpt><trkpt lat="44.446182" lon="-120.308753"></trkpt><trkpt lat="44.447276" lon="-120.307817"></trkpt><trkpt lat="44.447718" lon="-120.307657"></trkpt><trkpt lat="44.448379" lon="-120.307801"></trkpt><trkpt lat="44.448595" lon="-120.307798"></trkpt><trkpt lat="44.448818" lon="-120.308101"></trkpt><trkpt lat="44.449806" lon="-120.308393"></trkpt><trkpt lat="44.449407" lon="-120.309816"></trkpt><trkpt lat="44.448525" lon="-120.311709"></trkpt><trkpt lat="44.447821" lon="-120.313003"></trkpt><trkpt lat="44.447069" lon="-120.314506"></trkpt><trkpt lat="44.446610" lon="-120.315667"></trkpt><trkpt lat="44.446069" lon="-120.317354"></trkpt><trkpt lat="44.445657" lon="-120.319181"></trkpt><trkpt lat="44.445550" lon="-120.320566"></trkpt><trkpt lat="44.445601" lon="-120.321776"></trkpt><trkpt lat="44.446020" lon="-120.324086"></trkpt><trkpt lat="44.446179" lon="-120.324545"></trkpt><trkpt lat="44.447391" lon="-120.325907"></trkpt><trkpt lat="44.448378" lon="-120.326353"></trkpt><trkpt lat="44.449367" lon="-120.325726"></trkpt><trkpt lat="44.449916" lon="-120.325718"></trkpt><trkpt lat="44.450135" lon="-120.326021"></trkpt><trkpt lat="44.450352" lon="-120.326478"></trkpt><trkpt lat="44.450355" lon="-120.326785"></trkpt><trkpt lat="44.450684" lon="-120.327394"></trkpt><trkpt lat="44.450904" lon="-120.328310"></trkpt><trkpt lat="44.450901" lon="-120.328771"></trkpt><trkpt lat="44.451124" lon="-120.329841"></trkpt><trkpt lat="44.451672" lon="-120.330753"></trkpt><trkpt lat="44.452002" lon="-120.332129"></trkpt><trkpt lat="44.452330" lon="-120.332891"></trkpt><trkpt lat="44.452440" lon="-120.333349"></trkpt><trkpt lat="44.452441" lon="-120.333963"></trkpt><trkpt lat="44.452658" lon="-120.335186"></trkpt><trkpt lat="44.453096" lon="-120.335640"></trkpt><trkpt lat="44.453317" lon="-120.335637"></trkpt><trkpt lat="44.453755" lon="-120.336091"></trkpt><trkpt lat="44.454747" lon="-120.336536"></trkpt><trkpt lat="44.455954" lon="-120.336980"></trkpt><trkpt lat="44.456501" lon="-120.338046"></trkpt><trkpt lat="44.456611" lon="-120.338504"></trkpt><trkpt lat="44.456613" lon="-120.338965"></trkpt><trkpt lat="44.456279" lon="-120.339890"></trkpt><trkpt lat="44.455180" lon="-120.342205"></trkpt><trkpt lat="44.454730" lon="-120.342967"></trkpt><trkpt lat="44.454303" lon="-120.345897"></trkpt><trkpt lat="44.454414" lon="-120.346816"></trkpt><trkpt lat="44.454962" lon="-120.348495"></trkpt><trkpt lat="44.455397" lon="-120.350176"></trkpt><trkpt lat="44.455619" lon="-120.350786"></trkpt><trkpt lat="44.455617" lon="-120.351093"></trkpt><trkpt lat="44.455399" lon="-120.352170"></trkpt><trkpt lat="44.454847" lon="-120.354017"></trkpt><trkpt lat="44.455617" lon="-120.354007"></trkpt><trkpt lat="44.456056" lon="-120.353541"></trkpt><trkpt lat="44.456936" lon="-120.353069"></trkpt><trkpt lat="44.457262" lon="-120.353524"></trkpt><trkpt lat="44.457482" lon="-120.353521"></trkpt><trkpt lat="44.458034" lon="-120.353820"></trkpt><trkpt lat="44.458908" lon="-120.355036"></trkpt><trkpt lat="44.459131" lon="-120.355492"></trkpt><trkpt lat="44.459239" lon="-120.356105"></trkpt><trkpt lat="44.459569" lon="-120.356714"></trkpt><trkpt lat="44.459899" lon="-120.356403"></trkpt><trkpt lat="44.460006" lon="-120.355787"></trkpt><trkpt lat="44.460338" lon="-120.355323"></trkpt><trkpt lat="44.460558" lon="-120.355320"></trkpt><trkpt lat="44.460777" lon="-120.355624"></trkpt><trkpt lat="44.461105" lon="-120.356387"></trkpt><trkpt lat="44.461324" lon="-120.356690"></trkpt><trkpt lat="44.461981" lon="-120.357295"></trkpt><trkpt lat="44.462421" lon="-120.357442"></trkpt><trkpt lat="44.462970" lon="-120.358202"></trkpt><trkpt lat="44.463735" lon="-120.358958"></trkpt><trkpt lat="44.465273" lon="-120.359704"></trkpt><trkpt lat="44.465711" lon="-120.360312"></trkpt><trkpt lat="44.466588" lon="-120.361834"></trkpt><trkpt lat="44.466719" lon="-120.362841"></trkpt><trkpt lat="44.467133" lon="-120.364588"></trkpt><trkpt lat="44.467244" lon="-120.366273"></trkpt><trkpt lat="44.467242" lon="-120.367194"></trkpt><trkpt lat="44.467462" lon="-120.368725"></trkpt><trkpt lat="44.467788" lon="-120.369948"></trkpt><trkpt lat="44.467898" lon="-120.370253"></trkpt><trkpt lat="44.468117" lon="-120.371171"></trkpt><trkpt lat="44.468664" lon="-120.372238"></trkpt><trkpt lat="44.469212" lon="-120.373150"></trkpt><trkpt lat="44.469212" lon="-120.374344"></trkpt><trkpt lat="44.469101" lon="-120.374993"></trkpt><trkpt lat="44.469540" lon="-120.376061"></trkpt><trkpt lat="44.469744" lon="-120.376336"></trkpt><trkpt lat="44.469964" lon="-120.378481"></trkpt><trkpt lat="44.470181" lon="-120.379858"></trkpt><trkpt lat="44.470732" lon="-120.380924"></trkpt><trkpt lat="44.470952" lon="-120.381687"></trkpt><trkpt lat="44.470950" lon="-120.382608"></trkpt><trkpt lat="44.471060" lon="-120.383067"></trkpt><trkpt lat="44.470837" lon="-120.384144"></trkpt><trkpt lat="44.470394" lon="-120.385838"></trkpt><trkpt lat="44.470502" lon="-120.386603"></trkpt><trkpt lat="44.471383" lon="-120.388125"></trkpt><trkpt lat="44.471933" lon="-120.389344"></trkpt><trkpt lat="44.472042" lon="-120.389802"></trkpt><trkpt lat="44.472011" lon="-120.390217"></trkpt><trkpt lat="44.471820" lon="-120.391493"></trkpt><trkpt lat="44.471817" lon="-120.391953"></trkpt><trkpt lat="44.472035" lon="-120.393024"></trkpt><trkpt lat="44.472586" lon="-120.394089"></trkpt><trkpt lat="44.472693" lon="-120.394855"></trkpt><trkpt lat="44.472474" lon="-120.395319"></trkpt><trkpt lat="44.472583" lon="-120.395931"></trkpt><trkpt lat="44.472801" lon="-120.396235"></trkpt><trkpt lat="44.473242" lon="-120.396228"></trkpt><trkpt lat="44.474784" lon="-120.396511"></trkpt><trkpt lat="44.475002" lon="-120.396815"></trkpt><trkpt lat="44.475335" lon="-120.396809"></trkpt><trkpt lat="44.475665" lon="-120.397265"></trkpt><trkpt lat="44.476546" lon="-120.398173"></trkpt><trkpt lat="44.476983" lon="-120.398779"></trkpt><trkpt lat="44.477533" lon="-120.399231"></trkpt><trkpt lat="44.477862" lon="-120.399841"></trkpt><trkpt lat="44.477972" lon="-120.400299"></trkpt><trkpt lat="44.478961" lon="-120.401665"></trkpt><trkpt lat="44.479731" lon="-120.402268"></trkpt><trkpt lat="44.479983" lon="-120.402626"></trkpt></trkseg></trk><trk><name>T004 LOC74F3</name><trkseg><trkpt lat="44.401334" lon="-120.283828"></trkpt><trkpt lat="44.401003" lon="-120.283527"></trkpt><trkpt lat="44.399792" lon="-120.282779"></trkpt><trkpt lat="44.399135" lon="-120.282789"></trkpt><trkpt lat="44.398805" lon="-120.283101"></trkpt><trkpt lat="44.398474" lon="-120.283565"></trkpt><trkpt lat="44.398478" lon="-120.284484"></trkpt><trkpt lat="44.398916" lon="-120.285856"></trkpt><trkpt lat="44.399909" lon="-120.286913"></trkpt><trkpt lat="44.400239" lon="-120.287368"></trkpt><trkpt lat="44.400237" lon="-120.287674"></trkpt><trkpt lat="44.399911" lon="-120.288138"></trkpt><trkpt lat="44.398371" lon="-120.288315"></trkpt><trkpt lat="44.397823" lon="-120.288170"></trkpt><trkpt lat="44.397492" lon="-120.287715"></trkpt><trkpt lat="44.397051" lon="-120.286956"></trkpt><trkpt lat="44.396499" lon="-120.286811"></trkpt><trkpt lat="44.395733" lon="-120.286210"></trkpt><trkpt lat="44.395222" lon="-120.285952"></trkpt><trkpt lat="44.394303" lon="-120.285926"></trkpt><trkpt lat="44.394081" lon="-120.286235"></trkpt><trkpt lat="44.393314" lon="-120.286553"></trkpt><trkpt lat="44.391970" lon="-120.287562"></trkpt><trkpt lat="44.391228" lon="-120.287962"></trkpt><trkpt lat="44.390566" lon="-120.287972"></trkpt><trkpt lat="44.389797" lon="-120.287218"></trkpt><trkpt lat="44.388699" lon="-120.287235"></trkpt><trkpt lat="44.388480" lon="-120.286932"></trkpt><trkpt lat="44.386389" lon="-120.286657"></trkpt><trkpt lat="44.386061" lon="-120.286662"></trkpt><trkpt lat="44.385512" lon="-120.287436"></trkpt><trkpt lat="44.384742" lon="-120.288366"></trkpt><trkpt lat="44.384523" lon="-120.288829"></trkpt><trkpt lat="44.383975" lon="-120.289449"></trkpt><trkpt lat="44.382659" lon="-120.289929"></trkpt><trkpt lat="44.382438" lon="-120.290085"></trkpt><trkpt lat="44.381888" lon="-120.290247"></trkpt><trkpt lat="44.380683" lon="-120.290877"></trkpt><trkpt lat="44.378267" lon="-120.291678"></trkpt><trkpt lat="44.377057" lon="-120.291543"></trkpt><trkpt lat="44.375957" lon="-120.291101"></trkpt><trkpt lat="44.375737" lon="-120.290951"></trkpt><trkpt lat="44.375297" lon="-120.290804"></trkpt><trkpt lat="44.374966" lon="-120.290503"></trkpt><trkpt lat="44.374564" lon="-120.290049"></trkpt><trkpt lat="44.373462" lon="-120.289906"></trkpt><trkpt lat="44.372694" lon="-120.289608"></trkpt><trkpt lat="44.371158" lon="-120.289165"></trkpt><trkpt lat="44.369841" lon="-120.288107"></trkpt><trkpt lat="44.369181" lon="-120.287807"></trkpt><trkpt lat="44.368081" lon="-120.288125"></trkpt><trkpt lat="44.366980" lon="-120.288595"></trkpt><trkpt lat="44.366652" lon="-120.288598"></trkpt><trkpt lat="44.365772" lon="-120.288301"></trkpt><trkpt lat="44.365443" lon="-120.288304"></trkpt><trkpt lat="44.364673" lon="-120.289230"></trkpt><trkpt lat="44.364231" lon="-120.290153"></trkpt><trkpt lat="44.363235" lon="-120.292000"></trkpt><trkpt lat="44.363233" lon="-120.292306"></trkpt><trkpt lat="44.362900" lon="-120.293075"></trkpt><trkpt lat="44.362495" lon="-120.294785"></trkpt><trkpt lat="44.362125" lon="-120.295685"></trkpt><trkpt lat="44.361903" lon="-120.295993"></trkpt><trkpt lat="44.361023" lon="-120.296308"></trkpt><trkpt lat="44.360251" lon="-120.296775"></trkpt><trkpt lat="44.359482" lon="-120.297548"></trkpt><trkpt lat="44.358711" lon="-120.298627"></trkpt><trkpt lat="44.358709" lon="-120.298933"></trkpt><trkpt lat="44.358042" lon="-120.300623"></trkpt><trkpt lat="44.357931" lon="-120.301236"></trkpt><trkpt lat="44.357713" lon="-120.301545"></trkpt><trkpt lat="44.357490" lon="-120.302006"></trkpt><trkpt lat="44.357160" lon="-120.302162"></trkpt><trkpt lat="44.355619" lon="-120.302484"></trkpt><trkpt lat="44.355288" lon="-120.302947"></trkpt><trkpt lat="44.354625" lon="-120.304024"></trkpt><trkpt lat="44.354187" lon="-120.304182"></trkpt><trkpt lat="44.354731" lon="-120.306625"></trkpt><trkpt lat="44.354943" lon="-120.308154"></trkpt><trkpt lat="44.354721" lon="-120.309074"></trkpt><trkpt lat="44.354503" lon="-120.309535"></trkpt><trkpt lat="44.353950" lon="-120.310153"></trkpt><trkpt lat="44.353399" lon="-120.310464"></trkpt><trkpt lat="44.352851" lon="-120.310317"></trkpt><trkpt lat="44.352304" lon="-120.310016"></trkpt><trkpt lat="44.351751" lon="-120.309869"></trkpt><trkpt lat="44.351201" lon="-120.310028"></trkpt><trkpt lat="44.350870" lon="-120.310490"></trkpt><trkpt lat="44.350871" lon="-120.311102"></trkpt><trkpt lat="44.351200" lon="-120.311710"></trkpt><trkpt lat="44.351416" lon="-120.311708"></trkpt><trkpt lat="44.352187" lon="-120.312313"></trkpt><trkpt lat="44.352513" lon="-120.312769"></trkpt><trkpt lat="44.352512" lon="-120.313687"></trkpt><trkpt lat="44.352732" lon="-120.313685"></trkpt><trkpt lat="44.353939" lon="-120.314285"></trkpt><trkpt lat="44.354597" lon="-120.314125"></trkpt><trkpt lat="44.354928" lon="-120.313816"></trkpt><trkpt lat="44.355369" lon="-120.313811"></trkpt><trkpt lat="44.356140" lon="-120.313498"></trkpt><trkpt lat="44.357238" lon="-120.313487"></trkpt><trkpt lat="44.358226" lon="-120.313937"></trkpt><trkpt lat="44.358444" lon="-120.314240"></trkpt><trkpt lat="44.358665" lon="-120.314238"></trkpt><trkpt lat="44.358883" lon="-120.314542"></trkpt><trkpt lat="44.359324" lon="-120.314690"></trkpt><trkpt lat="44.360418" lon="-120.315292"></trkpt><trkpt lat="44.361188" lon="-120.315284"></trkpt><trkpt lat="44.362067" lon="-120.314969"></trkpt><trkpt lat="44.362398" lon="-120.314507"></trkpt><trkpt lat="44.363169" lon="-120.314346"></trkpt><trkpt lat="44.363758" lon="-120.314500"></trkpt><trkpt lat="44.365583" lon="-120.314781"></trkpt><trkpt lat="44.366352" lon="-120.314774"></trkpt><trkpt lat="44.368662" lon="-120.314598"></trkpt><trkpt lat="44.368971" lon="-120.314748"></trkpt><trkpt lat="44.369078" lon="-120.315275"></trkpt><trkpt lat="44.369244" lon="-120.315810"></trkpt><trkpt lat="44.369296" lon="-120.316498"></trkpt><trkpt lat="44.369188" lon="-120.317267"></trkpt><trkpt lat="44.368965" lon="-120.318112"></trkpt><trkpt lat="44.368801" lon="-120.318422"></trkpt><trkpt lat="44.368689" lon="-120.318807"></trkpt><trkpt lat="44.368418" lon="-120.319347"></trkpt><trkpt lat="44.368413" lon="-120.319731"></trkpt><trkpt lat="44.368525" lon="-120.320264"></trkpt><trkpt lat="44.368991" lon="-120.321133"></trkpt><trkpt lat="44.368961" lon="-120.321408"></trkpt><trkpt lat="44.369840" lon="-120.323158"></trkpt><trkpt lat="44.370002" lon="-120.323538"></trkpt><trkpt lat="44.370058" lon="-120.323844"></trkpt><trkpt lat="44.370278" lon="-120.324377"></trkpt><trkpt lat="44.369950" lon="-120.324227"></trkpt><trkpt lat="44.369180" lon="-120.324389"></trkpt><trkpt lat="44.367971" lon="-120.324860"></trkpt><trkpt lat="44.367199" lon="-120.325326"></trkpt><trkpt lat="44.366758" lon="-120.325942"></trkpt><trkpt lat="44.366757" lon="-120.326249"></trkpt><trkpt lat="44.366538" lon="-120.326710"></trkpt><trkpt lat="44.366207" lon="-120.327019"></trkpt><trkpt lat="44.365762" lon="-120.327789"></trkpt><trkpt lat="44.365540" lon="-120.328709"></trkpt><trkpt lat="44.364878" lon="-120.329634"></trkpt><trkpt lat="44.364548" lon="-120.329791"></trkpt><trkpt lat="44.364220" lon="-120.329794"></trkpt><trkpt lat="44.363997" lon="-120.330102"></trkpt><trkpt lat="44.363912" lon="-120.330678"></trkpt><trkpt lat="44.363556" lon="-120.331637"></trkpt><trkpt lat="44.363003" lon="-120.332255"></trkpt><trkpt lat="44.362011" lon="-120.332570"></trkpt><trkpt lat="44.361163" lon="-120.333612"></trkpt><trkpt lat="44.360252" lon="-120.333965"></trkpt><trkpt lat="44.359478" lon="-120.334738"></trkpt><trkpt lat="44.359260" lon="-120.335046"></trkpt><trkpt lat="44.358925" lon="-120.336121"></trkpt><trkpt lat="44.358483" lon="-120.337043"></trkpt><trkpt lat="44.357932" lon="-120.337354"></trkpt><trkpt lat="44.357712" lon="-120.337356"></trkpt><trkpt lat="44.357493" lon="-120.337818"></trkpt><trkpt lat="44.357488" lon="-120.338583"></trkpt><trkpt lat="44.357599" lon="-120.339653"></trkpt><trkpt lat="44.357046" lon="-120.340270"></trkpt><trkpt lat="44.357044" lon="-120.340577"></trkpt><trkpt lat="44.356602" lon="-120.341500"></trkpt><trkpt lat="44.356462" lon="-120.341657"></trkpt><trkpt lat="44.356495" lon="-120.341913"></trkpt><trkpt lat="44.356400" lon="-120.342104"></trkpt><trkpt lat="44.356234" lon="-120.342327"></trkpt><trkpt lat="44.355777" lon="-120.343360"></trkpt><trkpt lat="44.355609" lon="-120.343498"></trkpt><trkpt lat="44.354945" lon="-120.343811"></trkpt><trkpt lat="44.353735" lon="-120.345200"></trkpt><trkpt lat="44.353405" lon="-120.345509"></trkpt><trkpt lat="44.353292" lon="-120.346275"></trkpt><trkpt lat="44.353290" lon="-120.346581"></trkpt><trkpt lat="44.352737" lon="-120.347965"></trkpt><trkpt lat="44.352407" lon="-120.348274"></trkpt><trkpt lat="44.352077" lon="-120.348430"></trkpt><trkpt lat="44.351308" lon="-120.348438"></trkpt><trkpt lat="44.350869" lon="-120.347982"></trkpt></trkseg></trk><trk><name>T005 LOC74F3</name><trkseg><trkpt lat="44.368971" lon="-120.314748"></trkpt><trkpt lat="44.369354" lon="-120.314743"></trkpt><trkpt lat="44.370197" lon="-120.315195"></trkpt><trkpt lat="44.370416" lon="-120.315499"></trkpt><trkpt lat="44.371186" lon="-120.316256"></trkpt><trkpt lat="44.372283" lon="-120.316398"></trkpt><trkpt lat="44.372721" lon="-120.316854"></trkpt><trkpt lat="44.372942" lon="-120.316851"></trkpt><trkpt lat="44.373598" lon="-120.317763"></trkpt><trkpt lat="44.373924" lon="-120.318066"></trkpt><trkpt lat="44.374680" lon="-120.318977"></trkpt><trkpt lat="44.375782" lon="-120.320493"></trkpt><trkpt lat="44.376658" lon="-120.321398"></trkpt><trkpt lat="44.376989" lon="-120.321087"></trkpt><trkpt lat="44.377317" lon="-120.320318"></trkpt><trkpt lat="44.377866" lon="-120.319544"></trkpt><trkpt lat="44.378636" lon="-120.318768"></trkpt><trkpt lat="44.379294" lon="-120.318606"></trkpt><trkpt lat="44.379842" lon="-120.318751"></trkpt><trkpt lat="44.380394" lon="-120.319048"></trkpt><trkpt lat="44.380942" lon="-120.319193"></trkpt><trkpt lat="44.381600" lon="-120.318878"></trkpt><trkpt lat="44.381931" lon="-120.318568"></trkpt><trkpt lat="44.382258" lon="-120.317950"></trkpt><trkpt lat="44.382149" lon="-120.317492"></trkpt><trkpt lat="44.382255" lon="-120.316267"></trkpt><trkpt lat="44.382254" lon="-120.315654"></trkpt><trkpt lat="44.382474" lon="-120.314885"></trkpt><trkpt lat="44.382910" lon="-120.314267"></trkpt><trkpt lat="44.383789" lon="-120.313948"></trkpt><trkpt lat="44.384336" lon="-120.313481"></trkpt><trkpt lat="44.384776" lon="-120.312861"></trkpt><trkpt lat="44.384995" lon="-120.312399"></trkpt><trkpt lat="44.385136" lon="-120.311865"></trkpt><trkpt lat="44.385327" lon="-120.312547"></trkpt><trkpt lat="44.385765" lon="-120.313154"></trkpt><trkpt lat="44.386539" lon="-120.314674"></trkpt><trkpt lat="44.387090" lon="-120.316503"></trkpt><trkpt lat="44.387638" lon="-120.317414"></trkpt><trkpt lat="44.387859" lon="-120.318176"></trkpt><trkpt lat="44.387862" lon="-120.319095"></trkpt><trkpt lat="44.387970" lon="-120.319859"></trkpt><trkpt lat="44.389179" lon="-120.318617"></trkpt><trkpt lat="44.389613" lon="-120.319061"></trkpt><trkpt lat="44.390718" lon="-120.320892"></trkpt><trkpt lat="44.392369" lon="-120.323165"></trkpt><trkpt lat="44.392916" lon="-120.324229"></trkpt><trkpt lat="44.392918" lon="-120.324688"></trkpt><trkpt lat="44.393029" lon="-120.325758"></trkpt><trkpt lat="44.394457" lon="-120.327729"></trkpt><trkpt lat="44.395450" lon="-120.328633"></trkpt><trkpt lat="44.395560" lon="-120.329091"></trkpt><trkpt lat="44.395121" lon="-120.329558"></trkpt><trkpt lat="44.395119" lon="-120.330629"></trkpt><trkpt lat="44.395560" lon="-120.330623"></trkpt><trkpt lat="44.395453" lon="-120.332003"></trkpt><trkpt lat="44.394794" lon="-120.333697"></trkpt><trkpt lat="44.394467" lon="-120.334314"></trkpt><trkpt lat="44.394356" lon="-120.334775"></trkpt><trkpt lat="44.394354" lon="-120.335082"></trkpt><trkpt lat="44.394577" lon="-120.335384"></trkpt><trkpt lat="44.395343" lon="-120.335986"></trkpt><trkpt lat="44.395783" lon="-120.336133"></trkpt><trkpt lat="44.396225" lon="-120.336740"></trkpt><trkpt lat="44.396662" lon="-120.337346"></trkpt><trkpt lat="44.396665" lon="-120.337652"></trkpt><trkpt lat="44.397214" lon="-120.339023"></trkpt><trkpt lat="44.397545" lon="-120.339478"></trkpt><trkpt lat="44.397548" lon="-120.343306"></trkpt><trkpt lat="44.397109" lon="-120.343006"></trkpt><trkpt lat="44.396227" lon="-120.340875"></trkpt><trkpt lat="44.395680" lon="-120.340576"></trkpt><trkpt lat="44.393592" lon="-120.340605"></trkpt><trkpt lat="44.393482" lon="-120.340913"></trkpt><trkpt lat="44.393924" lon="-120.341366"></trkpt><trkpt lat="44.394360" lon="-120.341513"></trkpt><trkpt lat="44.394690" lon="-120.341967"></trkpt><trkpt lat="44.395571" lon="-120.343640"></trkpt><trkpt lat="44.395349" lon="-120.343796"></trkpt><trkpt lat="44.395131" lon="-120.343493"></trkpt><trkpt lat="44.394584" lon="-120.343194"></trkpt><trkpt lat="44.393924" lon="-120.342897"></trkpt><trkpt lat="44.393813" lon="-120.343358"></trkpt><trkpt lat="44.394474" lon="-120.344267"></trkpt><trkpt lat="44.394364" lon="-120.344575"></trkpt><trkpt lat="44.394035" lon="-120.344580"></trkpt><trkpt lat="44.393817" lon="-120.344277"></trkpt><trkpt lat="44.392718" lon="-120.343679"></trkpt><trkpt lat="44.392606" lon="-120.344294"></trkpt></trkseg></trk><trk><name>T006 LOC74F3</name><trkseg><trkpt lat="44.456860" lon="-120.201181"></trkpt><trkpt lat="44.457081" lon="-120.201177"></trkpt><trkpt lat="44.457742" lon="-120.202084"></trkpt><trkpt lat="44.457633" lon="-120.202393"></trkpt><trkpt lat="44.458298" lon="-120.203454"></trkpt><trkpt lat="44.458297" lon="-120.204528"></trkpt><trkpt lat="44.457970" lon="-120.205148"></trkpt><trkpt lat="44.457865" lon="-120.205610"></trkpt><trkpt lat="44.458087" lon="-120.207140"></trkpt><trkpt lat="44.458088" lon="-120.207754"></trkpt><trkpt lat="44.458312" lon="-120.209743"></trkpt><trkpt lat="44.458534" lon="-120.210353"></trkpt><trkpt lat="44.458536" lon="-120.210813"></trkpt><trkpt lat="44.458648" lon="-120.211885"></trkpt><trkpt lat="44.458324" lon="-120.212812"></trkpt><trkpt lat="44.458325" lon="-120.213579"></trkpt><trkpt lat="44.458544" lon="-120.213881"></trkpt><trkpt lat="44.458770" lon="-120.215564"></trkpt><trkpt lat="44.459432" lon="-120.216165"></trkpt><trkpt lat="44.460091" lon="-120.216612"></trkpt><trkpt lat="44.460972" lon="-120.217822"></trkpt><trkpt lat="44.461197" lon="-120.218738"></trkpt><trkpt lat="44.461198" lon="-120.219351"></trkpt><trkpt lat="44.461534" lon="-120.222260"></trkpt><trkpt lat="44.461535" lon="-120.223027"></trkpt><trkpt lat="44.461648" lon="-120.223792"></trkpt><trkpt lat="44.462752" lon="-120.225305"></trkpt><trkpt lat="44.463852" lon="-120.226663"></trkpt><trkpt lat="44.464513" lon="-120.226650"></trkpt><trkpt lat="44.464844" lon="-120.227104"></trkpt><trkpt lat="44.465182" lon="-120.230473"></trkpt><trkpt lat="44.465418" lon="-120.236299"></trkpt><trkpt lat="44.465749" lon="-120.237520"></trkpt><trkpt lat="44.465643" lon="-120.239670"></trkpt><trkpt lat="44.465645" lon="-120.240283"></trkpt><trkpt lat="44.465428" lon="-120.242129"></trkpt><trkpt lat="44.465214" lon="-120.242746"></trkpt><trkpt lat="44.465212" lon="-120.243054"></trkpt><trkpt lat="44.464995" lon="-120.244132"></trkpt><trkpt lat="44.464667" lon="-120.244906"></trkpt><trkpt lat="44.464560" lon="-120.245675"></trkpt><trkpt lat="44.464561" lon="-120.246288"></trkpt><trkpt lat="44.464675" lon="-120.247667"></trkpt><trkpt lat="44.465446" lon="-120.249034"></trkpt><trkpt lat="44.465781" lon="-120.250407"></trkpt><trkpt lat="44.466443" lon="-120.251160"></trkpt><trkpt lat="44.466722" lon="-120.251545"></trkpt><trkpt lat="44.466940" lon="-120.252002"></trkpt><trkpt lat="44.466943" lon="-120.252309"></trkpt><trkpt lat="44.466613" lon="-120.252621"></trkpt><trkpt lat="44.466172" lon="-120.251861"></trkpt><trkpt lat="44.465840" lon="-120.251713"></trkpt><trkpt lat="44.465511" lon="-120.251719"></trkpt><trkpt lat="44.465180" lon="-120.252184"></trkpt><trkpt lat="44.465181" lon="-120.252797"></trkpt><trkpt lat="44.465624" lon="-120.253403"></trkpt><trkpt lat="44.466063" lon="-120.254470"></trkpt><trkpt lat="44.466064" lon="-120.255237"></trkpt><trkpt lat="44.465953" lon="-120.255699"></trkpt><trkpt lat="44.465513" lon="-120.256474"></trkpt><trkpt lat="44.465402" lon="-120.256935"></trkpt><trkpt lat="44.465623" lon="-120.257698"></trkpt><trkpt lat="44.466174" lon="-120.258303"></trkpt><trkpt lat="44.466392" lon="-120.258760"></trkpt><trkpt lat="44.467053" lon="-120.259670"></trkpt><trkpt lat="44.467073" lon="-120.260511"></trkpt><trkpt lat="44.466704" lon="-120.260693"></trkpt><trkpt lat="44.466051" lon="-120.260904"></trkpt><trkpt lat="44.465448" lon="-120.260875"></trkpt><trkpt lat="44.464643" lon="-120.259995"></trkpt><trkpt lat="44.463788" lon="-120.258688"></trkpt><trkpt lat="44.462798" lon="-120.258145"></trkpt><trkpt lat="44.461516" lon="-120.258175"></trkpt><trkpt lat="44.460666" lon="-120.258747"></trkpt><trkpt lat="44.459918" lon="-120.259875"></trkpt><trkpt lat="44.458726" lon="-120.260630"></trkpt><trkpt lat="44.457638" lon="-120.260875"></trkpt><trkpt lat="44.456615" lon="-120.261377"></trkpt><trkpt lat="44.454477" lon="-120.261979"></trkpt><trkpt lat="44.452952" lon="-120.262572"></trkpt><trkpt lat="44.452232" lon="-120.262755"></trkpt><trkpt lat="44.451201" lon="-120.263135"></trkpt><trkpt lat="44.450405" lon="-120.263551"></trkpt><trkpt lat="44.449131" lon="-120.264092"></trkpt><trkpt lat="44.447593" lon="-120.263962"></trkpt><trkpt lat="44.447375" lon="-120.264272"></trkpt><trkpt lat="44.447045" lon="-120.265351"></trkpt><trkpt lat="44.446604" lon="-120.266277"></trkpt><trkpt lat="44.445505" lon="-120.268134"></trkpt><trkpt lat="44.445399" lon="-120.268595"></trkpt><trkpt lat="44.445286" lon="-120.269517"></trkpt><trkpt lat="44.444645" lon="-120.269834"></trkpt><trkpt lat="44.443748" lon="-120.270154"></trkpt><trkpt lat="44.442982" lon="-120.270473"></trkpt><trkpt lat="44.442651" lon="-120.270938"></trkpt><trkpt lat="44.442431" lon="-120.271708"></trkpt><trkpt lat="44.442432" lon="-120.272321"></trkpt><trkpt lat="44.442212" lon="-120.273091"></trkpt><trkpt lat="44.441334" lon="-120.274024"></trkpt><trkpt lat="44.441098" lon="-120.274512"></trkpt><trkpt lat="44.440852" lon="-120.274609"></trkpt><trkpt lat="44.440676" lon="-120.275874"></trkpt><trkpt lat="44.440787" lon="-120.277712"></trkpt><trkpt lat="44.440897" lon="-120.278170"></trkpt><trkpt lat="44.441114" lon="-120.279546"></trkpt><trkpt lat="44.441115" lon="-120.280160"></trkpt><trkpt lat="44.440897" lon="-120.280623"></trkpt><trkpt lat="44.440017" lon="-120.281862"></trkpt><trkpt lat="44.439139" lon="-120.282796"></trkpt><trkpt lat="44.438721" lon="-120.282997"></trkpt><trkpt lat="44.438039" lon="-120.283119"></trkpt><trkpt lat="44.437819" lon="-120.283122"></trkpt><trkpt lat="44.437490" lon="-120.283281"></trkpt><trkpt lat="44.437161" lon="-120.283286"></trkpt><trkpt lat="44.435951" lon="-120.283150"></trkpt><trkpt lat="44.435181" lon="-120.283315"></trkpt><trkpt lat="44.434415" lon="-120.283634"></trkpt><trkpt lat="44.433427" lon="-120.284109"></trkpt><trkpt lat="44.432900" lon="-120.284693"></trkpt><trkpt lat="44.432436" lon="-120.285043"></trkpt><trkpt lat="44.431450" lon="-120.286744"></trkpt><trkpt lat="44.431448" lon="-120.287050"></trkpt><trkpt lat="44.431339" lon="-120.287358"></trkpt><trkpt lat="44.430789" lon="-120.288287"></trkpt><trkpt lat="44.430241" lon="-120.288907"></trkpt><trkpt lat="44.429254" lon="-120.289230"></trkpt></trkseg></trk><trk><name>T007 LOC74F3</name><trkseg><trkpt lat="44.475335" lon="-120.396809"></trkpt><trkpt lat="44.475776" lon="-120.396189"></trkpt><trkpt lat="44.476878" lon="-120.396173"></trkpt><trkpt lat="44.477473" lon="-120.395195"></trkpt><trkpt lat="44.477712" lon="-120.395024"></trkpt><trkpt lat="44.477959" lon="-120.395016"></trkpt><trkpt lat="44.478200" lon="-120.394926"></trkpt><trkpt lat="44.478674" lon="-120.394650"></trkpt><trkpt lat="44.478349" lon="-120.393525"></trkpt><trkpt lat="44.478262" lon="-120.392524"></trkpt><trkpt lat="44.478243" lon="-120.391330"></trkpt><trkpt lat="44.478451" lon="-120.390338"></trkpt><trkpt lat="44.478539" lon="-120.390087"></trkpt><trkpt lat="44.478789" lon="-120.389769"></trkpt><trkpt lat="44.479275" lon="-120.388672"></trkpt><trkpt lat="44.479325" lon="-120.388222"></trkpt><trkpt lat="44.479591" lon="-120.387437"></trkpt><trkpt lat="44.479995" lon="-120.387032"></trkpt><trkpt lat="44.480175" lon="-120.386905"></trkpt><trkpt lat="44.480568" lon="-120.386409"></trkpt><trkpt lat="44.481272" lon="-120.385748"></trkpt><trkpt lat="44.481643" lon="-120.385231"></trkpt><trkpt lat="44.481663" lon="-120.384745"></trkpt><trkpt lat="44.481622" lon="-120.384315"></trkpt><trkpt lat="44.481848" lon="-120.383730"></trkpt><trkpt lat="44.482754" lon="-120.383103"></trkpt><trkpt lat="44.483035" lon="-120.383735"></trkpt><trkpt lat="44.485363" lon="-120.383154"></trkpt><trkpt lat="44.486010" lon="-120.383112"></trkpt><trkpt lat="44.486686" lon="-120.382781"></trkpt><trkpt lat="44.487071" lon="-120.382492"></trkpt><trkpt lat="44.487602" lon="-120.382285"></trkpt><trkpt lat="44.488012" lon="-120.382284"></trkpt><trkpt lat="44.488370" lon="-120.382378"></trkpt><trkpt lat="44.488124" lon="-120.383445"></trkpt><trkpt lat="44.488331" lon="-120.383821"></trkpt><trkpt lat="44.488534" lon="-120.383852"></trkpt><trkpt lat="44.488764" lon="-120.384059"></trkpt><trkpt lat="44.489078" lon="-120.384013"></trkpt><trkpt lat="44.489404" lon="-120.383893"></trkpt><trkpt lat="44.490157" lon="-120.383762"></trkpt><trkpt lat="44.490547" lon="-120.383297"></trkpt><trkpt lat="44.490417" lon="-120.383143"></trkpt><trkpt lat="44.490359" lon="-120.382759"></trkpt><trkpt lat="44.490747" lon="-120.382226"></trkpt><trkpt lat="44.491050" lon="-120.381876"></trkpt><trkpt lat="44.491293" lon="-120.381495"></trkpt><trkpt lat="44.491649" lon="-120.381123"></trkpt><trkpt lat="44.491730" lon="-120.380886"></trkpt><trkpt lat="44.492797" lon="-120.381302"></trkpt><trkpt lat="44.493264" lon="-120.381444"></trkpt><trkpt lat="44.493689" lon="-120.381532"></trkpt><trkpt lat="44.494117" lon="-120.381536"></trkpt><trkpt lat="44.494282" lon="-120.381491"></trkpt><trkpt lat="44.494585" lon="-120.381525"></trkpt><trkpt lat="44.494846" lon="-120.381741"></trkpt><trkpt lat="44.494923" lon="-120.381941"></trkpt><trkpt lat="44.494950" lon="-120.382171"></trkpt><trkpt lat="44.494736" lon="-120.382652"></trkpt><trkpt lat="44.494179" lon="-120.383085"></trkpt><trkpt lat="44.493764" lon="-120.383632"></trkpt><trkpt lat="44.493469" lon="-120.384292"></trkpt><trkpt lat="44.493709" lon="-120.385939"></trkpt><trkpt lat="44.494299" lon="-120.386349"></trkpt><trkpt lat="44.494478" lon="-120.387873"></trkpt><trkpt lat="44.494415" lon="-120.388491"></trkpt><trkpt lat="44.494803" lon="-120.389108"></trkpt><trkpt lat="44.494712" lon="-120.389644"></trkpt><trkpt lat="44.494478" lon="-120.390221"></trkpt><trkpt lat="44.493679" lon="-120.390555"></trkpt></trkseg></trk><trk><name>T008 LOC74F3</name><trkseg><trkpt lat="44.449806" lon="-120.308393"></trkpt><trkpt lat="44.450134" lon="-120.308388"></trkpt><trkpt lat="44.450025" lon="-120.307930"></trkpt><trkpt lat="44.450023" lon="-120.306703"></trkpt><trkpt lat="44.449914" lon="-120.306092"></trkpt><trkpt lat="44.449255" lon="-120.304874"></trkpt><trkpt lat="44.449256" lon="-120.303955"></trkpt><trkpt lat="44.449477" lon="-120.303798"></trkpt><trkpt lat="44.450463" lon="-120.303630"></trkpt><trkpt lat="44.450793" lon="-120.303472"></trkpt><trkpt lat="44.451595" lon="-120.301795"></trkpt><trkpt lat="44.451783" lon="-120.301004"></trkpt><trkpt lat="44.451893" lon="-120.300696"></trkpt><trkpt lat="44.452112" lon="-120.299313"></trkpt><trkpt lat="44.452331" lon="-120.298849"></trkpt><trkpt lat="44.452552" lon="-120.298693"></trkpt><trkpt lat="44.452990" lon="-120.298533"></trkpt><trkpt lat="44.453869" lon="-120.297293"></trkpt><trkpt lat="44.454198" lon="-120.296521"></trkpt><trkpt lat="44.455736" lon="-120.294965"></trkpt><trkpt lat="44.456944" lon="-120.293874"></trkpt><trkpt lat="44.457275" lon="-120.293409"></trkpt><trkpt lat="44.457494" lon="-120.292945"></trkpt><trkpt lat="44.457492" lon="-120.290798"></trkpt><trkpt lat="44.457934" lon="-120.289871"></trkpt><trkpt lat="44.458000" lon="-120.289627"></trkpt><trkpt lat="44.458814" lon="-120.288478"></trkpt><trkpt lat="44.459692" lon="-120.287698"></trkpt><trkpt lat="44.460242" lon="-120.287383"></trkpt><trkpt lat="44.460681" lon="-120.286916"></trkpt><trkpt lat="44.461342" lon="-120.286293"></trkpt><trkpt lat="44.461672" lon="-120.285215"></trkpt><trkpt lat="44.461889" lon="-120.284904"></trkpt><trkpt lat="44.462220" lon="-120.284593"></trkpt><trkpt lat="44.462657" lon="-120.284433"></trkpt><trkpt lat="44.463319" lon="-120.284269"></trkpt><trkpt lat="44.463649" lon="-120.283190"></trkpt><trkpt lat="44.463866" lon="-120.282267"></trkpt><trkpt lat="44.463837" lon="-120.281458"></trkpt><trkpt lat="44.463647" lon="-120.281196"></trkpt><trkpt lat="44.463426" lon="-120.281200"></trkpt><trkpt lat="44.463097" lon="-120.281359"></trkpt><trkpt lat="44.462658" lon="-120.281825"></trkpt><trkpt lat="44.462327" lon="-120.281523"></trkpt><trkpt lat="44.462001" lon="-120.281068"></trkpt><trkpt lat="44.461778" lon="-120.280611"></trkpt><trkpt lat="44.461561" lon="-120.279235"></trkpt><trkpt lat="44.462218" lon="-120.278458"></trkpt><trkpt lat="44.462989" lon="-120.278139"></trkpt><trkpt lat="44.463866" lon="-120.277359"></trkpt><trkpt lat="44.464306" lon="-120.276739"></trkpt><trkpt lat="44.465515" lon="-120.274419"></trkpt><trkpt lat="44.465735" lon="-120.273649"></trkpt><trkpt lat="44.466067" lon="-120.273030"></trkpt><trkpt lat="44.466173" lon="-120.272568"></trkpt><trkpt lat="44.466616" lon="-120.271334"></trkpt><trkpt lat="44.467166" lon="-120.270405"></trkpt><trkpt lat="44.467713" lon="-120.269937"></trkpt><trkpt lat="44.468704" lon="-120.269615"></trkpt><trkpt lat="44.469584" lon="-120.269141"></trkpt><trkpt lat="44.470790" lon="-120.268356"></trkpt><trkpt lat="44.471342" lon="-120.267733"></trkpt><trkpt lat="44.471673" lon="-120.267268"></trkpt><trkpt lat="44.471783" lon="-120.266959"></trkpt><trkpt lat="44.471709" lon="-120.266526"></trkpt><trkpt lat="44.471232" lon="-120.265587"></trkpt><trkpt lat="44.470682" lon="-120.264982"></trkpt><trkpt lat="44.470130" lon="-120.264684"></trkpt><trkpt lat="44.469252" lon="-120.263931"></trkpt><trkpt lat="44.468814" lon="-120.263477"></trkpt><trkpt lat="44.468649" lon="-120.262608"></trkpt><trkpt lat="44.468365" lon="-120.261663"></trkpt><trkpt lat="44.467916" lon="-120.261138"></trkpt><trkpt lat="44.467813" lon="-120.260962"></trkpt><trkpt lat="44.467418" lon="-120.260635"></trkpt><trkpt lat="44.467073" lon="-120.260511"></trkpt></trkseg></trk><trk><name>T009 LOC74F3</name><trkseg><trkpt lat="44.405837" lon="-120.222911"></trkpt><trkpt lat="44.405831" lon="-120.221379"></trkpt><trkpt lat="44.406154" lon="-120.218918"></trkpt><trkpt lat="44.406369" lon="-120.218301"></trkpt><trkpt lat="44.406920" lon="-120.217830"></trkpt><trkpt lat="44.407138" lon="-120.217365"></trkpt><trkpt lat="44.406907" lon="-120.214150"></trkpt><trkpt lat="44.406571" lon="-120.212778"></trkpt><trkpt lat="44.406123" lon="-120.210641"></trkpt><trkpt lat="44.406008" lon="-120.209416"></trkpt><trkpt lat="44.405553" lon="-120.207206"></trkpt><trkpt lat="44.405337" lon="-120.205903"></trkpt><trkpt lat="44.405001" lon="-120.204530"></trkpt><trkpt lat="44.404887" lon="-120.202999"></trkpt><trkpt lat="44.404214" lon="-120.199947"></trkpt><trkpt lat="44.404212" lon="-120.199333"></trkpt><trkpt lat="44.404101" lon="-120.199029"></trkpt><trkpt lat="44.403545" lon="-120.196894"></trkpt><trkpt lat="44.403317" lon="-120.195519"></trkpt><trkpt lat="44.403319" lon="-120.195212"></trkpt><trkpt lat="44.403093" lon="-120.194450"></trkpt><trkpt lat="44.402652" lon="-120.193539"></trkpt><trkpt lat="44.402317" lon="-120.192933"></trkpt><trkpt lat="44.402096" lon="-120.192171"></trkpt><trkpt lat="44.400433" lon="-120.188985"></trkpt><trkpt lat="44.400214" lon="-120.188683"></trkpt><trkpt lat="44.400099" lon="-120.188225"></trkpt><trkpt lat="44.399215" lon="-120.186864"></trkpt><trkpt lat="44.399217" lon="-120.186557"></trkpt><trkpt lat="44.399100" lon="-120.185486"></trkpt><trkpt lat="44.399096" lon="-120.184414"></trkpt><trkpt lat="44.398861" lon="-120.180892"></trkpt><trkpt lat="44.398637" lon="-120.179670"></trkpt><trkpt lat="44.398747" lon="-120.179208"></trkpt><trkpt lat="44.399618" lon="-120.177657"></trkpt><trkpt lat="44.400057" lon="-120.177035"></trkpt><trkpt lat="44.400275" lon="-120.176571"></trkpt><trkpt lat="44.400382" lon="-120.175802"></trkpt><trkpt lat="44.400376" lon="-120.174268"></trkpt><trkpt lat="44.400265" lon="-120.173965"></trkpt><trkpt lat="44.400040" lon="-120.173049"></trkpt><trkpt lat="44.399487" lon="-120.171987"></trkpt><trkpt lat="44.399484" lon="-120.171681"></trkpt><trkpt lat="44.399260" lon="-120.170459"></trkpt><trkpt lat="44.399041" lon="-120.170157"></trkpt><trkpt lat="44.398818" lon="-120.169701"></trkpt><trkpt lat="44.398704" lon="-120.169091"></trkpt><trkpt lat="44.398591" lon="-120.168173"></trkpt><trkpt lat="44.398807" lon="-120.167095"></trkpt><trkpt lat="44.398917" lon="-120.166787"></trkpt><trkpt lat="44.399022" lon="-120.166324"></trkpt><trkpt lat="44.399461" lon="-120.165702"></trkpt><trkpt lat="44.399458" lon="-120.165396"></trkpt><trkpt lat="44.399783" lon="-120.164162"></trkpt><trkpt lat="44.399780" lon="-120.163856"></trkpt><trkpt lat="44.399554" lon="-120.162174"></trkpt><trkpt lat="44.399552" lon="-120.161561"></trkpt><trkpt lat="44.399807" lon="-120.160427"></trkpt><trkpt lat="44.400207" lon="-120.159861"></trkpt><trkpt lat="44.400977" lon="-120.159845"></trkpt><trkpt lat="44.401856" lon="-120.160287"></trkpt><trkpt lat="44.402626" lon="-120.160118"></trkpt><trkpt lat="44.403942" lon="-120.158710"></trkpt><trkpt lat="44.405141" lon="-120.157152"></trkpt><trkpt lat="44.405470" lon="-120.156072"></trkpt><trkpt lat="44.406123" lon="-120.154832"></trkpt><trkpt lat="44.406340" lon="-120.154521"></trkpt><trkpt lat="44.406670" lon="-120.154208"></trkpt><trkpt lat="44.407220" lon="-120.154043"></trkpt><trkpt lat="44.408541" lon="-120.154321"></trkpt><trkpt lat="44.410521" lon="-120.154281"></trkpt><trkpt lat="44.411400" lon="-120.153802"></trkpt><trkpt lat="44.411725" lon="-120.153489"></trkpt><trkpt lat="44.412056" lon="-120.152868"></trkpt><trkpt lat="44.412382" lon="-120.152555"></trkpt><trkpt lat="44.413259" lon="-120.151463"></trkpt><trkpt lat="44.413700" lon="-120.151455"></trkpt><trkpt lat="44.414801" lon="-120.151738"></trkpt><trkpt lat="44.415464" lon="-120.152338"></trkpt><trkpt lat="44.416012" lon="-120.152632"></trkpt><trkpt lat="44.416344" lon="-120.152625"></trkpt><trkpt lat="44.418867" lon="-120.151807"></trkpt><trkpt lat="44.419201" lon="-120.151646"></trkpt><trkpt lat="44.420625" lon="-120.151156"></trkpt><trkpt lat="44.421287" lon="-120.150836"></trkpt><trkpt lat="44.421944" lon="-120.150822"></trkpt><trkpt lat="44.422937" lon="-120.151108"></trkpt><trkpt lat="44.423266" lon="-120.150948"></trkpt><trkpt lat="44.423483" lon="-120.150636"></trkpt><trkpt lat="44.423482" lon="-120.150023"></trkpt><trkpt lat="44.423151" lon="-120.149417"></trkpt><trkpt lat="44.423146" lon="-120.148650"></trkpt><trkpt lat="44.423256" lon="-120.148187"></trkpt><trkpt lat="44.424129" lon="-120.146943"></trkpt><trkpt lat="44.424123" lon="-120.145409"></trkpt><trkpt lat="44.424233" lon="-120.144947"></trkpt><trkpt lat="44.424780" lon="-120.144168"></trkpt><trkpt lat="44.425109" lon="-120.144161"></trkpt><trkpt lat="44.424788" lon="-120.146468"></trkpt><trkpt lat="44.425010" lon="-120.147231"></trkpt><trkpt lat="44.425676" lon="-120.148136"></trkpt><trkpt lat="44.426006" lon="-120.148897"></trkpt><trkpt lat="44.426008" lon="-120.149356"></trkpt><trkpt lat="44.426238" lon="-120.151346"></trkpt><trkpt lat="44.426679" lon="-120.152256"></trkpt><trkpt lat="44.427896" lon="-120.153918"></trkpt><trkpt lat="44.428672" lon="-120.155435"></trkpt><trkpt lat="44.428893" lon="-120.156197"></trkpt><trkpt lat="44.429340" lon="-120.156955"></trkpt><trkpt lat="44.429450" lon="-120.157567"></trkpt><trkpt lat="44.430115" lon="-120.158627"></trkpt><trkpt lat="44.430554" lon="-120.159077"></trkpt><trkpt lat="44.432648" lon="-120.159494"></trkpt><trkpt lat="44.434186" lon="-120.159615"></trkpt><trkpt lat="44.436715" lon="-120.159563"></trkpt><trkpt lat="44.437044" lon="-120.159403"></trkpt><trkpt lat="44.437264" lon="-120.159398"></trkpt><trkpt lat="44.437597" lon="-120.159544"></trkpt><trkpt lat="44.437928" lon="-120.159844"></trkpt><trkpt lat="44.438368" lon="-120.160142"></trkpt><trkpt lat="44.438587" lon="-120.160444"></trkpt><trkpt lat="44.439027" lon="-120.160588"></trkpt><trkpt lat="44.439690" lon="-120.161188"></trkpt><trkpt lat="44.440242" lon="-120.161483"></trkpt><trkpt lat="44.441455" lon="-120.162839"></trkpt><trkpt lat="44.443549" lon="-120.163409"></trkpt><trkpt lat="44.444210" lon="-120.163548"></trkpt><trkpt lat="44.444757" lon="-120.163844"></trkpt><trkpt lat="44.445093" lon="-120.164297"></trkpt><trkpt lat="44.445645" lon="-120.165513"></trkpt><trkpt lat="44.445976" lon="-120.165967"></trkpt><trkpt lat="44.446746" lon="-120.166717"></trkpt><trkpt lat="44.448729" lon="-120.166983"></trkpt><trkpt lat="44.449501" lon="-120.167427"></trkpt><trkpt lat="44.449831" lon="-120.167881"></trkpt><trkpt lat="44.450165" lon="-120.168641"></trkpt><trkpt lat="44.450164" lon="-120.168948"></trkpt><trkpt lat="44.450390" lon="-120.170630"></trkpt><trkpt lat="44.450940" lon="-120.171386"></trkpt><trkpt lat="44.451272" lon="-120.171686"></trkpt><trkpt lat="44.451932" lon="-120.171826"></trkpt><trkpt lat="44.452595" lon="-120.172426"></trkpt><trkpt lat="44.453480" lon="-120.173788"></trkpt><trkpt lat="44.453919" lon="-120.174239"></trkpt><trkpt lat="44.454251" lon="-120.174386"></trkpt><trkpt lat="44.454474" lon="-120.174842"></trkpt><trkpt lat="44.454252" lon="-120.175153"></trkpt><trkpt lat="44.454362" lon="-120.175612"></trkpt><trkpt lat="44.455355" lon="-120.175898"></trkpt><trkpt lat="44.455796" lon="-120.175888"></trkpt><trkpt lat="44.456457" lon="-120.176949"></trkpt><trkpt lat="44.455801" lon="-120.178650"></trkpt><trkpt lat="44.455591" lon="-120.181263"></trkpt><trkpt lat="44.456032" lon="-120.182174"></trkpt><trkpt lat="44.457360" lon="-120.183988"></trkpt><trkpt lat="44.457692" lon="-120.184288"></trkpt><trkpt lat="44.458026" lon="-120.185815"></trkpt><trkpt lat="44.457812" lon="-120.188428"></trkpt><trkpt lat="44.457816" lon="-120.189502"></trkpt><trkpt lat="44.458147" lon="-120.190722"></trkpt><trkpt lat="44.458151" lon="-120.191797"></trkpt><trkpt lat="44.458271" lon="-120.194095"></trkpt><trkpt lat="44.457939" lon="-120.194716"></trkpt><trkpt lat="44.457724" lon="-120.195487"></trkpt><trkpt lat="44.457727" lon="-120.196714"></trkpt><trkpt lat="44.456850" lon="-120.197653"></trkpt><trkpt lat="44.456635" lon="-120.198424"></trkpt><trkpt lat="44.456639" lon="-120.200419"></trkpt><trkpt lat="44.456860" lon="-120.201181"></trkpt><trkpt lat="44.456751" lon="-120.201490"></trkpt><trkpt lat="44.456864" lon="-120.202255"></trkpt><trkpt lat="44.456318" lon="-120.203493"></trkpt><trkpt lat="44.455991" lon="-120.204114"></trkpt><trkpt lat="44.455661" lon="-120.204427"></trkpt><trkpt lat="44.454783" lon="-120.204599"></trkpt><trkpt lat="44.453800" lon="-120.205999"></trkpt><trkpt lat="44.453803" lon="-120.207226"></trkpt><trkpt lat="44.454027" lon="-120.208449"></trkpt><trkpt lat="44.454357" lon="-120.209056"></trkpt><trkpt lat="44.454580" lon="-120.210433"></trkpt><trkpt lat="44.455135" lon="-120.211802"></trkpt><trkpt lat="44.455356" lon="-120.212718"></trkpt><trkpt lat="44.455248" lon="-120.213487"></trkpt><trkpt lat="44.454922" lon="-120.213954"></trkpt><trkpt lat="44.454594" lon="-120.214727"></trkpt><trkpt lat="44.454153" lon="-120.214890"></trkpt><trkpt lat="44.453823" lon="-120.215203"></trkpt><trkpt lat="44.453605" lon="-120.215514"></trkpt><trkpt lat="44.453607" lon="-120.216129"></trkpt><trkpt lat="44.453717" lon="-120.216586"></trkpt><trkpt lat="44.454051" lon="-120.217193"></trkpt><trkpt lat="44.454273" lon="-120.217956"></trkpt><trkpt lat="44.454494" lon="-120.219486"></trkpt><trkpt lat="44.454501" lon="-120.220866"></trkpt><trkpt lat="44.454724" lon="-120.222088"></trkpt><trkpt lat="44.455164" lon="-120.223154"></trkpt><trkpt lat="44.455501" lon="-120.225142"></trkpt><trkpt lat="44.455611" lon="-120.225600"></trkpt><trkpt lat="44.456059" lon="-120.229426"></trkpt><trkpt lat="44.455954" lon="-120.229888"></trkpt><trkpt lat="44.456064" lon="-120.230347"></trkpt><trkpt lat="44.456071" lon="-120.232495"></trkpt><trkpt lat="44.456401" lon="-120.232948"></trkpt><trkpt lat="44.456942" lon="-120.233539"></trkpt><trkpt lat="44.456847" lon="-120.234780"></trkpt><trkpt lat="44.456846" lon="-120.235701"></trkpt><trkpt lat="44.456970" lon="-120.236180"></trkpt><trkpt lat="44.456849" lon="-120.236365"></trkpt><trkpt lat="44.456557" lon="-120.236971"></trkpt><trkpt lat="44.456392" lon="-120.237768"></trkpt><trkpt lat="44.456378" lon="-120.238313"></trkpt><trkpt lat="44.456319" lon="-120.238833"></trkpt><trkpt lat="44.456337" lon="-120.239025"></trkpt><trkpt lat="44.456218" lon="-120.240037"></trkpt><trkpt lat="44.456213" lon="-120.240228"></trkpt><trkpt lat="44.456393" lon="-120.240978"></trkpt><trkpt lat="44.456428" lon="-120.241491"></trkpt><trkpt lat="44.456541" lon="-120.241866"></trkpt><trkpt lat="44.456562" lon="-120.242172"></trkpt><trkpt lat="44.456511" lon="-120.242701"></trkpt><trkpt lat="44.456547" lon="-120.243046"></trkpt><trkpt lat="44.456493" lon="-120.243429"></trkpt><trkpt lat="44.456435" lon="-120.243621"></trkpt><trkpt lat="44.456253" lon="-120.243943"></trkpt><trkpt lat="44.455994" lon="-120.244182"></trkpt><trkpt lat="44.455665" lon="-120.244375"></trkpt><trkpt lat="44.455325" lon="-120.244437"></trkpt><trkpt lat="44.455099" lon="-120.244584"></trkpt><trkpt lat="44.454638" lon="-120.245283"></trkpt><trkpt lat="44.454426" lon="-120.245797"></trkpt><trkpt lat="44.454148" lon="-120.246251"></trkpt><trkpt lat="44.453977" lon="-120.246604"></trkpt><trkpt lat="44.453806" lon="-120.246811"></trkpt><trkpt lat="44.453612" lon="-120.246981"></trkpt><trkpt lat="44.453262" lon="-120.247189"></trkpt><trkpt lat="44.453033" lon="-120.247236"></trkpt><trkpt lat="44.452952" lon="-120.247037"></trkpt><trkpt lat="44.452869" lon="-120.246570"></trkpt><trkpt lat="44.452848" lon="-120.245130"></trkpt><trkpt lat="44.452782" lon="-120.244448"></trkpt><trkpt lat="44.452482" lon="-120.243239"></trkpt><trkpt lat="44.452302" lon="-120.242873"></trkpt><trkpt lat="44.452079" lon="-120.242575"></trkpt><trkpt lat="44.451862" lon="-120.242346"></trkpt><trkpt lat="44.451639" lon="-120.242248"></trkpt><trkpt lat="44.451333" lon="-120.242257"></trkpt><trkpt lat="44.450795" lon="-120.242335"></trkpt><trkpt lat="44.449939" lon="-120.242102"></trkpt><trkpt lat="44.449078" lon="-120.241701"></trkpt><trkpt lat="44.448338" lon="-120.241267"></trkpt><trkpt lat="44.447844" lon="-120.241124"></trkpt><trkpt lat="44.447452" lon="-120.240926"></trkpt><trkpt lat="44.447285" lon="-120.240881"></trkpt><trkpt lat="44.446961" lon="-120.240698"></trkpt><trkpt lat="44.446607" lon="-120.240409"></trkpt><trkpt lat="44.446507" lon="-120.240188"></trkpt><trkpt lat="44.446084" lon="-120.239615"></trkpt><trkpt lat="44.445369" lon="-120.238906"></trkpt><trkpt lat="44.444887" lon="-120.238502"></trkpt><trkpt lat="44.444582" lon="-120.238190"></trkpt><trkpt lat="44.444270" lon="-120.237961"></trkpt><trkpt lat="44.443702" lon="-120.237351"></trkpt><trkpt lat="44.443241" lon="-120.236717"></trkpt><trkpt lat="44.442493" lon="-120.235373"></trkpt><trkpt lat="44.442210" lon="-120.235038"></trkpt><trkpt lat="44.442027" lon="-120.234908"></trkpt><trkpt lat="44.441844" lon="-120.234993"></trkpt><trkpt lat="44.441770" lon="-120.235108"></trkpt><trkpt lat="44.441633" lon="-120.235377"></trkpt><trkpt lat="44.441581" lon="-120.235645"></trkpt><trkpt lat="44.441731" lon="-120.236824"></trkpt><trkpt lat="44.441677" lon="-120.237207"></trkpt><trkpt lat="44.441519" lon="-120.237544"></trkpt><trkpt lat="44.441152" lon="-120.238021"></trkpt><trkpt lat="44.440633" lon="-120.238529"></trkpt><trkpt lat="44.440247" lon="-120.238745"></trkpt><trkpt lat="44.439820" lon="-120.238778"></trkpt><trkpt lat="44.439576" lon="-120.238725"></trkpt><trkpt lat="44.439199" lon="-120.238574"></trkpt><trkpt lat="44.438895" lon="-120.238491"></trkpt><trkpt lat="44.438652" lon="-120.238293"></trkpt><trkpt lat="44.438486" lon="-120.238133"></trkpt><trkpt lat="44.438336" lon="-120.237904"></trkpt><trkpt lat="44.438269" lon="-120.237720"></trkpt><trkpt lat="44.438246" lon="-120.237338"></trkpt><trkpt lat="44.438147" lon="-120.236802"></trkpt><trkpt lat="44.438053" lon="-120.236610"></trkpt><trkpt lat="44.437984" lon="-120.236542"></trkpt><trkpt lat="44.437870" lon="-120.236504"></trkpt><trkpt lat="44.437701" lon="-120.236581"></trkpt><trkpt lat="44.437513" lon="-120.237203"></trkpt><trkpt lat="44.437408" lon="-120.237854"></trkpt><trkpt lat="44.437399" lon="-120.238612"></trkpt><trkpt lat="44.437359" lon="-120.238812"></trkpt><trkpt lat="44.437233" lon="-120.240515"></trkpt><trkpt lat="44.437069" lon="-120.241362"></trkpt><trkpt lat="44.436857" lon="-120.242057"></trkpt><trkpt lat="44.436638" lon="-120.242522"></trkpt><trkpt lat="44.436583" lon="-120.242830"></trkpt><trkpt lat="44.436879" lon="-120.243152"></trkpt><trkpt lat="44.437208" lon="-120.243758"></trkpt><trkpt lat="44.437211" lon="-120.244065"></trkpt><trkpt lat="44.436885" lon="-120.245299"></trkpt><trkpt lat="44.437109" lon="-120.246368"></trkpt><trkpt lat="44.436889" lon="-120.247139"></trkpt><trkpt lat="44.435794" lon="-120.248388"></trkpt><trkpt lat="44.435576" lon="-120.248853"></trkpt><trkpt lat="44.435249" lon="-120.249319"></trkpt><trkpt lat="44.435143" lon="-120.249935"></trkpt><trkpt lat="44.434924" lon="-120.250399"></trkpt><trkpt lat="44.434485" lon="-120.251021"></trkpt><trkpt lat="44.434190" lon="-120.251118"></trkpt><trkpt lat="44.433399" lon="-120.251921"></trkpt><trkpt lat="44.432853" lon="-120.253003"></trkpt><trkpt lat="44.432743" lon="-120.253465"></trkpt><trkpt lat="44.432633" lon="-120.253773"></trkpt><trkpt lat="44.432196" lon="-120.255619"></trkpt><trkpt lat="44.432086" lon="-120.255927"></trkpt><trkpt lat="44.431865" lon="-120.257003"></trkpt><trkpt lat="44.431978" lon="-120.259301"></trkpt><trkpt lat="44.432089" lon="-120.259606"></trkpt><trkpt lat="44.431978" lon="-120.260221"></trkpt><trkpt lat="44.431869" lon="-120.261141"></trkpt><trkpt lat="44.431651" lon="-120.261606"></trkpt><trkpt lat="44.430882" lon="-120.262384"></trkpt><trkpt lat="44.430331" lon="-120.262852"></trkpt><trkpt lat="44.430003" lon="-120.263470"></trkpt><trkpt lat="44.429893" lon="-120.263932"></trkpt><trkpt lat="44.430114" lon="-120.265461"></trkpt><trkpt lat="44.430335" lon="-120.266224"></trkpt><trkpt lat="44.431010" lon="-120.267523"></trkpt><trkpt lat="44.431103" lon="-120.268051"></trkpt><trkpt lat="44.431544" lon="-120.268964"></trkpt><trkpt lat="44.431768" lon="-120.269880"></trkpt><trkpt lat="44.431657" lon="-120.270494"></trkpt><trkpt lat="44.431109" lon="-120.271882"></trkpt><trkpt lat="44.428691" lon="-120.271459"></trkpt><trkpt lat="44.428141" lon="-120.271622"></trkpt><trkpt lat="44.427811" lon="-120.271933"></trkpt><trkpt lat="44.427589" lon="-120.272243"></trkpt><trkpt lat="44.427039" lon="-120.272405"></trkpt><trkpt lat="44.426712" lon="-120.273023"></trkpt><trkpt lat="44.426715" lon="-120.273330"></trkpt><trkpt lat="44.426825" lon="-120.273787"></trkpt><trkpt lat="44.427151" lon="-120.274089"></trkpt><trkpt lat="44.427485" lon="-120.275617"></trkpt><trkpt lat="44.427486" lon="-120.276229"></trkpt><trkpt lat="44.425837" lon="-120.277481"></trkpt><trkpt lat="44.424079" lon="-120.277967"></trkpt><trkpt lat="44.423311" lon="-120.278591"></trkpt><trkpt lat="44.422650" lon="-120.279368"></trkpt><trkpt lat="44.422539" lon="-120.279830"></trkpt><trkpt lat="44.422540" lon="-120.280442"></trkpt><trkpt lat="44.423863" lon="-120.282874"></trkpt><trkpt lat="44.424175" lon="-120.283303"></trkpt><trkpt lat="44.424304" lon="-120.283786"></trkpt><trkpt lat="44.425290" lon="-120.283619"></trkpt><trkpt lat="44.425510" lon="-120.283616"></trkpt><trkpt lat="44.426063" lon="-120.283761"></trkpt><trkpt lat="44.426279" lon="-120.283757"></trkpt><trkpt lat="44.426719" lon="-120.284670"></trkpt><trkpt lat="44.426943" lon="-120.285739"></trkpt><trkpt lat="44.427490" lon="-120.286804"></trkpt><trkpt lat="44.427823" lon="-120.287564"></trkpt><trkpt lat="44.428591" lon="-120.288626"></trkpt><trkpt lat="44.429032" lon="-120.288773"></trkpt><trkpt lat="44.429254" lon="-120.289230"></trkpt><trkpt lat="44.428700" lon="-120.289238"></trkpt><trkpt lat="44.428261" lon="-120.289703"></trkpt><trkpt lat="44.428048" lon="-120.293998"></trkpt><trkpt lat="44.427607" lon="-120.294005"></trkpt><trkpt lat="44.426509" lon="-120.294788"></trkpt><trkpt lat="44.425628" lon="-120.294647"></trkpt><trkpt lat="44.423980" lon="-120.294979"></trkpt><trkpt lat="44.423651" lon="-120.294983"></trkpt><trkpt lat="44.423324" lon="-120.294835"></trkpt><trkpt lat="44.422333" lon="-120.294237"></trkpt><trkpt lat="44.421892" lon="-120.294243"></trkpt><trkpt lat="44.421563" lon="-120.294248"></trkpt><trkpt lat="44.421125" lon="-120.294561"></trkpt><trkpt lat="44.419584" lon="-120.294890"></trkpt><trkpt lat="44.419035" lon="-120.294898"></trkpt><trkpt lat="44.418155" lon="-120.294605"></trkpt><trkpt lat="44.417606" lon="-120.294613"></trkpt><trkpt lat="44.417059" lon="-120.295081"></trkpt><trkpt lat="44.415958" lon="-120.295558"></trkpt><trkpt lat="44.415301" lon="-120.295567"></trkpt><trkpt lat="44.415082" lon="-120.295417"></trkpt><trkpt lat="44.414533" lon="-120.295425"></trkpt><trkpt lat="44.413213" lon="-120.294985"></trkpt><trkpt lat="44.412994" lon="-120.294682"></trkpt><trkpt lat="44.412661" lon="-120.294687"></trkpt><trkpt lat="44.411674" lon="-120.294088"></trkpt><trkpt lat="44.410023" lon="-120.293348"></trkpt><trkpt lat="44.409583" lon="-120.293201"></trkpt><trkpt lat="44.408817" lon="-120.292599"></trkpt><trkpt lat="44.408044" lon="-120.292305"></trkpt><trkpt lat="44.407388" lon="-120.292314"></trkpt><trkpt lat="44.406174" lon="-120.290495"></trkpt><trkpt lat="44.405404" lon="-120.288974"></trkpt><trkpt lat="44.405076" lon="-120.288214"></trkpt><trkpt lat="44.404633" lon="-120.287607"></trkpt><trkpt lat="44.402764" lon="-120.287176"></trkpt><trkpt lat="44.402106" lon="-120.286573"></trkpt><trkpt lat="44.401334" lon="-120.285513"></trkpt><trkpt lat="44.401225" lon="-120.284902"></trkpt><trkpt lat="44.401222" lon="-120.284596"></trkpt><trkpt lat="44.401334" lon="-120.283828"></trkpt><trkpt lat="44.401552" lon="-120.282599"></trkpt><trkpt lat="44.401880" lon="-120.281216"></trkpt><trkpt lat="44.402320" lon="-120.280597"></trkpt><trkpt lat="44.403633" lon="-120.279046"></trkpt><trkpt lat="44.404183" lon="-120.278118"></trkpt><trkpt lat="44.404624" lon="-120.278111"></trkpt><trkpt lat="44.405392" lon="-120.278253"></trkpt><trkpt lat="44.406162" lon="-120.278088"></trkpt><trkpt lat="44.406490" lon="-120.277470"></trkpt><trkpt lat="44.406600" lon="-120.276243"></trkpt><trkpt lat="44.406600" lon="-120.275476"></trkpt><trkpt lat="44.406927" lon="-120.274859"></trkpt><trkpt lat="44.406929" lon="-120.274552"></trkpt><trkpt lat="44.407807" lon="-120.272854"></trkpt><trkpt lat="44.407914" lon="-120.272086"></trkpt><trkpt lat="44.407912" lon="-120.270861"></trkpt><trkpt lat="44.407689" lon="-120.269639"></trkpt><trkpt lat="44.407470" lon="-120.269336"></trkpt><trkpt lat="44.407360" lon="-120.268878"></trkpt><trkpt lat="44.407358" lon="-120.268572"></trkpt><trkpt lat="44.407579" lon="-120.267496"></trkpt><trkpt lat="44.407689" lon="-120.267188"></trkpt><trkpt lat="44.407798" lon="-120.266114"></trkpt><trkpt lat="44.407025" lon="-120.264442"></trkpt><trkpt lat="44.406911" lon="-120.262912"></trkpt><trkpt lat="44.406909" lon="-120.261686"></trkpt><trkpt lat="44.406691" lon="-120.261230"></trkpt><trkpt lat="44.405700" lon="-120.259867"></trkpt><trkpt lat="44.405366" lon="-120.259106"></trkpt><trkpt lat="44.405255" lon="-120.258035"></trkpt><trkpt lat="44.405365" lon="-120.257574"></trkpt><trkpt lat="44.405364" lon="-120.256961"></trkpt><trkpt lat="44.405146" lon="-120.255739"></trkpt><trkpt lat="44.404370" lon="-120.254374"></trkpt><trkpt lat="44.404372" lon="-120.254067"></trkpt><trkpt lat="44.403820" lon="-120.252085"></trkpt><trkpt lat="44.403600" lon="-120.251169"></trkpt><trkpt lat="44.403517" lon="-120.250707"></trkpt><trkpt lat="44.403515" lon="-120.250094"></trkpt><trkpt lat="44.403066" lon="-120.247496"></trkpt><trkpt lat="44.402847" lon="-120.247194"></trkpt><trkpt lat="44.402286" lon="-120.244292"></trkpt><trkpt lat="44.402173" lon="-120.243527"></trkpt><trkpt lat="44.402383" lon="-120.240457"></trkpt><trkpt lat="44.402706" lon="-120.237845"></trkpt><trkpt lat="44.403030" lon="-120.237072"></trkpt><trkpt lat="44.404124" lon="-120.235057"></trkpt><trkpt lat="44.404666" lon="-120.233820"></trkpt><trkpt lat="44.404881" lon="-120.232283"></trkpt><trkpt lat="44.404878" lon="-120.231056"></trkpt><trkpt lat="44.405304" lon="-120.226908"></trkpt><trkpt lat="44.405504" lon="-120.225674"></trkpt><trkpt lat="44.405837" lon="-120.222911"></trkpt><trkpt lat="44.407040" lon="-120.221661"></trkpt><trkpt lat="44.407593" lon="-120.221803"></trkpt><trkpt lat="44.408138" lon="-120.221639"></trkpt><trkpt lat="44.408907" lon="-120.221623"></trkpt><trkpt lat="44.409238" lon="-120.222077"></trkpt><trkpt lat="44.409241" lon="-120.222383"></trkpt><trkpt lat="44.409465" lon="-120.223452"></trkpt><trkpt lat="44.409688" lon="-120.223907"></trkpt><trkpt lat="44.410239" lon="-120.224357"></trkpt><trkpt lat="44.411006" lon="-120.224648"></trkpt><trkpt lat="44.411338" lon="-120.224948"></trkpt><trkpt lat="44.411890" lon="-120.226011"></trkpt><trkpt lat="44.411781" lon="-120.226320"></trkpt><trkpt lat="44.412445" lon="-120.227532"></trkpt><trkpt lat="44.412997" lon="-120.227828"></trkpt><trkpt lat="44.413657" lon="-120.228889"></trkpt><trkpt lat="44.416417" lon="-120.232820"></trkpt><trkpt lat="44.416749" lon="-120.233120"></trkpt><trkpt lat="44.417740" lon="-120.233714"></trkpt><trkpt lat="44.417959" lon="-120.234016"></trkpt><trkpt lat="44.418287" lon="-120.234010"></trkpt><trkpt lat="44.418619" lon="-120.234310"></trkpt><trkpt lat="44.418948" lon="-120.234150"></trkpt><trkpt lat="44.419852" lon="-120.234691"></trkpt><trkpt lat="44.420160" lon="-120.234740"></trkpt><trkpt lat="44.421040" lon="-120.235029"></trkpt><trkpt lat="44.421367" lon="-120.234409"></trkpt><trkpt lat="44.421364" lon="-120.234102"></trkpt><trkpt lat="44.421582" lon="-120.233791"></trkpt><trkpt lat="44.422463" lon="-120.233774"></trkpt><trkpt lat="44.423455" lon="-120.235135"></trkpt><trkpt lat="44.424225" lon="-120.235886"></trkpt><trkpt lat="44.425024" lon="-120.236357"></trkpt><trkpt lat="44.426111" lon="-120.235876"></trkpt><trkpt lat="44.427146" lon="-120.234550"></trkpt><trkpt lat="44.427693" lon="-120.234307"></trkpt><trkpt lat="44.429177" lon="-120.234044"></trkpt><trkpt lat="44.429616" lon="-120.233574"></trkpt><trkpt lat="44.429778" lon="-120.233571"></trkpt><trkpt lat="44.430166" lon="-120.233792"></trkpt><trkpt lat="44.430494" lon="-120.234168"></trkpt><trkpt lat="44.431154" lon="-120.234460"></trkpt><trkpt lat="44.431595" lon="-120.234451"></trkpt><trkpt lat="44.431868" lon="-120.234368"></trkpt><trkpt lat="44.432476" lon="-120.234584"></trkpt><trkpt lat="44.433189" lon="-120.235029"></trkpt><trkpt lat="44.433576" lon="-120.235403"></trkpt><trkpt lat="44.434074" lon="-120.235699"></trkpt><trkpt lat="44.434295" lon="-120.236078"></trkpt><trkpt lat="44.434540" lon="-120.235808"></trkpt><trkpt lat="44.434649" lon="-120.235845"></trkpt><trkpt lat="44.434792" lon="-120.235990"></trkpt><trkpt lat="44.434873" lon="-120.236174"></trkpt><trkpt lat="44.434910" lon="-120.236372"></trkpt><trkpt lat="44.434904" lon="-120.236686"></trkpt><trkpt lat="44.435007" lon="-120.236877"></trkpt><trkpt lat="44.435162" lon="-120.236938"></trkpt><trkpt lat="44.435282" lon="-120.236876"></trkpt><trkpt lat="44.435324" lon="-120.236738"></trkpt><trkpt lat="44.435201" lon="-120.235590"></trkpt><trkpt lat="44.435235" lon="-120.235138"></trkpt><trkpt lat="44.435339" lon="-120.234785"></trkpt><trkpt lat="44.435507" lon="-120.234662"></trkpt><trkpt lat="44.435566" lon="-120.234677"></trkpt><trkpt lat="44.435688" lon="-120.235059"></trkpt><trkpt lat="44.435799" lon="-120.235565"></trkpt><trkpt lat="44.435912" lon="-120.235756"></trkpt><trkpt lat="44.437009" lon="-120.236455"></trkpt><trkpt lat="44.437568" lon="-120.237027"></trkpt></trkseg></trk><trk><name>T010 LOC74F3</name><trkseg><trkpt lat="44.407040" lon="-120.221661"></trkpt><trkpt lat="44.407042" lon="-120.221354"></trkpt><trkpt lat="44.407585" lon="-120.220577"></trkpt><trkpt lat="44.408680" lon="-120.219482"></trkpt><trkpt lat="44.409447" lon="-120.219006"></trkpt><trkpt lat="44.410434" lon="-120.218526"></trkpt><trkpt lat="44.410983" lon="-120.218515"></trkpt><trkpt lat="44.413295" lon="-120.218622"></trkpt><trkpt lat="44.413731" lon="-120.218614"></trkpt><trkpt lat="44.414497" lon="-120.217525"></trkpt><trkpt lat="44.415042" lon="-120.216441"></trkpt><trkpt lat="44.415807" lon="-120.215506"></trkpt><trkpt lat="44.416577" lon="-120.215491"></trkpt><trkpt lat="44.417677" lon="-120.215775"></trkpt><trkpt lat="44.418669" lon="-120.216215"></trkpt><trkpt lat="44.419441" lon="-120.216659"></trkpt><trkpt lat="44.419769" lon="-120.216806"></trkpt><trkpt lat="44.420429" lon="-120.216946"></trkpt><trkpt lat="44.420647" lon="-120.216635"></trkpt><trkpt lat="44.421748" lon="-120.216920"></trkpt><trkpt lat="44.422957" lon="-120.217049"></trkpt><trkpt lat="44.424714" lon="-120.216554"></trkpt><trkpt lat="44.425260" lon="-120.216236"></trkpt><trkpt lat="44.425918" lon="-120.216069"></trkpt><trkpt lat="44.426247" lon="-120.215910"></trkpt><trkpt lat="44.426799" lon="-120.216052"></trkpt><trkpt lat="44.428011" lon="-120.216641"></trkpt><trkpt lat="44.428338" lon="-120.216941"></trkpt><trkpt lat="44.429336" lon="-120.218915"></trkpt><trkpt lat="44.429778" lon="-120.219673"></trkpt><trkpt lat="44.430328" lon="-120.220275"></trkpt><trkpt lat="44.430768" lon="-120.220420"></trkpt><trkpt lat="44.431760" lon="-120.220861"></trkpt><trkpt lat="44.432529" lon="-120.221919"></trkpt><trkpt lat="44.432853" lon="-120.221923"></trkpt><trkpt lat="44.432968" lon="-120.221296"></trkpt><trkpt lat="44.432858" lon="-120.220838"></trkpt><trkpt lat="44.431529" lon="-120.218411"></trkpt><trkpt lat="44.431309" lon="-120.217495"></trkpt><trkpt lat="44.430753" lon="-120.216280"></trkpt><trkpt lat="44.430642" lon="-120.215975"></trkpt><trkpt lat="44.429537" lon="-120.213697"></trkpt><trkpt lat="44.429316" lon="-120.212934"></trkpt><trkpt lat="44.429314" lon="-120.212474"></trkpt><trkpt lat="44.429862" lon="-120.211696"></trkpt><trkpt lat="44.430741" lon="-120.211372"></trkpt><trkpt lat="44.432388" lon="-120.211186"></trkpt><trkpt lat="44.432383" lon="-120.210419"></trkpt><trkpt lat="44.432054" lon="-120.209658"></trkpt><trkpt lat="44.432052" lon="-120.209198"></trkpt><trkpt lat="44.431719" lon="-120.208131"></trkpt><trkpt lat="44.430835" lon="-120.206769"></trkpt><trkpt lat="44.431054" lon="-120.206304"></trkpt><trkpt lat="44.432155" lon="-120.207356"></trkpt><trkpt lat="44.432376" lon="-120.207351"></trkpt><trkpt lat="44.433584" lon="-120.208554"></trkpt><trkpt lat="44.434581" lon="-120.209914"></trkpt><trkpt lat="44.436125" lon="-120.211571"></trkpt><trkpt lat="44.436470" lon="-120.211890"></trkpt><trkpt lat="44.437196" lon="-120.212469"></trkpt><trkpt lat="44.437860" lon="-120.212768"></trkpt><trkpt lat="44.438654" lon="-120.213207"></trkpt><trkpt lat="44.439426" lon="-120.213498"></trkpt><trkpt lat="44.440415" lon="-120.213785"></trkpt><trkpt lat="44.441182" lon="-120.213310"></trkpt><trkpt lat="44.441516" lon="-120.213916"></trkpt><trkpt lat="44.441407" lon="-120.214992"></trkpt><trkpt lat="44.441410" lon="-120.215452"></trkpt><trkpt lat="44.441740" lon="-120.215906"></trkpt><trkpt lat="44.441963" lon="-120.217282"></trkpt><trkpt lat="44.443288" lon="-120.219402"></trkpt><trkpt lat="44.444505" lon="-120.220912"></trkpt><trkpt lat="44.444834" lon="-120.221520"></trkpt><trkpt lat="44.445166" lon="-120.221820"></trkpt><trkpt lat="44.445822" lon="-120.221960"></trkpt><trkpt lat="44.446154" lon="-120.222107"></trkpt><trkpt lat="44.446593" lon="-120.222558"></trkpt><trkpt lat="44.447585" lon="-120.223766"></trkpt><trkpt lat="44.448691" lon="-120.224971"></trkpt><trkpt lat="44.449793" lon="-120.226790"></trkpt><trkpt lat="44.450563" lon="-120.227541"></trkpt><trkpt lat="44.451130" lon="-120.227531"></trkpt><trkpt lat="44.451995" lon="-120.227973"></trkpt><trkpt lat="44.452431" lon="-120.228118"></trkpt><trkpt lat="44.453425" lon="-120.229019"></trkpt><trkpt lat="44.454192" lon="-120.229463"></trkpt><trkpt lat="44.454852" lon="-120.229757"></trkpt><trkpt lat="44.455954" lon="-120.229888"></trkpt></trkseg></trk><trk><name>T011 LOC74F3</name><trkseg><trkpt lat="44.467748" lon="-120.629351"></trkpt><trkpt lat="44.467470" lon="-120.629214"></trkpt><trkpt lat="44.467579" lon="-120.628812"></trkpt><trkpt lat="44.467239" lon="-120.628719"></trkpt><trkpt lat="44.466871" lon="-120.628959"></trkpt><trkpt lat="44.465833" lon="-120.629908"></trkpt><trkpt lat="44.465373" lon="-120.630124"></trkpt><trkpt lat="44.464499" lon="-120.630490"></trkpt><trkpt lat="44.464077" lon="-120.630575"></trkpt><trkpt lat="44.463216" lon="-120.630493"></trkpt><trkpt lat="44.462820" lon="-120.630723"></trkpt><trkpt lat="44.462620" lon="-120.631279"></trkpt><trkpt lat="44.462476" lon="-120.631912"></trkpt><trkpt lat="44.462222" lon="-120.632474"></trkpt><trkpt lat="44.462022" lon="-120.633067"></trkpt><trkpt lat="44.461910" lon="-120.633743"></trkpt><trkpt lat="44.461782" lon="-120.634281"></trkpt><trkpt lat="44.461403" lon="-120.634899"></trkpt><trkpt lat="44.461226" lon="-120.635689"></trkpt><trkpt lat="44.461340" lon="-120.636628"></trkpt><trkpt lat="44.461189" lon="-120.637173"></trkpt><trkpt lat="44.460937" lon="-120.637599"></trkpt><trkpt lat="44.460530" lon="-120.637936"></trkpt><trkpt lat="44.460263" lon="-120.638310"></trkpt><trkpt lat="44.459141" lon="-120.639348"></trkpt><trkpt lat="44.458990" lon="-120.639452"></trkpt><trkpt lat="44.458595" lon="-120.639487"></trkpt><trkpt lat="44.457970" lon="-120.640171"></trkpt><trkpt lat="44.457637" lon="-120.640424"></trkpt><trkpt lat="44.457271" lon="-120.640559"></trkpt><trkpt lat="44.456924" lon="-120.641399"></trkpt><trkpt lat="44.456907" lon="-120.642130"></trkpt><trkpt lat="44.456948" lon="-120.642589"></trkpt><trkpt lat="44.457113" lon="-120.643129"></trkpt><trkpt lat="44.457097" lon="-120.643691"></trkpt><trkpt lat="44.457227" lon="-120.644310"></trkpt><trkpt lat="44.457118" lon="-120.644912"></trkpt><trkpt lat="44.457008" lon="-120.645927"></trkpt><trkpt lat="44.456989" lon="-120.647175"></trkpt><trkpt lat="44.457038" lon="-120.647788"></trkpt><trkpt lat="44.456819" lon="-120.649206"></trkpt><trkpt lat="44.456760" lon="-120.649849"></trkpt><trkpt lat="44.456502" lon="-120.650427"></trkpt><trkpt lat="44.456186" lon="-120.650799"></trkpt><trkpt lat="44.455764" lon="-120.651102"></trkpt><trkpt lat="44.454980" lon="-120.652119"></trkpt><trkpt lat="44.454707" lon="-120.652636"></trkpt><trkpt lat="44.454292" lon="-120.653058"></trkpt><trkpt lat="44.454037" lon="-120.653558"></trkpt><trkpt lat="44.453478" lon="-120.655273"></trkpt><trkpt lat="44.452987" lon="-120.655482"></trkpt><trkpt lat="44.452820" lon="-120.655888"></trkpt><trkpt lat="44.452534" lon="-120.657111"></trkpt><trkpt lat="44.452268" lon="-120.657733"></trkpt><trkpt lat="44.452032" lon="-120.658718"></trkpt><trkpt lat="44.451937" lon="-120.659587"></trkpt><trkpt lat="44.452030" lon="-120.660417"></trkpt><trkpt lat="44.452215" lon="-120.661280"></trkpt><trkpt lat="44.452061" lon="-120.661886"></trkpt><trkpt lat="44.451793" lon="-120.662671"></trkpt><trkpt lat="44.451568" lon="-120.662475"></trkpt><trkpt lat="44.451410" lon="-120.663093"></trkpt><trkpt lat="44.451099" lon="-120.663284"></trkpt><trkpt lat="44.450988" lon="-120.663822"></trkpt><trkpt lat="44.450996" lon="-120.664403"></trkpt><trkpt lat="44.450942" lon="-120.665942"></trkpt><trkpt lat="44.450989" lon="-120.666493"></trkpt><trkpt lat="44.450983" lon="-120.667097"></trkpt><trkpt lat="44.450863" lon="-120.667618"></trkpt><trkpt lat="44.450634" lon="-120.668061"></trkpt><trkpt lat="44.450537" lon="-120.668607"></trkpt><trkpt lat="44.450180" lon="-120.669643"></trkpt><trkpt lat="44.449836" lon="-120.670003"></trkpt><trkpt lat="44.449664" lon="-120.670597"></trkpt><trkpt lat="44.449248" lon="-120.670740"></trkpt><trkpt lat="44.448835" lon="-120.670556"></trkpt><trkpt lat="44.448490" lon="-120.670190"></trkpt><trkpt lat="44.448149" lon="-120.670044"></trkpt><trkpt lat="44.447585" lon="-120.671073"></trkpt><trkpt lat="44.447472" lon="-120.672170"></trkpt><trkpt lat="44.447578" lon="-120.672946"></trkpt><trkpt lat="44.447990" lon="-120.673943"></trkpt><trkpt lat="44.447729" lon="-120.675508"></trkpt><trkpt lat="44.447193" lon="-120.676791"></trkpt><trkpt lat="44.447238" lon="-120.677014"></trkpt><trkpt lat="44.447217" lon="-120.677779"></trkpt><trkpt lat="44.447041" lon="-120.677951"></trkpt><trkpt lat="44.446918" lon="-120.678764"></trkpt><trkpt lat="44.446917" lon="-120.680042"></trkpt><trkpt lat="44.446714" lon="-120.681363"></trkpt><trkpt lat="44.446883" lon="-120.681705"></trkpt><trkpt lat="44.446781" lon="-120.682451"></trkpt><trkpt lat="44.446569" lon="-120.683112"></trkpt><trkpt lat="44.446238" lon="-120.683412"></trkpt><trkpt lat="44.445996" lon="-120.683925"></trkpt><trkpt lat="44.445834" lon="-120.685018"></trkpt><trkpt lat="44.445622" lon="-120.685676"></trkpt><trkpt lat="44.445276" lon="-120.686346"></trkpt><trkpt lat="44.444676" lon="-120.686975"></trkpt><trkpt lat="44.443584" lon="-120.687720"></trkpt><trkpt lat="44.443294" lon="-120.687848"></trkpt><trkpt lat="44.442925" lon="-120.687842"></trkpt><trkpt lat="44.442323" lon="-120.687716"></trkpt><trkpt lat="44.441752" lon="-120.687740"></trkpt><trkpt lat="44.440955" lon="-120.687926"></trkpt><trkpt lat="44.440617" lon="-120.687913"></trkpt><trkpt lat="44.439510" lon="-120.687492"></trkpt><trkpt lat="44.439366" lon="-120.687706"></trkpt><trkpt lat="44.439281" lon="-120.687979"></trkpt><trkpt lat="44.439342" lon="-120.689414"></trkpt><trkpt lat="44.439258" lon="-120.689263"></trkpt><trkpt lat="44.438935" lon="-120.690207"></trkpt><trkpt lat="44.438727" lon="-120.691301"></trkpt><trkpt lat="44.438623" lon="-120.692365"></trkpt><trkpt lat="44.438190" lon="-120.693211"></trkpt><trkpt lat="44.437409" lon="-120.693789"></trkpt><trkpt lat="44.437247" lon="-120.694687"></trkpt><trkpt lat="44.436964" lon="-120.695157"></trkpt><trkpt lat="44.436654" lon="-120.696287"></trkpt><trkpt lat="44.436650" lon="-120.696969"></trkpt><trkpt lat="44.436336" lon="-120.697492"></trkpt><trkpt lat="44.436126" lon="-120.698026"></trkpt><trkpt lat="44.435872" lon="-120.698375"></trkpt><trkpt lat="44.435609" lon="-120.698943"></trkpt><trkpt lat="44.435667" lon="-120.699575"></trkpt><trkpt lat="44.435512" lon="-120.699933"></trkpt><trkpt lat="44.435423" lon="-120.700414"></trkpt><trkpt lat="44.435156" lon="-120.700802"></trkpt><trkpt lat="44.434793" lon="-120.700907"></trkpt><trkpt lat="44.434582" lon="-120.701788"></trkpt><trkpt lat="44.434173" lon="-120.701831"></trkpt><trkpt lat="44.433727" lon="-120.702058"></trkpt><trkpt lat="44.433276" lon="-120.702234"></trkpt><trkpt lat="44.432818" lon="-120.702048"></trkpt><trkpt lat="44.432372" lon="-120.701801"></trkpt><trkpt lat="44.431493" lon="-120.702006"></trkpt><trkpt lat="44.430490" lon="-120.702477"></trkpt><trkpt lat="44.430068" lon="-120.702953"></trkpt><trkpt lat="44.429831" lon="-120.703482"></trkpt><trkpt lat="44.429485" lon="-120.703961"></trkpt><trkpt lat="44.429083" lon="-120.705050"></trkpt><trkpt lat="44.428618" lon="-120.705871"></trkpt><trkpt lat="44.428198" lon="-120.705798"></trkpt><trkpt lat="44.427786" lon="-120.705896"></trkpt><trkpt lat="44.427456" lon="-120.706038"></trkpt><trkpt lat="44.427038" lon="-120.706057"></trkpt><trkpt lat="44.426603" lon="-120.706149"></trkpt><trkpt lat="44.426237" lon="-120.706321"></trkpt><trkpt lat="44.425843" lon="-120.706663"></trkpt><trkpt lat="44.425375" lon="-120.706649"></trkpt><trkpt lat="44.424988" lon="-120.706234"></trkpt><trkpt lat="44.424183" lon="-120.705593"></trkpt><trkpt lat="44.423816" lon="-120.705214"></trkpt><trkpt lat="44.423432" lon="-120.704919"></trkpt><trkpt lat="44.422599" lon="-120.704953"></trkpt><trkpt lat="44.422150" lon="-120.704783"></trkpt><trkpt lat="44.421748" lon="-120.704682"></trkpt><trkpt lat="44.420926" lon="-120.704545"></trkpt><trkpt lat="44.420597" lon="-120.704768"></trkpt><trkpt lat="44.419793" lon="-120.704636"></trkpt><trkpt lat="44.419393" lon="-120.704413"></trkpt><trkpt lat="44.418468" lon="-120.704346"></trkpt><trkpt lat="44.417543" lon="-120.704219"></trkpt><trkpt lat="44.417058" lon="-120.704030"></trkpt><trkpt lat="44.416569" lon="-120.703903"></trkpt><trkpt lat="44.416104" lon="-120.703835"></trkpt><trkpt lat="44.415669" lon="-120.703687"></trkpt><trkpt lat="44.415268" lon="-120.703697"></trkpt><trkpt lat="44.414830" lon="-120.703829"></trkpt><trkpt lat="44.414344" lon="-120.703833"></trkpt><trkpt lat="44.413881" lon="-120.703896"></trkpt><trkpt lat="44.413543" lon="-120.704079"></trkpt><trkpt lat="44.413154" lon="-120.704228"></trkpt><trkpt lat="44.412736" lon="-120.704004"></trkpt><trkpt lat="44.412343" lon="-120.703698"></trkpt><trkpt lat="44.411873" lon="-120.703430"></trkpt><trkpt lat="44.410997" lon="-120.703295"></trkpt><trkpt lat="44.410739" lon="-120.703418"></trkpt><trkpt lat="44.410270" lon="-120.703379"></trkpt><trkpt lat="44.409801" lon="-120.703108"></trkpt><trkpt lat="44.409144" lon="-120.701982"></trkpt><trkpt lat="44.408885" lon="-120.701429"></trkpt><trkpt lat="44.408685" lon="-120.700910"></trkpt><trkpt lat="44.408315" lon="-120.700635"></trkpt><trkpt lat="44.408042" lon="-120.700481"></trkpt><trkpt lat="44.407912" lon="-120.700266"></trkpt><trkpt lat="44.407672" lon="-120.700011"></trkpt><trkpt lat="44.407558" lon="-120.699488"></trkpt><trkpt lat="44.407311" lon="-120.699047"></trkpt><trkpt lat="44.406857" lon="-120.699086"></trkpt><trkpt lat="44.406390" lon="-120.698938"></trkpt><trkpt lat="44.405908" lon="-120.699106"></trkpt><trkpt lat="44.405487" lon="-120.699459"></trkpt><trkpt lat="44.404984" lon="-120.699513"></trkpt><trkpt lat="44.404613" lon="-120.699873"></trkpt><trkpt lat="44.404232" lon="-120.700159"></trkpt><trkpt lat="44.404036" lon="-120.700704"></trkpt><trkpt lat="44.403685" lon="-120.701175"></trkpt><trkpt lat="44.403227" lon="-120.701470"></trkpt><trkpt lat="44.403009" lon="-120.702029"></trkpt><trkpt lat="44.402577" lon="-120.702270"></trkpt><trkpt lat="44.402224" lon="-120.702623"></trkpt><trkpt lat="44.401886" lon="-120.703056"></trkpt><trkpt lat="44.401608" lon="-120.703566"></trkpt><trkpt lat="44.400933" lon="-120.704433"></trkpt><trkpt lat="44.400649" lon="-120.704891"></trkpt><trkpt lat="44.400205" lon="-120.706073"></trkpt><trkpt lat="44.399889" lon="-120.706503"></trkpt><trkpt lat="44.399161" lon="-120.707217"></trkpt><trkpt lat="44.398528" lon="-120.707988"></trkpt><trkpt lat="44.398325" lon="-120.708854"></trkpt><trkpt lat="44.398098" lon="-120.709223"></trkpt><trkpt lat="44.397972" lon="-120.709207"></trkpt></trkseg></trk></gpx>