<?xml version="1.0" encoding="UTF-8"?>
<gpx version="1.1" creator="Bob's App Voyager Live UI" xmlns="http://www.topografix.com/GPX/1/1">
  <metadata><name>Forest Loop</name></metadata>
  <trk>
    <name>RIDE-32</name>
    <trkseg>
      <trkpt lat="45.768892" lon="-122.519284"><ele>332</ele><time>2026-08-18T12:30:00Z</time></trkpt>
      <trkpt lat="45.769180" lon="-122.518650"><ele>335</ele><time>2026-08-18T12:30:05Z</time></trkpt>
      <trkpt lat="45.769540" lon="-122.518010"><ele>338</ele><time>2026-08-18T12:30:10Z</time></trkpt>
      <trkpt lat="45.769420" lon="-122.517220"><ele>341</ele><time>2026-08-18T12:30:15Z</time></trkpt>
      <trkpt lat="45.768980" lon="-122.516720"><ele>345</ele><time>2026-08-18T12:30:20Z</time></trkpt>
      <trkpt lat="45.768420" lon="-122.516510"><ele>349</ele><time>2026-08-18T12:30:25Z</time></trkpt>
      <trkpt lat="45.767900" lon="-122.516050"><ele>352</ele><time>2026-08-18T12:30:30Z</time></trkpt>
      <trkpt lat="45.767560" lon="-122.515280"><ele>356</ele><time>2026-08-18T12:30:35Z</time></trkpt>
      <trkpt lat="45.767140" lon="-122.514650"><ele>361</ele><time>2026-08-18T12:30:40Z</time></trkpt>
      <trkpt lat="45.766720" lon="-122.515230"><ele>358</ele><time>2026-08-18T12:30:45Z</time></trkpt>
      <trkpt lat="45.766420" lon="-122.516040"><ele>354</ele><time>2026-08-18T12:30:50Z</time></trkpt>
      <trkpt lat="45.766650" lon="-122.516810"><ele>350</ele><time>2026-08-18T12:30:55Z</time></trkpt>
      <trkpt lat="45.766780" lon="-122.517650"><ele>346</ele><time>2026-08-18T12:31:00Z</time></trkpt>
      <trkpt lat="45.766520" lon="-122.518360"><ele>343</ele><time>2026-08-18T12:31:05Z</time></trkpt>
      <trkpt lat="45.766120" lon="-122.519020"><ele>340</ele><time>2026-08-18T12:31:10Z</time></trkpt>
      <trkpt lat="45.766480" lon="-122.519720"><ele>337</ele><time>2026-08-18T12:31:15Z</time></trkpt>
      <trkpt lat="45.767020" lon="-122.520020"><ele>335</ele><time>2026-08-18T12:31:20Z</time></trkpt>
      <trkpt lat="45.767580" lon="-122.519760"><ele>334</ele><time>2026-08-18T12:31:25Z</time></trkpt>
      <trkpt lat="45.768160" lon="-122.519520"><ele>333</ele><time>2026-08-18T12:31:30Z</time></trkpt>
      <trkpt lat="45.768892" lon="-122.519284"><ele>332</ele><time>2026-08-18T12:31:35Z</time></trkpt>
    </trkseg>
  </trk>
</gpx>
