<?xml version='1.0' encoding='utf-8'?>
<gpx xmlns="http://www.topografix.com/GPX/1/1" xmlns:xsi="http://www.w3.org/2001/XMLSchema-instance" version="1.1" creator="Bob's Motorcycle Trails" xsi:schemaLocation="http://www.topografix.com/GPX/1/1 http://www.topografix.com/GPX/1/1/gpx.xsd"><trk><name>S001 STATE</name><trkseg><trkpt lat="41.994540" lon="-119.999168"></trkpt><trkpt lat="41.998460" lon="-124.211605"></trkpt><trkpt lat="42.250547" lon="-124.410982"></trkpt><trkpt lat="42.657934" lon="-124.413119"></trkpt><trkpt lat="42.840568" lon="-124.552441"></trkpt><trkpt lat="43.910850" lon="-124.150267"></trkpt><trkpt lat="45.661923" lon="-123.939005"></trkpt><trkpt lat="46.041978" lon="-123.929330"></trkpt><trkpt lat="46.197672" lon="-124.041128"></trkpt><trkpt lat="46.188989" lon="-123.718149"></trkpt><trkpt lat="46.259109" lon="-123.547659"></trkpt><trkpt lat="46.267239" lon="-124.080671"></trkpt><trkpt lat="46.630651" lon="-124.069583"></trkpt><trkpt lat="46.672708" lon="-123.923269"></trkpt><trkpt lat="46.735003" lon="-124.080983"></trkpt><trkpt lat="47.691199" lon="-124.412106"></trkpt><trkpt lat="47.964414" lon="-124.672427"></trkpt><trkpt lat="48.386012" lon="-124.725839"></trkpt><trkpt lat="48.177747" lon="-124.050734"></trkpt><trkpt lat="48.113725" lon="-123.314578"></trkpt><trkpt lat="48.175943" lon="-123.144783"></trkpt><trkpt lat="48.090516" lon="-123.004128"></trkpt><trkpt lat="48.143240" lon="-122.760448"></trkpt><trkpt lat="47.920985" lon="-122.651063"></trkpt><trkpt lat="47.996404" lon="-122.542924"></trkpt><trkpt lat="48.260061" lon="-122.752563"></trkpt><trkpt lat="48.588339" lon="-122.642597"></trkpt><trkpt lat="48.941369" lon="-122.821631"></trkpt><trkpt lat="49.002357" lon="-122.758020"></trkpt><trkpt lat="48.999188" lon="-117.032351"></trkpt><trkpt lat="46.353624" lon="-117.062748"></trkpt><trkpt lat="45.995413" lon="-116.915989"></trkpt><trkpt lat="45.999855" lon="-118.987129"></trkpt><trkpt lat="45.932859" lon="-119.126120"></trkpt><trkpt lat="45.919581" lon="-119.600549"></trkpt><trkpt lat="45.725951" lon="-120.210754"></trkpt><trkpt lat="45.745847" lon="-120.634968"></trkpt><trkpt lat="45.606441" lon="-121.183841"></trkpt><trkpt lat="45.704949" lon="-121.337770"></trkpt><trkpt lat="45.706761" lon="-121.811304"></trkpt><trkpt lat="45.544321" lon="-122.262625"></trkpt><trkpt lat="45.644138" lon="-122.738109"></trkpt><trkpt lat="46.083734" lon="-122.904119"></trkpt><trkpt lat="46.185268" lon="-123.115904"></trkpt><trkpt lat="46.146372" lon="-123.371433"></trkpt><trkpt lat="46.259109" lon="-123.547659"></trkpt></trkseg></trk><trk><name>S002 STATE</name><trkseg><trkpt lat="41.998460" lon="-124.211605"></trkpt><trkpt lat="41.792300" lon="-124.245027"></trkpt><trkpt lat="41.439579" lon="-124.063076"></trkpt><trkpt lat="41.138675" lon="-124.163988"></trkpt><trkpt lat="40.989263" lon="-124.118147"></trkpt><trkpt lat="40.438076" lon="-124.409591"></trkpt><trkpt lat="40.260974" lon="-124.363414"></trkpt><trkpt lat="39.832041" lon="-123.851714"></trkpt><trkpt lat="38.954994" lon="-123.732892"></trkpt><trkpt lat="38.297012" lon="-123.004122"></trkpt><trkpt lat="38.003438" lon="-123.011533"></trkpt><trkpt lat="38.016717" lon="-122.856573"></trkpt><trkpt lat="37.826728" lon="-122.483483"></trkpt><trkpt lat="37.852721" lon="-122.418470"></trkpt><trkpt lat="38.108087" lon="-122.491283"></trkpt><trkpt lat="38.143449" lon="-122.393588"></trkpt><trkpt lat="38.051473" lon="-122.262861"></trkpt><trkpt lat="37.955672" lon="-122.425258"></trkpt><trkpt lat="37.528851" lon="-122.111998"></trkpt><trkpt lat="37.592501" lon="-122.360219"></trkpt><trkpt lat="37.805630" lon="-122.398139"></trkpt><trkpt lat="37.771130" lon="-122.511983"></trkpt><trkpt lat="37.187249" lon="-122.397065"></trkpt><trkpt lat="36.955951" lon="-122.105976"></trkpt><trkpt lat="36.931552" lon="-121.862266"></trkpt><trkpt lat="36.682858" lon="-121.814462"></trkpt><trkpt lat="36.582754" lon="-121.970427"></trkpt><trkpt lat="36.302810" lon="-121.888491"></trkpt><trkpt lat="35.970348" lon="-121.486200"></trkpt><trkpt lat="35.666711" lon="-121.272322"></trkpt><trkpt lat="35.430196" lon="-120.884757"></trkpt><trkpt lat="35.247877" lon="-120.896790"></trkpt><trkpt lat="35.123805" lon="-120.635787"></trkpt><trkpt lat="34.554017" lon="-120.622575"></trkpt><trkpt lat="34.447094" lon="-120.451425"></trkpt><trkpt lat="34.420995" lon="-119.616862"></trkpt><trkpt lat="34.094566" lon="-119.109784"></trkpt><trkpt lat="34.001239" lon="-118.805114"></trkpt><trkpt lat="34.027509" lon="-118.519514"></trkpt><trkpt lat="33.735917" lon="-118.396606"></trkpt><trkpt lat="33.753217" lon="-118.132698"></trkpt><trkpt lat="33.268517" lon="-117.445583"></trkpt><trkpt lat="33.012343" lon="-117.280770"></trkpt><trkpt lat="32.669352" lon="-117.246069"></trkpt><trkpt lat="32.671952" lon="-117.168866"></trkpt><trkpt lat="32.534156" lon="-117.124862"></trkpt><trkpt lat="32.718763" lon="-114.719633"></trkpt><trkpt lat="32.494277" lon="-114.813613"></trkpt><trkpt lat="31.332239" lon="-111.074825"></trkpt><trkpt lat="31.332502" lon="-109.050044"></trkpt><trkpt lat="36.999084" lon="-109.045223"></trkpt><trkpt lat="37.000396" lon="-114.050600"></trkpt><trkpt lat="36.194069" lon="-114.046838"></trkpt><trkpt lat="36.024563" lon="-114.151725"></trkpt><trkpt lat="36.143114" lon="-114.372106"></trkpt><trkpt lat="36.104367" lon="-114.736165"></trkpt><trkpt lat="35.138725" lon="-114.572747"></trkpt><trkpt lat="35.001857" lon="-114.633487"></trkpt><trkpt lat="38.999574" lon="-120.001014"></trkpt><trkpt lat="41.994540" lon="-119.999168"></trkpt><trkpt lat="41.999890" lon="-117.026197"></trkpt><trkpt lat="43.823811" lon="-117.023577"></trkpt><trkpt lat="44.154295" lon="-116.895931"></trkpt><trkpt lat="44.288357" lon="-117.216974"></trkpt><trkpt lat="44.390974" lon="-117.243027"></trkpt><trkpt lat="44.727143" lon="-117.062273"></trkpt><trkpt lat="44.870599" lon="-116.865338"></trkpt><trkpt lat="45.615785" lon="-116.463504"></trkpt><trkpt lat="45.995413" lon="-116.915989"></trkpt></trkseg></trk><trk><name>S003 STATE</name><trkseg><trkpt lat="48.999188" lon="-117.032351"></trkpt><trkpt lat="49.000912" lon="-116.049193"></trkpt><trkpt lat="47.999923" lon="-116.049153"></trkpt><trkpt lat="47.696671" lon="-115.723770"></trkpt><trkpt lat="47.481760" lon="-115.634684"></trkpt><trkpt lat="47.417784" lon="-115.710340"></trkpt><trkpt lat="47.255912" lon="-115.326903"></trkpt><trkpt lat="46.738828" lon="-114.767180"></trkpt><trkpt lat="46.658143" lon="-114.621483"></trkpt><trkpt lat="46.646963" lon="-114.320665"></trkpt><trkpt lat="46.167726" lon="-114.514706"></trkpt><trkpt lat="45.882340" lon="-114.388243"></trkpt><trkpt lat="45.779927" lon="-114.562509"></trkpt><trkpt lat="45.559216" lon="-114.506341"></trkpt><trkpt lat="45.480616" lon="-114.279217"></trkpt><trkpt lat="45.700636" lon="-113.971565"></trkpt><trkpt lat="45.602146" lon="-113.806729"></trkpt><trkpt lat="45.325265" lon="-113.735601"></trkpt><trkpt lat="45.059247" lon="-113.451970"></trkpt><trkpt lat="44.910846" lon="-113.474573"></trkpt><trkpt lat="44.764738" lon="-113.131387"></trkpt><trkpt lat="44.380315" lon="-112.881769"></trkpt><trkpt lat="44.503023" lon="-112.707815"></trkpt><trkpt lat="44.448058" lon="-112.387389"></trkpt><trkpt lat="44.568472" lon="-112.286187"></trkpt><trkpt lat="44.511716" lon="-111.807914"></trkpt><trkpt lat="44.555209" lon="-111.562814"></trkpt><trkpt lat="44.755128" lon="-111.385005"></trkpt><trkpt lat="44.474072" lon="-111.048974"></trkpt><trkpt lat="42.001567" lon="-111.046689"></trkpt><trkpt lat="41.993720" lon="-114.041723"></trkpt><trkpt lat="37.000396" lon="-114.050600"></trkpt></trkseg></trk><trk><name>S004 STATE</name><trkseg><trkpt lat="41.993720" lon="-114.041723"></trkpt><trkpt lat="41.999890" lon="-117.026197"></trkpt></trkseg></trk><trk><name>S005 STATE</name><trkseg><trkpt lat="49.000687" lon="-97.229039"></trkpt><trkpt lat="48.999877" lon="-104.048736"></trkpt><trkpt lat="49.000912" lon="-116.049193"></trkpt></trkseg></trk><trk><name>S006 STATE</name><trkseg><trkpt lat="35.001857" lon="-114.633487"></trkpt><trkpt lat="34.872890" lon="-114.634382"></trkpt><trkpt lat="34.450376" lon="-114.378852"></trkpt><trkpt lat="34.259538" lon="-114.139055"></trkpt><trkpt lat="34.111540" lon="-114.405941"></trkpt><trkpt lat="33.928499" lon="-114.534987"></trkpt><trkpt lat="33.552231" lon="-114.524599"></trkpt><trkpt lat="33.405048" lon="-114.725282"></trkpt><trkpt lat="33.288079" lon="-114.723259"></trkpt><trkpt lat="33.037984" lon="-114.670803"></trkpt><trkpt lat="33.023455" lon="-114.511343"></trkpt><trkpt lat="32.845155" lon="-114.468971"></trkpt><trkpt lat="32.718763" lon="-114.719633"></trkpt></trkseg></trk><trk><name>S007 STATE</name><trkseg><trkpt lat="44.997431" lon="-104.057698"></trkpt><trkpt lat="45.001345" lon="-111.044275"></trkpt><trkpt lat="44.474072" lon="-111.048974"></trkpt></trkseg></trk><trk><name>S008 STATE</name><trkseg><trkpt lat="31.332502" lon="-109.050044"></trkpt><trkpt lat="31.333395" lon="-108.208573"></trkpt><trkpt lat="31.783599" lon="-108.208394"></trkpt><trkpt lat="31.783148" lon="-106.528242"></trkpt><trkpt lat="31.871514" lon="-106.635880"></trkpt><trkpt lat="32.000495" lon="-106.618486"></trkpt><trkpt lat="32.000518" lon="-103.064423"></trkpt><trkpt lat="36.500397" lon="-103.002434"></trkpt><trkpt lat="37.000104" lon="-103.002199"></trkpt><trkpt lat="36.999084" lon="-109.045223"></trkpt><trkpt lat="41.000659" lon="-109.050076"></trkpt><trkpt lat="40.997959" lon="-111.046723"></trkpt><trkpt lat="42.001567" lon="-111.046689"></trkpt></trkseg></trk><trk><name>S009 STATE</name><trkseg><trkpt lat="48.999877" lon="-104.048736"></trkpt><trkpt lat="45.945310" lon="-104.045443"></trkpt><trkpt lat="44.997431" lon="-104.057698"></trkpt><trkpt lat="43.000585" lon="-104.053127"></trkpt><trkpt lat="41.001406" lon="-104.053249"></trkpt><trkpt lat="41.000659" lon="-109.050076"></trkpt></trkseg></trk><trk><name>S010 STATE</name><trkseg><trkpt lat="31.783148" lon="-106.528242"></trkpt><trkpt lat="30.852979" lon="-105.394242"></trkpt><trkpt lat="30.604832" lon="-104.924796"></trkpt><trkpt lat="30.211736" lon="-104.702788"></trkpt><trkpt lat="29.911112" lon="-104.672327"></trkpt><trkpt lat="29.676074" lon="-104.539761"></trkpt><trkpt lat="29.330910" lon="-104.055596"></trkpt><trkpt lat="28.982138" lon="-103.281190"></trkpt><trkpt lat="28.982124" lon="-103.126748"></trkpt><trkpt lat="29.241625" lon="-102.871347"></trkpt><trkpt lat="29.738261" lon="-102.677192"></trkpt><trkpt lat="29.765569" lon="-102.392906"></trkpt><trkpt lat="29.877674" lon="-102.301381"></trkpt><trkpt lat="29.792390" lon="-102.115682"></trkpt><trkpt lat="29.738079" lon="-101.400636"></trkpt><trkpt lat="29.520342" lon="-101.254895"></trkpt><trkpt lat="29.458661" lon="-101.060151"></trkpt><trkpt lat="29.099777" lon="-100.674656"></trkpt><trkpt lat="28.250269" lon="-100.267604"></trkpt><trkpt lat="27.967710" lon="-99.932161"></trkpt><trkpt lat="27.778809" lon="-99.844737"></trkpt><trkpt lat="27.580207" lon="-99.530138"></trkpt><trkpt lat="27.026026" lon="-99.446970"></trkpt><trkpt lat="26.843213" lon="-99.268613"></trkpt><trkpt lat="26.396510" lon="-99.082002"></trkpt><trkpt lat="26.369421" lon="-98.807348"></trkpt><trkpt lat="26.235960" lon="-98.654221"></trkpt><trkpt lat="26.056153" lon="-98.197046"></trkpt><trkpt lat="26.006614" lon="-97.644011"></trkpt><trkpt lat="25.840378" lon="-97.422636"></trkpt><trkpt lat="25.971132" lon="-97.145567"></trkpt><trkpt lat="27.060044" lon="-97.378697"></trkpt><trkpt lat="27.427175" lon="-97.296057"></trkpt><trkpt lat="27.908307" lon="-97.003325"></trkpt><trkpt lat="28.423659" lon="-96.328817"></trkpt><trkpt lat="28.866348" lon="-95.382390"></trkpt><trkpt lat="29.430780" lon="-94.670389"></trkpt><trkpt lat="29.671163" lon="-94.056506"></trkpt><trkpt lat="29.690619" lon="-93.837971"></trkpt><trkpt lat="29.802952" lon="-93.929208"></trkpt><trkpt lat="30.054291" lon="-93.703940"></trkpt><trkpt lat="30.544842" lon="-93.729195"></trkpt><trkpt lat="30.924534" lon="-93.530936"></trkpt><trkpt lat="31.185614" lon="-93.535097"></trkpt><trkpt lat="31.182541" lon="-93.602443"></trkpt><trkpt lat="31.504092" lon="-93.725925"></trkpt><trkpt lat="31.586211" lon="-93.834924"></trkpt><trkpt lat="31.805467" lon="-93.853390"></trkpt><trkpt lat="31.992402" lon="-94.041833"></trkpt><trkpt lat="33.019219" lon="-94.042964"></trkpt><trkpt lat="33.551425" lon="-94.043428"></trkpt><trkpt lat="33.556452" lon="-94.354165"></trkpt><trkpt lat="33.637867" lon="-94.485875"></trkpt><trkpt lat="33.739431" lon="-94.841634"></trkpt><trkpt lat="33.961954" lon="-95.226393"></trkpt><trkpt lat="33.867789" lon="-95.352338"></trkpt><trkpt lat="33.927195" lon="-95.603657"></trkpt><trkpt lat="33.831946" lon="-96.151630"></trkpt><trkpt lat="33.694215" lon="-96.363135"></trkpt><trkpt lat="33.916666" lon="-96.659896"></trkpt><trkpt lat="33.831633" lon="-96.712422"></trkpt><trkpt lat="33.944582" lon="-96.952313"></trkpt><trkpt lat="33.721967" lon="-97.149394"></trkpt><trkpt lat="33.914280" lon="-97.206141"></trkpt><trkpt lat="33.823773" lon="-97.444193"></trkpt><trkpt lat="33.916994" lon="-97.486505"></trkpt><trkpt lat="33.991370" lon="-97.671772"></trkpt><trkpt lat="33.849393" lon="-97.865765"></trkpt><trkpt lat="33.878424" lon="-97.951215"></trkpt><trkpt lat="33.991053" lon="-97.947572"></trkpt><trkpt lat="34.002412" lon="-98.082839"></trkpt><trkpt lat="34.154540" lon="-98.123377"></trkpt><trkpt lat="34.157109" lon="-98.364023"></trkpt><trkpt lat="34.064269" lon="-98.475066"></trkpt><trkpt lat="34.164441" lon="-98.648073"></trkpt><trkpt lat="34.214312" lon="-99.189511"></trkpt><trkpt lat="34.437083" lon="-99.350407"></trkpt><trkpt lat="34.381036" lon="-99.696462"></trkpt><trkpt lat="34.576714" lon="-99.929334"></trkpt><trkpt lat="34.560509" lon="-100.000381"></trkpt><trkpt lat="36.499702" lon="-100.000406"></trkpt><trkpt lat="36.500397" lon="-103.002434"></trkpt></trkseg></trk><trk><name>S011 STATE</name><trkseg><trkpt lat="41.001406" lon="-104.053249"></trkpt><trkpt lat="41.002377" lon="-102.051614"></trkpt><trkpt lat="40.003078" lon="-102.051744"></trkpt><trkpt lat="36.993083" lon="-102.042240"></trkpt><trkpt lat="37.000104" lon="-103.002199"></trkpt></trkseg></trk><trk><name>S012 STATE</name><trkseg><trkpt lat="40.378264" lon="-91.419422"></trkpt><trkpt lat="40.613640" lon="-91.729115"></trkpt><trkpt lat="40.585208" lon="-95.765645"></trkpt><trkpt lat="40.736292" lon="-95.888697"></trkpt><trkpt lat="40.886681" lon="-95.810709"></trkpt><trkpt lat="41.455766" lon="-95.922529"></trkpt><trkpt lat="41.528199" lon="-96.080493"></trkpt><trkpt lat="41.974625" lon="-96.132537"></trkpt><trkpt lat="42.166806" lon="-96.347752"></trkpt><trkpt lat="42.490630" lon="-96.445508"></trkpt><trkpt lat="42.506088" lon="-96.611489"></trkpt><trkpt lat="42.659143" lon="-96.697639"></trkpt><trkpt lat="42.853139" lon="-97.237868"></trkpt><trkpt lat="42.865093" lon="-97.857957"></trkpt><trkpt lat="42.764205" lon="-98.035034"></trkpt><trkpt lat="42.998560" lon="-98.498550"></trkpt><trkpt lat="43.000585" lon="-104.053127"></trkpt></trkseg></trk><trk><name>S013 STATE</name><trkseg><trkpt lat="45.945310" lon="-104.045443"></trkpt><trkpt lat="45.935245" lon="-96.563672"></trkpt><trkpt lat="46.319554" lon="-96.601040"></trkpt><trkpt lat="46.636880" lon="-96.790523"></trkpt><trkpt lat="47.572010" lon="-96.854073"></trkpt><trkpt lat="48.168556" lon="-97.146745"></trkpt><trkpt lat="48.667926" lon="-97.100009"></trkpt><trkpt lat="49.000687" lon="-97.229039"></trkpt><trkpt lat="48.998903" lon="-95.153711"></trkpt><trkpt lat="49.384358" lon="-95.153314"></trkpt><trkpt lat="49.368679" lon="-94.952111"></trkpt><trkpt lat="49.320987" lon="-94.816222"></trkpt><trkpt lat="48.789352" lon="-94.694312"></trkpt><trkpt lat="48.700362" lon="-94.508862"></trkpt><trkpt lat="48.629395" lon="-93.844008"></trkpt><trkpt lat="48.526508" lon="-93.815178"></trkpt><trkpt lat="48.631493" lon="-92.954876"></trkpt><trkpt lat="48.542873" lon="-92.634931"></trkpt><trkpt lat="48.466915" lon="-92.657101"></trkpt><trkpt lat="48.414204" lon="-92.456325"></trkpt><trkpt lat="48.220268" lon="-92.369174"></trkpt><trkpt lat="48.354933" lon="-92.262280"></trkpt><trkpt lat="48.359213" lon="-92.055228"></trkpt><trkpt lat="48.247801" lon="-91.980772"></trkpt><trkpt lat="48.199130" lon="-91.714931"></trkpt><trkpt lat="48.053268" lon="-91.542512"></trkpt><trkpt lat="48.084087" lon="-91.250112"></trkpt><trkpt lat="48.243576" lon="-90.843624"></trkpt><trkpt lat="48.096009" lon="-90.703702"></trkpt><trkpt lat="48.112136" lon="-90.136191"></trkpt><trkpt lat="47.989898" lon="-89.868153"></trkpt><trkpt lat="48.014528" lon="-89.489226"></trkpt><trkpt lat="47.556900" lon="-90.868270"></trkpt><trkpt lat="46.804038" lon="-92.062088"></trkpt><trkpt lat="46.706469" lon="-92.015290"></trkpt><trkpt lat="46.663242" lon="-92.292192"></trkpt><trkpt lat="46.074377" lon="-92.294033"></trkpt><trkpt lat="45.924442" lon="-92.656125"></trkpt><trkpt lat="45.715142" lon="-92.869689"></trkpt><trkpt lat="45.573409" lon="-92.881136"></trkpt><trkpt lat="45.437929" lon="-92.646768"></trkpt><trkpt lat="45.284938" lon="-92.761868"></trkpt><trkpt lat="44.768361" lon="-92.805287"></trkpt><trkpt lat="44.577704" lon="-92.549280"></trkpt><trkpt lat="44.362112" lon="-91.963600"></trkpt><trkpt lat="44.164235" lon="-91.817302"></trkpt><trkpt lat="44.001501" lon="-91.440536"></trkpt><trkpt lat="43.773046" lon="-91.243955"></trkpt><trkpt lat="43.500550" lon="-91.217706"></trkpt><trkpt lat="43.500390" lon="-96.453260"></trkpt><trkpt lat="43.500457" lon="-96.598928"></trkpt><trkpt lat="43.385640" lon="-96.521572"></trkpt><trkpt lat="43.291095" lon="-96.578823"></trkpt><trkpt lat="43.113916" lon="-96.439335"></trkpt><trkpt lat="42.725497" lon="-96.624704"></trkpt><trkpt lat="42.490630" lon="-96.445508"></trkpt></trkseg></trk><trk><name>S014 STATE</name><trkseg><trkpt lat="40.003078" lon="-102.051744"></trkpt><trkpt lat="39.999998" lon="-95.308290"></trkpt><trkpt lat="39.826522" lon="-94.878677"></trkpt><trkpt lat="39.749530" lon="-94.860371"></trkpt><trkpt lat="39.553941" lon="-95.113557"></trkpt><trkpt lat="39.392432" lon="-94.888972"></trkpt><trkpt lat="39.206018" lon="-94.799663"></trkpt><trkpt lat="39.155003" lon="-94.591933"></trkpt><trkpt lat="36.998905" lon="-94.617964"></trkpt></trkseg></trk><trk><name>S015 STATE</name><trkseg><trkpt lat="36.000608" lon="-89.733095"></trkpt><trkpt lat="35.995812" lon="-90.368718"></trkpt><trkpt lat="36.303038" lon="-90.063980"></trkpt><trkpt lat="36.495344" lon="-90.153871"></trkpt><trkpt lat="36.499414" lon="-94.617919"></trkpt><trkpt lat="36.998905" lon="-94.617964"></trkpt><trkpt lat="36.993083" lon="-102.042240"></trkpt></trkseg></trk><trk><name>S016 STATE</name><trkseg><trkpt lat="43.500390" lon="-96.453260"></trkpt><trkpt lat="45.307610" lon="-96.457781"></trkpt><trkpt lat="45.436930" lon="-96.710786"></trkpt><trkpt lat="45.619412" lon="-96.851621"></trkpt><trkpt lat="45.816445" lon="-96.587093"></trkpt><trkpt lat="45.935245" lon="-96.563672"></trkpt></trkseg></trk><trk><name>S017 STATE</name><trkseg><trkpt lat="39.999998" lon="-95.308290"></trkpt><trkpt lat="40.236078" lon="-95.472548"></trkpt><trkpt lat="40.322582" lon="-95.653729"></trkpt><trkpt lat="40.585208" lon="-95.765645"></trkpt></trkseg></trk><trk><name>S018 STATE</name><trkseg><trkpt lat="33.637867" lon="-94.485875"></trkpt><trkpt lat="35.369591" lon="-94.431515"></trkpt><trkpt lat="36.499414" lon="-94.617919"></trkpt></trkseg></trk><trk><name>S019 STATE</name><trkseg><trkpt lat="29.690619" lon="-93.837971"></trkpt><trkpt lat="29.770487" lon="-93.176930"></trkpt><trkpt lat="29.577397" lon="-92.568038"></trkpt><trkpt lat="29.531497" lon="-92.323465"></trkpt><trkpt lat="29.585665" lon="-92.064513"></trkpt><trkpt lat="29.473925" lon="-91.821579"></trkpt><trkpt lat="29.569328" lon="-91.711081"></trkpt><trkpt lat="29.627277" lon="-91.873266"></trkpt><trkpt lat="29.702936" lon="-91.853070"></trkpt><trkpt lat="29.745822" lon="-91.667128"></trkpt><trkpt lat="29.630625" lon="-91.643832"></trkpt><trkpt lat="29.360976" lon="-91.265452"></trkpt><trkpt lat="29.298775" lon="-91.334885"></trkpt><trkpt lat="29.247776" lon="-91.278792"></trkpt><trkpt lat="29.162373" lon="-90.941877"></trkpt><trkpt lat="29.056064" lon="-90.867853"></trkpt><trkpt lat="29.085075" lon="-90.223587"></trkpt><trkpt lat="29.318823" lon="-89.842641"></trkpt><trkpt lat="29.215053" lon="-89.482844"></trkpt><trkpt lat="29.071848" lon="-89.361098"></trkpt><trkpt lat="28.933812" lon="-89.400966"></trkpt><trkpt lat="29.058358" lon="-89.259354"></trkpt><trkpt lat="28.991623" lon="-89.142866"></trkpt><trkpt lat="29.166913" lon="-89.014280"></trkpt><trkpt lat="29.344418" lon="-89.200389"></trkpt><trkpt lat="29.434567" lon="-89.532150"></trkpt><trkpt lat="29.610295" lon="-89.602109"></trkpt><trkpt lat="29.681808" lon="-89.403956"></trkpt><trkpt lat="29.770592" lon="-89.399162"></trkpt><trkpt lat="29.756355" lon="-89.271034"></trkpt><trkpt lat="30.149344" lon="-89.183256"></trkpt><trkpt lat="30.040972" lon="-89.494064"></trkpt><trkpt lat="29.863602" lon="-89.647064"></trkpt><trkpt lat="29.952721" lon="-89.852583"></trkpt><trkpt lat="30.018410" lon="-89.845065"></trkpt><trkpt lat="30.180753" lon="-89.524504"></trkpt><trkpt lat="30.217096" lon="-89.607655"></trkpt><trkpt lat="30.644024" lon="-89.821868"></trkpt><trkpt lat="31.002431" lon="-89.728147"></trkpt><trkpt lat="30.999416" lon="-91.636942"></trkpt><trkpt lat="31.049508" lon="-91.560365"></trkpt><trkpt lat="31.234414" lon="-91.644356"></trkpt><trkpt lat="31.291644" lon="-91.508858"></trkpt><trkpt lat="31.498394" lon="-91.517140"></trkpt><trkpt lat="31.745315" lon="-91.318576"></trkpt><trkpt lat="31.842861" lon="-91.345714"></trkpt><trkpt lat="32.023456" lon="-91.080808"></trkpt><trkpt lat="32.101053" lon="-91.034707"></trkpt><trkpt lat="32.208150" lon="-91.108509"></trkpt><trkpt lat="32.214662" lon="-90.991227"></trkpt><trkpt lat="32.342073" lon="-90.921170"></trkpt><trkpt lat="32.438442" lon="-91.052907"></trkpt><trkpt lat="32.725580" lon="-91.056999"></trkpt><trkpt lat="32.812465" lon="-91.161669"></trkpt><trkpt lat="32.937832" lon="-91.072075"></trkpt><trkpt lat="33.004106" lon="-91.166073"></trkpt><trkpt lat="33.019219" lon="-94.042964"></trkpt></trkseg></trk><trk><name>S020 STATE</name><trkseg><trkpt lat="45.095264" lon="-87.590208"></trkpt><trkpt lat="45.661788" lon="-87.172241"></trkpt><trkpt lat="45.718779" lon="-87.070442"></trkpt><trkpt lat="45.672761" lon="-86.964275"></trkpt><trkpt lat="45.811385" lon="-86.773279"></trkpt><trkpt lat="45.732618" lon="-86.647319"></trkpt><trkpt lat="45.610939" lon="-86.712328"></trkpt><trkpt lat="45.542053" lon="-86.636895"></trkpt><trkpt lat="45.942057" lon="-86.278007"></trkpt><trkpt lat="45.919439" lon="-85.913769"></trkpt><trkpt lat="46.082044" lon="-85.381394"></trkpt><trkpt lat="46.006130" lon="-85.003597"></trkpt><trkpt lat="45.848658" lon="-84.706383"></trkpt><trkpt lat="45.907026" lon="-84.734002"></trkpt><trkpt lat="45.977764" lon="-84.480436"></trkpt><trkpt lat="45.915919" lon="-83.583052"></trkpt><trkpt lat="45.996164" lon="-83.480639"></trkpt><trkpt lat="46.090085" lon="-83.598612"></trkpt><trkpt lat="46.108529" lon="-83.815826"></trkpt><trkpt lat="46.042065" lon="-83.882303"></trkpt><trkpt lat="46.174114" lon="-84.114941"></trkpt><trkpt lat="46.517619" lon="-84.117925"></trkpt><trkpt lat="46.440313" lon="-84.493401"></trkpt><trkpt lat="46.476290" lon="-84.969464"></trkpt><trkpt lat="46.772845" lon="-84.964652"></trkpt><trkpt lat="46.680432" lon="-85.482096"></trkpt><trkpt lat="46.672935" lon="-86.138295"></trkpt><trkpt lat="46.487434" lon="-86.557731"></trkpt><trkpt lat="46.555026" lon="-86.695645"></trkpt><trkpt lat="46.449663" lon="-86.810967"></trkpt><trkpt lat="46.526581" lon="-86.976958"></trkpt><trkpt lat="46.507303" lon="-87.366767"></trkpt><trkpt lat="46.782950" lon="-87.595307"></trkpt><trkpt lat="46.909686" lon="-87.900339"></trkpt><trkpt lat="46.966665" lon="-88.143688"></trkpt><trkpt lat="46.850560" lon="-88.477935"></trkpt><trkpt lat="47.080494" lon="-88.340052"></trkpt><trkpt lat="47.390073" lon="-87.941613"></trkpt><trkpt lat="47.388625" lon="-87.604704"></trkpt><trkpt lat="47.473301" lon="-87.801184"></trkpt><trkpt lat="47.448738" lon="-88.217822"></trkpt><trkpt lat="47.008496" lon="-88.959409"></trkpt><trkpt lat="46.843983" lon="-89.415154"></trkpt><trkpt lat="46.804053" lon="-89.831956"></trkpt><trkpt lat="46.566094" lon="-90.418136"></trkpt><trkpt lat="46.692267" lon="-90.737260"></trkpt><trkpt lat="46.592503" lon="-90.955650"></trkpt><trkpt lat="46.894254" lon="-90.745305"></trkpt><trkpt lat="47.001888" lon="-90.924128"></trkpt><trkpt lat="46.844760" lon="-91.167601"></trkpt><trkpt lat="46.690176" lon="-91.820027"></trkpt><trkpt lat="46.706469" lon="-92.015290"></trkpt></trkseg></trk><trk><name>S021 STATE</name><trkseg><trkpt lat="43.500550" lon="-91.217706"></trkpt><trkpt lat="43.373659" lon="-91.207367"></trkpt><trkpt lat="43.253968" lon="-91.057910"></trkpt><trkpt lat="43.134665" lon="-91.175253"></trkpt><trkpt lat="42.775502" lon="-91.070716"></trkpt><trkpt lat="42.626445" lon="-90.700856"></trkpt><trkpt lat="42.508481" lon="-90.642843"></trkpt><trkpt lat="42.239293" lon="-90.400653"></trkpt><trkpt lat="42.106372" lon="-90.161159"></trkpt><trkpt lat="41.811979" lon="-90.180643"></trkpt><trkpt lat="41.523533" lon="-90.461432"></trkpt><trkpt lat="41.423603" lon="-91.027787"></trkpt><trkpt lat="41.250029" lon="-91.114186"></trkpt><trkpt lat="41.111085" lon="-90.957246"></trkpt><trkpt lat="40.954047" lon="-90.952233"></trkpt><trkpt lat="40.672777" lon="-91.120820"></trkpt><trkpt lat="40.582590" lon="-91.374252"></trkpt><trkpt lat="40.378264" lon="-91.419422"></trkpt><trkpt lat="40.170441" lon="-91.511956"></trkpt><trkpt lat="39.729029" lon="-91.367753"></trkpt><trkpt lat="39.255894" lon="-90.729960"></trkpt><trkpt lat="38.875050" lon="-90.595354"></trkpt><trkpt lat="38.960037" lon="-90.395816"></trkpt><trkpt lat="38.849306" lon="-90.113327"></trkpt><trkpt lat="38.236355" lon="-90.363926"></trkpt><trkpt lat="37.966647" lon="-89.954910"></trkpt><trkpt lat="37.870672" lon="-89.923185"></trkpt><trkpt lat="37.903980" lon="-89.851048"></trkpt><trkpt lat="37.696475" lon="-89.521948"></trkpt><trkpt lat="37.407471" lon="-89.425940"></trkpt><trkpt lat="37.281920" lon="-89.517032"></trkpt><trkpt lat="37.042606" lon="-89.359456"></trkpt><trkpt lat="36.982057" lon="-89.132915"></trkpt><trkpt lat="36.569375" lon="-89.227319"></trkpt><trkpt lat="36.622292" lon="-89.378694"></trkpt><trkpt lat="36.562345" lon="-89.407906"></trkpt><trkpt lat="36.574510" lon="-89.544434"></trkpt><trkpt lat="36.497934" lon="-89.539232"></trkpt><trkpt lat="36.344789" lon="-89.522695"></trkpt><trkpt lat="36.309088" lon="-89.611819"></trkpt><trkpt lat="36.277751" lon="-89.554289"></trkpt><trkpt lat="36.224959" lon="-89.692630"></trkpt><trkpt lat="36.135637" lon="-89.592102"></trkpt><trkpt lat="36.000608" lon="-89.733095"></trkpt><trkpt lat="35.894920" lon="-89.647270"></trkpt><trkpt lat="35.754917" lon="-89.915491"></trkpt><trkpt lat="35.695486" lon="-89.956589"></trkpt><trkpt lat="35.626653" lon="-89.876548"></trkpt><trkpt lat="35.550329" lon="-90.037615"></trkpt><trkpt lat="35.457375" lon="-90.022064"></trkpt><trkpt lat="35.410153" lon="-90.112504"></trkpt><trkpt lat="35.274588" lon="-90.166594"></trkpt><trkpt lat="35.118287" lon="-90.090610"></trkpt><trkpt lat="34.995694" lon="-90.309297"></trkpt><trkpt lat="34.907320" lon="-90.250095"></trkpt><trkpt lat="34.834923" lon="-90.463795"></trkpt><trkpt lat="34.615732" lon="-90.587224"></trkpt><trkpt lat="34.415152" lon="-90.575336"></trkpt><trkpt lat="34.224380" lon="-90.894560"></trkpt><trkpt lat="34.026860" lon="-90.892420"></trkpt><trkpt lat="33.961334" lon="-91.088696"></trkpt><trkpt lat="33.763642" lon="-91.026782"></trkpt><trkpt lat="33.747141" lon="-91.143287"></trkpt><trkpt lat="33.714403" lon="-91.075389"></trkpt><trkpt lat="33.529423" lon="-91.215671"></trkpt><trkpt lat="33.232936" lon="-91.068708"></trkpt><trkpt lat="33.004106" lon="-91.166073"></trkpt></trkseg></trk><trk><name>S022 STATE</name><trkseg><trkpt lat="42.508481" lon="-90.642843"></trkpt><trkpt lat="42.491920" lon="-87.800477"></trkpt><trkpt lat="42.301522" lon="-87.834769"></trkpt><trkpt lat="41.708335" lon="-87.524044"></trkpt><trkpt lat="39.347888" lon="-87.531646"></trkpt><trkpt lat="39.166727" lon="-87.640435"></trkpt><trkpt lat="38.757774" lon="-87.498948"></trkpt><trkpt lat="38.307241" lon="-87.831972"></trkpt><trkpt lat="38.237389" lon="-87.968968"></trkpt><trkpt lat="37.799224" lon="-88.028030"></trkpt><trkpt lat="37.789703" lon="-87.935861"></trkpt><trkpt lat="37.920999" lon="-87.872540"></trkpt><trkpt lat="37.851919" lon="-87.625851"></trkpt><trkpt lat="37.944763" lon="-87.418585"></trkpt><trkpt lat="37.767631" lon="-87.105614"></trkpt><trkpt lat="37.919668" lon="-87.010315"></trkpt><trkpt lat="37.997150" lon="-86.810913"></trkpt><trkpt lat="37.852857" lon="-86.615215"></trkpt><trkpt lat="37.902887" lon="-86.509368"></trkpt><trkpt lat="38.038327" lon="-86.521825"></trkpt><trkpt lat="38.147418" lon="-86.321274"></trkpt><trkpt lat="37.970382" lon="-86.033386"></trkpt><trkpt lat="38.028679" lon="-85.922395"></trkpt><trkpt lat="38.282969" lon="-85.816164"></trkpt><trkpt lat="38.295469" lon="-85.683561"></trkpt><trkpt lat="38.523914" lon="-85.433136"></trkpt><trkpt lat="38.713368" lon="-85.448862"></trkpt><trkpt lat="38.687609" lon="-85.187278"></trkpt><trkpt lat="38.786087" lon="-84.812877"></trkpt><trkpt lat="39.052407" lon="-84.897171"></trkpt><trkpt lat="39.105480" lon="-84.820157"></trkpt><trkpt lat="41.696089" lon="-84.806082"></trkpt><trkpt lat="41.760216" lon="-84.805883"></trkpt><trkpt lat="41.760240" lon="-86.824828"></trkpt><trkpt lat="41.620336" lon="-87.261536"></trkpt><trkpt lat="41.708335" lon="-87.524044"></trkpt></trkseg></trk><trk><name>S023 STATE</name><trkseg><trkpt lat="46.566094" lon="-90.418136"></trkpt><trkpt lat="46.499947" lon="-90.214866"></trkpt><trkpt lat="46.336852" lon="-90.120489"></trkpt><trkpt lat="45.989287" lon="-88.657760"></trkpt><trkpt lat="46.020822" lon="-88.526673"></trkpt><trkpt lat="45.922211" lon="-88.115346"></trkpt><trkpt lat="45.798839" lon="-88.105518"></trkpt><trkpt lat="45.673934" lon="-87.781007"></trkpt><trkpt lat="45.353020" lon="-87.863489"></trkpt><trkpt lat="45.368752" lon="-87.657349"></trkpt><trkpt lat="45.197051" lon="-87.741805"></trkpt><trkpt lat="45.095264" lon="-87.590208"></trkpt><trkpt lat="44.976865" lon="-87.630298"></trkpt><trkpt lat="44.924355" lon="-87.843433"></trkpt><trkpt lat="44.539216" lon="-88.005518"></trkpt><trkpt lat="44.639281" lon="-87.775160"></trkpt><trkpt lat="44.934393" lon="-87.393405"></trkpt><trkpt lat="45.167259" lon="-87.238224"></trkpt><trkpt lat="45.290684" lon="-86.977780"></trkpt><trkpt lat="44.586274" lon="-87.446963"></trkpt><trkpt lat="44.210803" lon="-87.507419"></trkpt><trkpt lat="43.873721" lon="-87.736017"></trkpt><trkpt lat="43.679542" lon="-87.706204"></trkpt><trkpt lat="43.125910" lon="-87.900485"></trkpt><trkpt lat="42.784896" lon="-87.766675"></trkpt><trkpt lat="42.491920" lon="-87.800477"></trkpt></trkseg></trk><trk><name>S024 STATE</name><trkseg><trkpt lat="30.180753" lon="-89.524504"></trkpt><trkpt lat="30.390798" lon="-88.971233"></trkpt><trkpt lat="30.320020" lon="-88.471875"></trkpt><trkpt lat="30.369425" lon="-88.395023"></trkpt><trkpt lat="31.933173" lon="-88.468660"></trkpt><trkpt lat="34.892202" lon="-88.097888"></trkpt><trkpt lat="34.995634" lon="-88.200064"></trkpt><trkpt lat="34.995694" lon="-90.309297"></trkpt></trkseg></trk><trk><name>S025 STATE</name><trkseg><trkpt lat="36.497934" lon="-89.539232"></trkpt><trkpt lat="36.500053" lon="-88.050466"></trkpt><trkpt lat="36.678118" lon="-88.070532"></trkpt><trkpt lat="36.600814" lon="-83.675413"></trkpt><trkpt lat="36.743088" lon="-83.136395"></trkpt><trkpt lat="36.850589" lon="-83.075590"></trkpt><trkpt lat="36.882145" lon="-82.895445"></trkpt><trkpt lat="37.111852" lon="-82.726294"></trkpt><trkpt lat="37.265220" lon="-82.355343"></trkpt><trkpt lat="37.537798" lon="-81.968297"></trkpt><trkpt lat="37.686174" lon="-82.296118"></trkpt><trkpt lat="37.916975" lon="-82.487556"></trkpt><trkpt lat="38.134835" lon="-82.626182"></trkpt><trkpt lat="38.421809" lon="-82.593673"></trkpt><trkpt lat="38.604334" lon="-82.851314"></trkpt><trkpt lat="38.756076" lon="-82.889193"></trkpt><trkpt lat="38.599241" lon="-83.286514"></trkpt><trkpt lat="38.702105" lon="-83.533339"></trkpt><trkpt lat="38.630036" lon="-83.679484"></trkpt><trkpt lat="38.751433" lon="-83.852085"></trkpt><trkpt lat="38.805707" lon="-84.212904"></trkpt><trkpt lat="39.121760" lon="-84.462042"></trkpt><trkpt lat="39.105480" lon="-84.820157"></trkpt></trkseg></trk><trk><name>S026 STATE</name><trkseg><trkpt lat="37.799224" lon="-88.028030"></trkpt><trkpt lat="37.654332" lon="-88.160062"></trkpt><trkpt lat="37.487837" lon="-88.062294"></trkpt><trkpt lat="37.400547" lon="-88.465861"></trkpt><trkpt lat="37.068223" lon="-88.476127"></trkpt><trkpt lat="37.224401" lon="-89.000968"></trkpt><trkpt lat="37.074218" lon="-89.168087"></trkpt><trkpt lat="36.982057" lon="-89.132915"></trkpt></trkseg></trk><trk><name>S027 STATE</name><trkseg><trkpt lat="34.988408" lon="-84.321869"></trkpt><trkpt lat="34.984678" lon="-85.605165"></trkpt><trkpt lat="32.861317" lon="-85.184400"></trkpt><trkpt lat="32.442843" lon="-84.971831"></trkpt><trkpt lat="32.336677" lon="-85.008096"></trkpt><trkpt lat="32.263398" lon="-84.891841"></trkpt><trkpt lat="32.136018" lon="-85.058749"></trkpt><trkpt lat="31.839261" lon="-85.141831"></trkpt><trkpt lat="31.544684" lon="-85.041881"></trkpt><trkpt lat="31.186451" lon="-85.107516"></trkpt><trkpt lat="31.000682" lon="-85.002499"></trkpt><trkpt lat="30.997422" lon="-87.598937"></trkpt><trkpt lat="30.865857" lon="-87.634943"></trkpt><trkpt lat="30.657201" lon="-87.400189"></trkpt><trkpt lat="30.507484" lon="-87.444722"></trkpt><trkpt lat="30.436643" lon="-87.366601"></trkpt><trkpt lat="30.280435" lon="-87.518324"></trkpt><trkpt lat="30.239237" lon="-87.893201"></trkpt><trkpt lat="30.324198" lon="-87.796717"></trkpt><trkpt lat="30.684956" lon="-88.008396"></trkpt><trkpt lat="30.320729" lon="-88.136173"></trkpt><trkpt lat="30.369425" lon="-88.395023"></trkpt></trkseg></trk><trk><name>S028 STATE</name><trkseg><trkpt lat="34.984678" lon="-85.605165"></trkpt><trkpt lat="34.995634" lon="-88.200064"></trkpt></trkseg></trk><trk><name>S029 STATE</name><trkseg><trkpt lat="30.709714" lon="-81.444124"></trkpt><trkpt lat="29.784693" lon="-81.256711"></trkpt><trkpt lat="29.147960" lon="-80.966176"></trkpt><trkpt lat="28.459454" lon="-80.525094"></trkpt><trkpt lat="28.336484" lon="-80.606874"></trkpt><trkpt lat="28.177990" lon="-80.589975"></trkpt><trkpt lat="26.771530" lon="-80.032120"></trkpt><trkpt lat="25.818260" lon="-80.109953"></trkpt><trkpt lat="25.665490" lon="-80.154972"></trkpt><trkpt lat="25.732509" lon="-80.229107"></trkpt><trkpt lat="25.465621" lon="-80.337049"></trkpt><trkpt lat="25.389707" lon="-80.310360"></trkpt><trkpt lat="25.521154" lon="-80.176024"></trkpt><trkpt lat="25.452184" lon="-80.163156"></trkpt><trkpt lat="24.866131" lon="-80.651189"></trkpt><trkpt lat="24.669463" lon="-81.103373"></trkpt><trkpt lat="24.710477" lon="-81.148718"></trkpt><trkpt lat="25.006995" lon="-80.610869"></trkpt><trkpt lat="25.199808" lon="-80.495394"></trkpt><trkpt lat="25.118797" lon="-81.079859"></trkpt><trkpt lat="25.673554" lon="-81.289901"></trkpt><trkpt lat="25.776751" lon="-81.383810"></trkpt><trkpt lat="25.907207" lon="-81.727086"></trkpt><trkpt lat="26.436658" lon="-81.923611"></trkpt><trkpt lat="26.476257" lon="-82.180717"></trkpt><trkpt lat="26.858384" lon="-82.314277"></trkpt><trkpt lat="27.531086" lon="-82.743017"></trkpt><trkpt lat="27.523115" lon="-82.650720"></trkpt><trkpt lat="27.810036" lon="-82.448786"></trkpt><trkpt lat="27.848462" lon="-82.553946"></trkpt><trkpt lat="27.612972" lon="-82.733076"></trkpt><trkpt lat="27.854301" lon="-82.846526"></trkpt><trkpt lat="28.174135" lon="-82.859624"></trkpt><trkpt lat="28.484434" lon="-82.665055"></trkpt><trkpt lat="28.905609" lon="-82.688864"></trkpt><trkpt lat="29.158425" lon="-82.827073"></trkpt><trkpt lat="29.130839" lon="-83.053207"></trkpt><trkpt lat="29.247975" lon="-83.074734"></trkpt><trkpt lat="29.523291" lon="-83.401552"></trkpt><trkpt lat="29.670536" lon="-83.414701"></trkpt><trkpt lat="29.918513" lon="-83.679219"></trkpt><trkpt lat="30.096209" lon="-84.000716"></trkpt><trkpt lat="30.084776" lon="-84.208010"></trkpt><trkpt lat="30.008662" lon="-84.366115"></trkpt><trkpt lat="29.896812" lon="-84.349066"></trkpt><trkpt lat="29.910092" lon="-84.535873"></trkpt><trkpt lat="29.810180" lon="-84.564976"></trkpt><trkpt lat="29.586991" lon="-85.045074"></trkpt><trkpt lat="29.659787" lon="-85.352615"></trkpt><trkpt lat="29.920949" lon="-85.384730"></trkpt><trkpt lat="30.343585" lon="-86.222561"></trkpt><trkpt lat="30.396299" lon="-86.632953"></trkpt><trkpt lat="30.280435" lon="-87.518324"></trkpt></trkseg></trk><trk><name>S030 STATE</name><trkseg><trkpt lat="41.760240" lon="-86.824828"></trkpt><trkpt lat="41.918291" lon="-86.597899"></trkpt><trkpt lat="42.540000" lon="-86.240642"></trkpt><trkpt lat="42.988284" lon="-86.226305"></trkpt><trkpt lat="43.644593" lon="-86.540787"></trkpt><trkpt lat="43.840720" lon="-86.431198"></trkpt><trkpt lat="44.058119" lon="-86.514702"></trkpt><trkpt lat="44.345324" lon="-86.268710"></trkpt><trkpt lat="44.699046" lon="-86.248474"></trkpt><trkpt lat="44.741496" lon="-86.089186"></trkpt><trkpt lat="44.911012" lon="-86.058862"></trkpt><trkpt lat="44.977932" lon="-85.780439"></trkpt><trkpt lat="45.210742" lon="-85.551072"></trkpt><trkpt lat="44.973996" lon="-85.520034"></trkpt><trkpt lat="45.046319" lon="-85.380659"></trkpt><trkpt lat="45.270834" lon="-85.371593"></trkpt><trkpt lat="45.409776" lon="-84.912956"></trkpt><trkpt lat="45.521626" lon="-85.109252"></trkpt><trkpt lat="45.686334" lon="-84.970950"></trkpt><trkpt lat="45.760329" lon="-85.014509"></trkpt><trkpt lat="45.789301" lon="-84.772765"></trkpt><trkpt lat="45.621456" lon="-84.196043"></trkpt><trkpt lat="45.497298" lon="-84.095905"></trkpt><trkpt lat="45.355872" lon="-83.488826"></trkpt><trkpt lat="45.026844" lon="-83.265896"></trkpt><trkpt lat="45.051056" lon="-83.442052"></trkpt><trkpt lat="44.689354" lon="-83.276836"></trkpt><trkpt lat="44.332919" lon="-83.336988"></trkpt><trkpt lat="44.261558" lon="-83.524817"></trkpt><trkpt lat="44.056748" lon="-83.584090"></trkpt><trkpt lat="43.960719" lon="-83.869406"></trkpt><trkpt lat="43.672622" lon="-83.909479"></trkpt><trkpt lat="43.590584" lon="-83.683351"></trkpt><trkpt lat="43.919807" lon="-83.407146"></trkpt><trkpt lat="44.069389" lon="-82.928884"></trkpt><trkpt lat="43.831224" lon="-82.633641"></trkpt><trkpt lat="43.005555" lon="-82.415937"></trkpt><trkpt lat="42.637294" lon="-82.509935"></trkpt><trkpt lat="42.522210" lon="-82.679059"></trkpt><trkpt lat="42.661233" lon="-82.639701"></trkpt><trkpt lat="42.629545" lon="-82.801022"></trkpt><trkpt lat="42.564415" lon="-82.755927"></trkpt><trkpt lat="42.541935" lon="-82.859316"></trkpt><trkpt lat="42.352068" lon="-82.923970"></trkpt><trkpt lat="42.290138" lon="-83.096521"></trkpt><trkpt lat="42.088143" lon="-83.133511"></trkpt><trkpt lat="41.732647" lon="-83.453832"></trkpt><trkpt lat="41.696089" lon="-84.806082"></trkpt></trkseg></trk><trk><name>S031 STATE</name><trkseg><trkpt lat="32.034600" lon="-80.885517"></trkpt><trkpt lat="31.988279" lon="-80.848441"></trkpt><trkpt lat="31.722692" lon="-81.130634"></trkpt><trkpt lat="31.244330" lon="-81.282842"></trkpt><trkpt lat="31.125383" lon="-81.402096"></trkpt><trkpt lat="30.709714" lon="-81.444124"></trkpt><trkpt lat="30.827437" lon="-81.943187"></trkpt><trkpt lat="30.750674" lon="-82.032667"></trkpt><trkpt lat="30.370144" lon="-82.040766"></trkpt><trkpt lat="30.363378" lon="-82.143306"></trkpt><trkpt lat="30.564395" lon="-82.218607"></trkpt><trkpt lat="30.711542" lon="-84.864693"></trkpt><trkpt lat="31.000682" lon="-85.002499"></trkpt></trkseg></trk><trk><name>S032 STATE</name><trkseg><trkpt lat="36.600814" lon="-83.675413"></trkpt><trkpt lat="36.588117" lon="-81.677535"></trkpt><trkpt lat="36.338496" lon="-81.705966"></trkpt><trkpt lat="36.302013" lon="-81.908137"></trkpt><trkpt lat="36.124322" lon="-82.028740"></trkpt><trkpt lat="36.133510" lon="-82.297655"></trkpt><trkpt lat="35.953901" lon="-82.557874"></trkpt><trkpt lat="36.062105" lon="-82.628365"></trkpt><trkpt lat="35.926930" lon="-82.910608"></trkpt><trkpt lat="35.782610" lon="-82.978414"></trkpt><trkpt lat="35.763363" lon="-83.161537"></trkpt><trkpt lat="35.562981" lon="-83.498335"></trkpt><trkpt lat="35.562118" lon="-83.771736"></trkpt><trkpt lat="35.452582" lon="-83.973171"></trkpt><trkpt lat="35.295783" lon="-84.023510"></trkpt><trkpt lat="35.226577" lon="-84.283220"></trkpt><trkpt lat="34.988408" lon="-84.321869"></trkpt><trkpt lat="35.000659" lon="-83.108606"></trkpt><trkpt lat="34.682002" lon="-83.338690"></trkpt><trkpt lat="34.493254" lon="-83.048289"></trkpt><trkpt lat="34.471508" lon="-82.873831"></trkpt><trkpt lat="33.945353" lon="-82.556835"></trkpt><trkpt lat="33.462937" lon="-81.926336"></trkpt><trkpt lat="33.343541" lon="-81.932737"></trkpt><trkpt lat="33.151550" lon="-81.755135"></trkpt><trkpt lat="33.015113" lon="-81.502030"></trkpt><trkpt lat="32.605587" lon="-81.397106"></trkpt><trkpt lat="32.334794" lon="-81.133032"></trkpt><trkpt lat="32.113205" lon="-81.113334"></trkpt><trkpt lat="32.034600" lon="-80.885517"></trkpt><trkpt lat="32.216783" lon="-80.669166"></trkpt><trkpt lat="32.292608" lon="-80.766038"></trkpt><trkpt lat="32.326458" lon="-80.455192"></trkpt><trkpt lat="32.495300" lon="-80.465710"></trkpt><trkpt lat="32.478730" lon="-80.338354"></trkpt><trkpt lat="32.605892" lon="-80.000801"></trkpt><trkpt lat="32.926692" lon="-79.569762"></trkpt><trkpt lat="33.006447" lon="-79.580725"></trkpt><trkpt lat="33.006672" lon="-79.359961"></trkpt><trkpt lat="33.639826" lon="-78.938076"></trkpt><trkpt lat="33.851112" lon="-78.541087"></trkpt><trkpt lat="34.804744" lon="-79.675299"></trkpt><trkpt lat="34.823874" lon="-80.796997"></trkpt><trkpt lat="34.935782" lon="-80.782042"></trkpt><trkpt lat="35.107409" lon="-80.934950"></trkpt><trkpt lat="35.044703" lon="-81.041489"></trkpt><trkpt lat="35.149248" lon="-81.042870"></trkpt><trkpt lat="35.202483" lon="-82.411301"></trkpt><trkpt lat="35.000659" lon="-83.108606"></trkpt></trkseg></trk><trk><name>S033 STATE</name><trkseg><trkpt lat="41.732647" lon="-83.453832"></trkpt><trkpt lat="41.514353" lon="-82.934369"></trkpt><trkpt lat="41.587587" lon="-82.834101"></trkpt><trkpt lat="41.386316" lon="-82.460599"></trkpt><trkpt lat="41.514440" lon="-81.994565"></trkpt><trkpt lat="41.488550" lon="-81.738755"></trkpt><trkpt lat="41.760243" lon="-81.286925"></trkpt><trkpt lat="41.977523" lon="-80.519425"></trkpt><trkpt lat="40.638801" lon="-80.518991"></trkpt><trkpt lat="40.582496" lon="-80.667957"></trkpt><trkpt lat="40.303869" lon="-80.606596"></trkpt><trkpt lat="39.662751" lon="-80.865575"></trkpt><trkpt lat="39.389992" lon="-81.249088"></trkpt><trkpt lat="39.345770" lon="-81.347567"></trkpt><trkpt lat="39.409274" lon="-81.456143"></trkpt><trkpt lat="39.276175" lon="-81.565247"></trkpt><trkpt lat="39.273755" lon="-81.678331"></trkpt><trkpt lat="38.945898" lon="-81.827354"></trkpt><trkpt lat="39.017878" lon="-82.041563"></trkpt><trkpt lat="38.802672" lon="-82.209290"></trkpt><trkpt lat="38.608484" lon="-82.175167"></trkpt><trkpt lat="38.593683" lon="-82.274270"></trkpt><trkpt lat="38.449268" lon="-82.323999"></trkpt><trkpt lat="38.421809" lon="-82.593673"></trkpt></trkseg></trk><trk><name>S034 STATE</name><trkseg><trkpt lat="38.934343" lon="-77.119759"></trkpt><trkpt lat="39.076248" lon="-77.462617"></trkpt><trkpt lat="39.161057" lon="-77.521222"></trkpt><trkpt lat="39.218682" lon="-77.459883"></trkpt><trkpt lat="39.321314" lon="-77.719519"></trkpt><trkpt lat="39.132329" lon="-77.828157"></trkpt><trkpt lat="39.466012" lon="-78.347087"></trkpt><trkpt lat="39.158415" lon="-78.413943"></trkpt><trkpt lat="38.762991" lon="-78.869276"></trkpt><trkpt lat="38.840074" lon="-78.999014"></trkpt><trkpt lat="38.416438" lon="-79.297758"></trkpt><trkpt lat="38.591515" lon="-79.649075"></trkpt><trkpt lat="38.273298" lon="-79.787542"></trkpt><trkpt lat="37.683732" lon="-80.292258"></trkpt><trkpt lat="37.623185" lon="-80.223386"></trkpt><trkpt lat="37.426144" lon="-80.464820"></trkpt><trkpt lat="37.474695" lon="-80.544836"></trkpt><trkpt lat="37.372363" lon="-80.770082"></trkpt><trkpt lat="37.419927" lon="-80.865148"></trkpt><trkpt lat="37.334824" lon="-80.835479"></trkpt><trkpt lat="37.234874" lon="-81.225104"></trkpt><trkpt lat="37.337687" lon="-81.362156"></trkpt><trkpt lat="37.202467" lon="-81.678603"></trkpt><trkpt lat="37.331967" lon="-81.896001"></trkpt><trkpt lat="37.537798" lon="-81.968297"></trkpt></trkseg></trk><trk><name>S035 STATE</name><trkseg><trkpt lat="36.588117" lon="-81.677535"></trkpt><trkpt lat="36.543973" lon="-80.295243"></trkpt><trkpt lat="36.550754" lon="-75.867044"></trkpt><trkpt lat="36.922047" lon="-75.996252"></trkpt><trkpt lat="36.964547" lon="-76.267962"></trkpt><trkpt lat="37.225150" lon="-76.394132"></trkpt><trkpt lat="37.379750" lon="-76.437525"></trkpt><trkpt lat="37.309964" lon="-76.275552"></trkpt><trkpt lat="37.375135" lon="-76.248460"></trkpt><trkpt lat="37.670976" lon="-76.329120"></trkpt><trkpt lat="37.889174" lon="-76.236725"></trkpt><trkpt lat="37.951678" lon="-76.357581"></trkpt><trkpt lat="38.148587" lon="-76.613939"></trkpt><trkpt lat="38.214075" lon="-76.962311"></trkpt><trkpt lat="38.374260" lon="-77.035898"></trkpt><trkpt lat="38.333165" lon="-77.265295"></trkpt><trkpt lat="38.383576" lon="-77.317288"></trkpt><trkpt lat="38.550144" lon="-77.274031"></trkpt><trkpt lat="38.791645" lon="-77.039006"></trkpt><trkpt lat="38.892852" lon="-76.909393"></trkpt><trkpt lat="38.995548" lon="-77.041018"></trkpt><trkpt lat="38.934343" lon="-77.119759"></trkpt><trkpt lat="38.791645" lon="-77.039006"></trkpt></trkseg></trk><trk><name>S036 STATE</name><trkseg><trkpt lat="41.977523" lon="-80.519425"></trkpt><trkpt lat="42.269860" lon="-79.761951"></trkpt><trkpt lat="41.998808" lon="-79.761313"></trkpt><trkpt lat="41.992772" lon="-75.341125"></trkpt><trkpt lat="41.802191" lon="-75.074412"></trkpt><trkpt lat="41.496467" lon="-74.982463"></trkpt><trkpt lat="41.357423" lon="-74.694914"></trkpt><trkpt lat="40.980179" lon="-75.133086"></trkpt><trkpt lat="40.885682" lon="-75.065438"></trkpt><trkpt lat="40.715874" lon="-75.192612"></trkpt><trkpt lat="40.569406" lon="-75.186737"></trkpt><trkpt lat="40.548296" lon="-75.078503"></trkpt><trkpt lat="40.416066" lon="-75.056102"></trkpt><trkpt lat="40.153810" lon="-74.721604"></trkpt><trkpt lat="39.801919" lon="-75.415062"></trkpt><trkpt lat="39.821425" lon="-75.662846"></trkpt><trkpt lat="39.722199" lon="-75.788596"></trkpt><trkpt lat="39.721078" lon="-79.476662"></trkpt><trkpt lat="39.721403" lon="-80.519342"></trkpt><trkpt lat="40.638801" lon="-80.518991"></trkpt></trkseg></trk><trk><name>S037 STATE</name><trkseg><trkpt lat="45.013377" lon="-71.501088"></trkpt><trkpt lat="45.010840" lon="-73.343124"></trkpt><trkpt lat="45.014683" lon="-74.834669"></trkpt><trkpt lat="44.857651" lon="-75.255517"></trkpt><trkpt lat="44.422433" lon="-75.834126"></trkpt><trkpt lat="44.164945" lon="-76.334584"></trkpt><trkpt lat="44.031536" lon="-76.375560"></trkpt><trkpt lat="43.972462" lon="-76.279314"></trkpt><trkpt lat="43.882864" lon="-76.441848"></trkpt><trkpt lat="43.804135" lon="-76.229268"></trkpt><trkpt lat="43.574978" lon="-76.203473"></trkpt><trkpt lat="43.318452" lon="-76.769025"></trkpt><trkpt lat="43.235763" lon="-77.551022"></trkpt><trkpt lat="43.341161" lon="-77.760231"></trkpt><trkpt lat="43.369541" lon="-78.547395"></trkpt><trkpt lat="43.262454" lon="-79.070469"></trkpt><trkpt lat="43.077855" lon="-79.074467"></trkpt><trkpt lat="42.791758" lon="-78.851355"></trkpt><trkpt lat="42.564462" lon="-79.138569"></trkpt><trkpt lat="42.269860" lon="-79.761951"></trkpt></trkseg></trk><trk><name>S038 STATE</name><trkseg><trkpt lat="39.321314" lon="-77.719519"></trkpt><trkpt lat="39.587288" lon="-77.829814"></trkpt><trkpt lat="39.671166" lon="-78.082260"></trkpt><trkpt lat="39.622246" lon="-78.382959"></trkpt><trkpt lat="39.525987" lon="-78.460951"></trkpt><trkpt lat="39.555857" lon="-78.707098"></trkpt><trkpt lat="39.638387" lon="-78.771140"></trkpt><trkpt lat="39.440264" lon="-78.956751"></trkpt><trkpt lat="39.472407" lon="-79.091329"></trkpt><trkpt lat="39.205961" lon="-79.486873"></trkpt><trkpt lat="39.721078" lon="-79.476662"></trkpt></trkseg></trk><trk><name>S039 STATE</name><trkseg><trkpt lat="36.550754" lon="-75.867044"></trkpt><trkpt lat="35.596597" lon="-75.458659"></trkpt><trkpt lat="35.225825" lon="-75.533627"></trkpt><trkpt lat="34.987858" lon="-76.137269"></trkpt><trkpt lat="34.588577" lon="-76.535946"></trkpt><trkpt lat="34.672550" lon="-76.618719"></trkpt><trkpt lat="34.682820" lon="-76.906257"></trkpt><trkpt lat="34.471354" lon="-77.462922"></trkpt><trkpt lat="34.245641" lon="-77.764022"></trkpt><trkpt lat="33.853315" lon="-77.960172"></trkpt><trkpt lat="33.912364" lon="-78.276147"></trkpt><trkpt lat="33.851112" lon="-78.541087"></trkpt></trkseg></trk><trk><name>S040 STATE</name><trkseg><trkpt lat="41.357423" lon="-74.694914"></trkpt><trkpt lat="40.997197" lon="-73.893979"></trkpt><trkpt lat="40.690466" lon="-74.047313"></trkpt><trkpt lat="40.630903" lon="-74.202247"></trkpt><trkpt lat="40.502436" lon="-74.260611"></trkpt><trkpt lat="40.418908" lon="-74.047884"></trkpt><trkpt lat="40.476668" lon="-73.997943"></trkpt><trkpt lat="40.408508" lon="-73.976982"></trkpt><trkpt lat="39.756173" lon="-74.101443"></trkpt><trkpt lat="38.940410" lon="-74.864458"></trkpt><trkpt lat="38.933413" lon="-74.967274"></trkpt><trkpt lat="39.174945" lon="-74.905181"></trkpt><trkpt lat="39.181883" lon="-75.136667"></trkpt><trkpt lat="39.498114" lon="-75.528088"></trkpt><trkpt lat="39.479186" lon="-75.593068"></trkpt><trkpt lat="39.264698" lon="-75.408376"></trkpt><trkpt lat="39.057884" lon="-75.396277"></trkpt><trkpt lat="38.844254" lon="-75.232029"></trkpt><trkpt lat="38.797198" lon="-75.089473"></trkpt><trkpt lat="38.451263" lon="-75.048939"></trkpt><trkpt lat="38.027209" lon="-75.242266"></trkpt><trkpt lat="37.851702" lon="-75.380638"></trkpt><trkpt lat="37.832457" lon="-75.489270"></trkpt><trkpt lat="37.451815" lon="-75.658379"></trkpt><trkpt lat="37.089607" lon="-75.942399"></trkpt><trkpt lat="37.289067" lon="-76.023475"></trkpt><trkpt lat="37.563839" lon="-75.941182"></trkpt><trkpt lat="37.950796" lon="-75.669711"></trkpt><trkpt lat="37.953586" lon="-76.046530"></trkpt><trkpt lat="38.078277" lon="-76.017159"></trkpt><trkpt lat="38.492235" lon="-76.336360"></trkpt><trkpt lat="38.609520" lon="-76.279589"></trkpt><trkpt lat="38.629092" lon="-76.178624"></trkpt><trkpt lat="38.755689" lon="-76.389934"></trkpt><trkpt lat="38.823569" lon="-76.302282"></trkpt><trkpt lat="38.939175" lon="-76.361727"></trkpt><trkpt lat="39.056934" lon="-76.233963"></trkpt><trkpt lat="39.145764" lon="-76.278527"></trkpt><trkpt lat="39.296328" lon="-76.184554"></trkpt><trkpt lat="39.337458" lon="-76.244409"></trkpt><trkpt lat="39.182855" lon="-76.486795"></trkpt><trkpt lat="39.006407" lon="-76.401961"></trkpt><trkpt lat="38.756137" lon="-76.556607"></trkpt><trkpt lat="38.145140" lon="-76.327209"></trkpt><trkpt lat="37.951678" lon="-76.357581"></trkpt></trkseg></trk><trk><name>S041 STATE</name><trkseg><trkpt lat="38.451263" lon="-75.048939"></trkpt><trkpt lat="38.460128" lon="-75.693721"></trkpt><trkpt lat="39.722199" lon="-75.788596"></trkpt></trkseg></trk><trk><name>S042 STATE</name><trkseg><trkpt lat="37.950796" lon="-75.669711"></trkpt><trkpt lat="38.027209" lon="-75.242266"></trkpt></trkseg></trk><trk><name>S043 STATE</name><trkseg><trkpt lat="39.498114" lon="-75.528088"></trkpt><trkpt lat="39.629812" lon="-75.559446"></trkpt><trkpt lat="39.801919" lon="-75.415062"></trkpt></trkseg></trk><trk><name>S044 STATE</name><trkseg><trkpt lat="45.010840" lon="-73.343124"></trkpt><trkpt lat="44.619620" lon="-73.389966"></trkpt><trkpt lat="44.440559" lon="-73.293613"></trkpt><trkpt lat="44.042578" lon="-73.436880"></trkpt><trkpt lat="43.770463" lon="-73.350707"></trkpt><trkpt lat="43.598775" lon="-73.424977"></trkpt><trkpt lat="43.625913" lon="-73.327702"></trkpt><trkpt lat="43.534925" lon="-73.242042"></trkpt><trkpt lat="42.745940" lon="-73.264957"></trkpt><trkpt lat="42.049638" lon="-73.487314"></trkpt><trkpt lat="41.295422" lon="-73.550961"></trkpt><trkpt lat="41.212760" lon="-73.482709"></trkpt><trkpt lat="41.100696" lon="-73.727775"></trkpt><trkpt lat="40.985171" lon="-73.657336"></trkpt><trkpt lat="40.881099" lon="-73.766276"></trkpt><trkpt lat="40.977851" lon="-72.708069"></trkpt><trkpt lat="41.193549" lon="-72.189163"></trkpt><trkpt lat="41.067874" lon="-72.283093"></trkpt><trkpt lat="41.040611" lon="-72.217476"></trkpt><trkpt lat="41.115139" lon="-72.126704"></trkpt><trkpt lat="41.020506" lon="-72.051928"></trkpt><trkpt lat="41.070598" lon="-71.856214"></trkpt><trkpt lat="40.630884" lon="-73.208440"></trkpt><trkpt lat="40.542896" lon="-73.940591"></trkpt><trkpt lat="40.597546" lon="-74.057316"></trkpt><trkpt lat="40.502436" lon="-74.260611"></trkpt></trkseg></trk><trk><name>S045 STATE</name><trkseg><trkpt lat="40.985171" lon="-73.657336"></trkpt><trkpt lat="41.258497" lon="-72.935646"></trkpt><trkpt lat="41.320248" lon="-71.860513"></trkpt><trkpt lat="42.008065" lon="-71.799242"></trkpt><trkpt lat="42.049638" lon="-73.487314"></trkpt></trkseg></trk><trk><name>S046 STATE</name><trkseg><trkpt lat="42.745940" lon="-73.264957"></trkpt><trkpt lat="42.726853" lon="-72.458519"></trkpt><trkpt lat="42.866252" lon="-72.556112"></trkpt><trkpt lat="43.004416" lon="-72.444977"></trkpt><trkpt lat="43.574069" lon="-72.379440"></trkpt><trkpt lat="43.949370" lon="-72.105875"></trkpt><trkpt lat="44.291983" lon="-72.046302"></trkpt><trkpt lat="44.501778" lon="-71.579974"></trkpt><trkpt lat="44.747224" lon="-71.626909"></trkpt><trkpt lat="45.013377" lon="-71.501088"></trkpt><trkpt lat="45.239004" lon="-71.438546"></trkpt><trkpt lat="45.301977" lon="-71.283684"></trkpt><trkpt lat="45.242958" lon="-71.139430"></trkpt><trkpt lat="45.305451" lon="-71.083924"></trkpt><trkpt lat="43.376128" lon="-70.984335"></trkpt><trkpt lat="43.059825" lon="-70.703818"></trkpt><trkpt lat="43.321886" lon="-70.553854"></trkpt><trkpt lat="43.361059" lon="-70.416311"></trkpt><trkpt lat="43.529190" lon="-70.361214"></trkpt><trkpt lat="43.557627" lon="-70.206123"></trkpt><trkpt lat="43.675136" lon="-70.168227"></trkpt><trkpt lat="43.775112" lon="-69.915593"></trkpt><trkpt lat="43.701281" lon="-69.833471"></trkpt><trkpt lat="43.956420" lon="-69.393288"></trkpt><trkpt lat="43.856708" lon="-69.321031"></trkpt><trkpt lat="43.973654" lon="-69.077028"></trkpt><trkpt lat="44.233673" lon="-69.040193"></trkpt><trkpt lat="44.159550" lon="-68.888597"></trkpt><trkpt lat="44.025359" lon="-68.874139"></trkpt><trkpt lat="44.076359" lon="-68.669383"></trkpt><trkpt lat="44.010097" lon="-68.617085"></trkpt><trkpt lat="44.099722" lon="-68.502942"></trkpt><trkpt lat="44.107580" lon="-68.331032"></trkpt><trkpt lat="44.234829" lon="-68.306519"></trkpt><trkpt lat="44.225908" lon="-68.174330"></trkpt><trkpt lat="44.373833" lon="-68.189155"></trkpt><trkpt lat="44.330730" lon="-68.049334"></trkpt><trkpt lat="44.525823" lon="-67.653123"></trkpt><trkpt lat="44.429131" lon="-67.579726"></trkpt><trkpt lat="44.600322" lon="-67.448513"></trkpt><trkpt lat="44.599265" lon="-67.293403"></trkpt><trkpt lat="44.817419" lon="-66.949895"></trkpt><trkpt lat="45.162879" lon="-67.161247"></trkpt><trkpt lat="45.191081" lon="-67.271076"></trkpt><trkpt lat="45.125594" lon="-67.339869"></trkpt><trkpt lat="45.268185" lon="-67.480256"></trkpt><trkpt lat="45.604665" lon="-67.455406"></trkpt><trkpt lat="45.677886" lon="-67.803313"></trkpt><trkpt lat="47.065744" lon="-67.789761"></trkpt><trkpt lat="47.353733" lon="-68.269710"></trkpt><trkpt lat="47.178519" lon="-68.900985"></trkpt><trkpt lat="47.245100" lon="-69.040200"></trkpt><trkpt lat="47.422170" lon="-69.039301"></trkpt><trkpt lat="47.457159" lon="-69.219996"></trkpt><trkpt lat="46.695230" lon="-69.997086"></trkpt><trkpt lat="46.429236" lon="-70.053748"></trkpt><trkpt lat="46.185838" lon="-70.290896"></trkpt><trkpt lat="45.890755" lon="-70.259117"></trkpt><trkpt lat="45.510394" lon="-70.723396"></trkpt><trkpt lat="45.383608" lon="-70.634661"></trkpt><trkpt lat="45.400305" lon="-70.825612"></trkpt><trkpt lat="45.234513" lon="-70.844430"></trkpt><trkpt lat="45.331536" lon="-70.949365"></trkpt><trkpt lat="45.305451" lon="-71.083924"></trkpt></trkseg></trk><trk><name>S047 STATE</name><trkseg><trkpt lat="42.872290" lon="-70.817296"></trkpt><trkpt lat="42.859089" lon="-71.031201"></trkpt><trkpt lat="42.696990" lon="-71.294205"></trkpt><trkpt lat="42.726853" lon="-72.458519"></trkpt></trkseg></trk><trk><name>S048 STATE</name><trkseg><trkpt lat="41.320248" lon="-71.860513"></trkpt><trkpt lat="41.497448" lon="-71.120570"></trkpt><trkpt lat="41.660102" lon="-71.132888"></trkpt><trkpt lat="41.782600" lon="-71.329396"></trkpt><trkpt lat="42.018798" lon="-71.381401"></trkpt><trkpt lat="42.008065" lon="-71.799242"></trkpt></trkseg></trk><trk><name>S049 STATE</name><trkseg><trkpt lat="43.059825" lon="-70.703818"></trkpt><trkpt lat="42.872290" lon="-70.817296"></trkpt><trkpt lat="42.711064" lon="-70.772267"></trkpt><trkpt lat="42.635030" lon="-70.594014"></trkpt><trkpt lat="42.423996" lon="-70.982994"></trkpt><trkpt lat="42.268168" lon="-70.967351"></trkpt><trkpt lat="42.300663" lon="-70.881242"></trkpt><trkpt lat="42.210940" lon="-70.730560"></trkpt><trkpt lat="41.960592" lon="-70.662476"></trkpt><trkpt lat="41.752898" lon="-70.441718"></trkpt><trkpt lat="41.721346" lon="-70.272289"></trkpt><trkpt lat="41.787364" lon="-70.024734"></trkpt><trkpt lat="42.012041" lon="-70.083775"></trkpt><trkpt lat="42.063733" lon="-70.245385"></trkpt><trkpt lat="42.064689" lon="-70.049382"></trkpt><trkpt lat="41.622659" lon="-69.931129"></trkpt><trkpt lat="41.543931" lon="-70.011229"></trkpt><trkpt lat="41.671579" lon="-70.007011"></trkpt><trkpt lat="41.630508" lon="-70.321588"></trkpt><trkpt lat="41.409193" lon="-70.948431"></trkpt><trkpt lat="41.559002" lon="-70.698197"></trkpt><trkpt lat="41.641575" lon="-70.765463"></trkpt><trkpt lat="41.497448" lon="-71.120570"></trkpt></trkseg></trk><trk><name>S050 STATE</name><trkseg><trkpt lat="48.428748" lon="-122.803521"></trkpt><trkpt lat="48.661991" lon="-122.743049"></trkpt><trkpt lat="48.744629" lon="-122.818436"></trkpt><trkpt lat="48.790315" lon="-122.937925"></trkpt><trkpt lat="48.683466" lon="-123.237148"></trkpt><trkpt lat="48.505291" lon="-123.141478"></trkpt><trkpt lat="48.428748" lon="-122.803521"></trkpt></trkseg></trk><trk><name>S051 STATE</name><trkseg><trkpt lat="33.895712" lon="-120.121817"></trkpt><trkpt lat="34.028081" lon="-120.454134"></trkpt><trkpt lat="34.076465" lon="-120.368278"></trkpt><trkpt lat="34.037729" lon="-120.055107"></trkpt><trkpt lat="33.942481" lon="-119.973691"></trkpt><trkpt lat="33.895712" lon="-120.121817"></trkpt></trkseg></trk><trk><name>S052 STATE</name><trkseg><trkpt lat="33.962929" lon="-119.795938"></trkpt><trkpt lat="34.000548" lon="-119.363065"></trkpt><trkpt lat="34.050794" lon="-119.364214"></trkpt><trkpt lat="34.058351" lon="-119.916216"></trkpt><trkpt lat="33.962929" lon="-119.795938"></trkpt></trkseg></trk><trk><name>S053 STATE</name><trkseg><trkpt lat="33.228167" lon="-119.429559"></trkpt><trkpt lat="33.307269" lon="-119.510489"></trkpt><trkpt lat="33.278628" lon="-119.578942"></trkpt><trkpt lat="33.228167" lon="-119.429559"></trkpt></trkseg></trk><trk><name>S054 STATE</name><trkseg><trkpt lat="32.800595" lon="-118.425634"></trkpt><trkpt lat="33.017129" lon="-118.641578"></trkpt><trkpt lat="32.821962" lon="-118.353504"></trkpt><trkpt lat="32.800595" lon="-118.425634"></trkpt></trkseg></trk><trk><name>S055 STATE</name><trkseg><trkpt lat="33.299075" lon="-118.325244"></trkpt><trkpt lat="33.326056" lon="-118.465368"></trkpt><trkpt lat="33.467198" lon="-118.593969"></trkpt><trkpt lat="33.487483" lon="-118.484785"></trkpt><trkpt lat="33.351463" lon="-118.286261"></trkpt><trkpt lat="33.299075" lon="-118.325244"></trkpt></trkseg></trk><trk><name>S056 STATE</name><trkseg><trkpt lat="46.906724" lon="-90.637124"></trkpt><trkpt lat="46.961407" lon="-90.511623"></trkpt><trkpt lat="47.037013" lon="-90.560936"></trkpt><trkpt lat="47.024324" lon="-90.776921"></trkpt><trkpt lat="46.906724" lon="-90.637124"></trkpt></trkseg></trk><trk><name>S057 STATE</name><trkseg><trkpt lat="47.824015" lon="-89.157738"></trkpt><trkpt lat="48.040758" lon="-88.579172"></trkpt><trkpt lat="48.210650" lon="-88.425162"></trkpt><trkpt lat="47.876102" lon="-89.255202"></trkpt><trkpt lat="47.824015" lon="-89.157738"></trkpt></trkseg></trk><trk><name>S058 STATE</name><trkseg><trkpt lat="45.295185" lon="-86.899891"></trkpt><trkpt lat="45.421149" lon="-86.934276"></trkpt><trkpt lat="45.450188" lon="-86.835749"></trkpt><trkpt lat="45.295185" lon="-86.899891"></trkpt></trkseg></trk><trk><name>S059 STATE</name><trkseg><trkpt lat="44.990096" lon="-86.081487"></trkpt><trkpt lat="45.119281" lon="-85.954021"></trkpt><trkpt lat="45.159582" lon="-86.044430"></trkpt><trkpt lat="45.002394" lon="-86.154824"></trkpt><trkpt lat="44.990096" lon="-86.081487"></trkpt></trkseg></trk><trk><name>S060 STATE</name><trkseg><trkpt lat="45.572213" lon="-85.561634"></trkpt><trkpt lat="45.817554" lon="-85.360952"></trkpt><trkpt lat="45.829794" lon="-85.524448"></trkpt><trkpt lat="45.736129" lon="-85.701809"></trkpt><trkpt lat="45.572213" lon="-85.561634"></trkpt></trkseg></trk><trk><name>S061 STATE</name><trkseg><trkpt lat="45.727623" lon="-84.394038"></trkpt><trkpt lat="45.894470" lon="-84.616220"></trkpt><trkpt lat="45.771895" lon="-84.356020"></trkpt><trkpt lat="45.727623" lon="-84.394038"></trkpt></trkseg></trk><trk><name>S062 STATE</name><trkseg><trkpt lat="41.628323" lon="-82.842099"></trkpt><trkpt lat="41.643047" lon="-82.788876"></trkpt><trkpt lat="41.694003" lon="-82.782719"></trkpt><trkpt lat="41.722810" lon="-82.825720"></trkpt><trkpt lat="41.693693" lon="-82.863342"></trkpt><trkpt lat="41.628323" lon="-82.842099"></trkpt></trkseg></trk><trk><name>S063 STATE</name><trkseg><trkpt lat="24.529470" lon="-82.179454"></trkpt><trkpt lat="24.590071" lon="-82.086643"></trkpt><trkpt lat="24.622481" lon="-82.144099"></trkpt><trkpt lat="24.529470" lon="-82.179454"></trkpt></trkseg></trk><trk><name>S064 STATE</name><trkseg><trkpt lat="24.498131" lon="-81.918855"></trkpt><trkpt lat="24.498716" lon="-82.028091"></trkpt><trkpt lat="24.580682" lon="-81.983908"></trkpt><trkpt lat="24.584120" lon="-81.868711"></trkpt><trkpt lat="24.498131" lon="-81.918855"></trkpt></trkseg></trk><trk><name>S065 STATE</name><trkseg><trkpt lat="24.545469" lon="-81.812536"></trkpt><trkpt lat="24.653517" lon="-81.751266"></trkpt><trkpt lat="24.813364" lon="-81.443510"></trkpt><trkpt lat="24.673998" lon="-81.243232"></trkpt><trkpt lat="24.545469" lon="-81.812536"></trkpt></trkseg></trk><trk><name>S066 STATE</name><trkseg><trkpt lat="41.234818" lon="-72.034754"></trkpt><trkpt lat="41.290122" lon="-71.926802"></trkpt><trkpt lat="41.251333" lon="-71.917281"></trkpt><trkpt lat="41.234818" lon="-72.034754"></trkpt></trkseg></trk><trk><name>S067 STATE</name><trkseg><trkpt lat="41.149624" lon="-71.519210"></trkpt><trkpt lat="41.166678" lon="-71.631472"></trkpt><trkpt lat="41.242730" lon="-71.545410"></trkpt><trkpt lat="41.149624" lon="-71.519210"></trkpt></trkseg></trk><trk><name>S068 STATE</name><trkseg><trkpt lat="41.251014" lon="-70.821284"></trkpt><trkpt lat="41.342833" lon="-70.693635"></trkpt><trkpt lat="41.353651" lon="-70.448262"></trkpt><trkpt lat="41.419145" lon="-70.463833"></trkpt><trkpt lat="41.482384" lon="-70.603555"></trkpt><trkpt lat="41.353386" lon="-70.833802"></trkpt><trkpt lat="41.251014" lon="-70.821284"></trkpt></trkseg></trk><trk><name>S069 STATE</name><trkseg><trkpt lat="41.248765" lon="-70.211479"></trkpt><trkpt lat="41.264546" lon="-69.960181"></trkpt><trkpt lat="41.358818" lon="-69.984869"></trkpt><trkpt lat="41.310464" lon="-70.275526"></trkpt><trkpt lat="41.248765" lon="-70.211479"></trkpt></trkseg></trk><trk><name>S070 STATE</name><trkseg><trkpt lat="43.803781" lon="-68.888483"></trkpt><trkpt lat="43.904715" lon="-68.874784"></trkpt><trkpt lat="43.835326" lon="-68.944433"></trkpt><trkpt lat="43.803781" lon="-68.888483"></trkpt></trkseg></trk></gpx>